"PROVIDER_ID","HOSPITAL_NAME","ADDRESS","CITY","STATE","ZIP_CODE","COUNTY","PHONE_NUMBER"
"51330",MODOC MEDICAL CENTER,"228 W MCDOWELL AVE",ALTURAS,CA,"96101",MODOC,"5302335131"
"53303",RADY CHILDREN'S HOSPITAL - SAN DIEGO,"3020 CHILDRENS WAY",SAN DIEGO,CA,"92123",SAN DIEGO,"8585761700"
"51331",SANTA YNEZ VALLEY COTTAGE HOSPITAL,"2050 VIBORG RD",SOLVANG,CA,"93463",SANTA BARBARA,"8056886431"
"50738",GREATER EL MONTE COMMUNITY HOSPITAL,"1701 SANTA ANITA AVE",SOUTH EL MONTE,CA,"91733",LOS ANGELES,"6263507975"
"61307",RANGELY DISTRICT HOSPITAL,"225 EAGLECREST",RANGELY,CO,"81648",RIO BLANCO,"9706755011"
"61312",ESTES PARK MEDICAL CENTER,"555 PROSPECT AVENUE",ESTES PARK,CO,"80517",LARIMER,"9705864439"
"60126",BANNER FORT COLLINS MEDICAL CENTER,"4700 LADY MOON DR",FORT COLLINS,CO,"80528",LARIMER,"9702294000"
"60022",UNIVERSITY COLO HEALTH MEMORIAL HOSPITAL CENTRAL,"1400 E BOULDER ST",COLORADO SPRINGS,CO,"80909",EL PASO,"7193655000"
"53305",LUCILE SALTER PACKARD CHILDREN'S HSP AT STANFORD,"725 WELCH ROAD",PALO ALTO,CA,"94304",SANTA CLARA,"6504978000"
"50740",MARINA DEL REY HOSPITAL,"4650 LINCOLN BLVD",MARINA DEL REY,CA,"90291",LOS ANGELES,"3108238911"
"50761",PROVIDENCE TARZANA MEDICAL CENTER,"18321 CLARK STREET",TARZANA,CA,"91356",LOS ANGELES,"8188810800"
"60076",STERLING REGIONAL MEDCENTER,"615 FAIRHURST ST",STERLING,CO,"80751",LOGAN,"9705220122"
"50777",KAISER FOUNDATION HOSPITAL - SAN LEANDRO,"2500 MERCED STREET",SAN LEANDRO,CA,"94577",ALAMEDA,"5104541000"
"50254",MARSHALL MEDICAL CENTER,"1100 MARSHALL WAY",PLACERVILLE,CA,"95667",EL DORADO,"5306221441"
"51312",MOUNTAINS COMMUNITY HOSPITAL,"29101 HOSPITAL ROAD",LAKE ARROWHEAD,CA,"92352",SAN BERNARDINO,"9093363651"
"60008",SAN LUIS VALLEY HEALTH,"106 BLANCA AVE",ALAMOSA,CO,"81101",ALAMOSA,"7195892511"
"53300",VALLEY CHILDREN'S HOSPITAL,"9300 VALLEY CHILDRENS PLACE",MADERA,CA,"93636",FRESNO,"5593535116"
"50278",PROVIDENCE HOLY CROSS MEDICAL CENTER,"15031 RINALDI ST",MISSION HILLS,CA,"91346",LOS ANGELES,"8183658051"
"50765",KAISER FOUNDATION HOSPITAL-MORENO VALLEY,"27300 IRIS AVENUE",MORENO VALLEY,CA,"92555",RIVERSIDE,"9512516000"
"61303",EAST MORGAN COUNTY HOSPITAL,"2400 W EDISON ST",BRUSH,CO,"80723",MORGAN,"9708426200"
"61313",KIT CARSON COUNTY MEMORIAL HOSPITAL,"286 16TH STREET",BURLINGTON,CO,"80807",KIT CARSON,"7193465311"
"50131",NOVATO COMMUNITY HOSPITAL,"180 ROWLAND WAY",NOVATO,CA,"94945",MARIN,"4152091300"
"60104",ST ANTHONY NORTH HEALTH CAMPUS,"14300 ORCHARD PARKWAY",WESTMINSTER,CO,"80023",BROOMFIELD,"3034303201"
"61305",MELISSA MEMORIAL HOSPITAL,"1001 E JOHNSON STREET",HOLYOKE,CO,"80734",PHILLIPS,"9708542241"
"50770",LOMA LINDA UNIVERSITY MEDICAL CENTER-MURRIETA,"28062 BAXTER ROAD",MURRIETA,CA,"92563",RIVERSIDE,"9512904000"
"130003",ST JOSEPH REGIONAL MEDICAL CENTER,"415 SIXTH STREET",LEWISTON,ID,"83501",NEZ PERCE,"2087995300"
"100057",FLORIDA HOSPITAL WATERMAN,"1000 WATERMAN WAY",TAVARES,FL,"32778",LAKE,"3522533300"
"100151",MAYO CLINIC,"4500 SAN PABLO RD",JACKSONVILLE,FL,"32224",DUVAL,"9049532000"
"100040",ST VINCENT'S MEDICAL CENTER RIVERSIDE,"1 SHIRCLIFF WAY",JACKSONVILLE,FL,"32204",DUVAL,"9043087300"
"100242",GULF COAST REGIONAL MEDICAL CENTER,"449 W 23RD ST",PANAMA CITY,FL,"32405",BAY,"8507477926"
"100291",WUESTHOFF MEDICAL CENTER-MELBOURNE,"250 NORTH WICKHAM ROAD",MELBOURNE,FL,"32935",BREVARD,"3217521200"
"100206",MEMORIAL HOSPITAL OF TAMPA,"2901 W SWANN AVE",TAMPA,FL,"33609",HILLSBOROUGH,"8138736400"
"100266",GULF BREEZE HOSPITAL,"1110 GULF BREEZE PKWY",GULF BREEZE,FL,"32561",SANTA ROSA,"8509342000"
"100268",WEST BOCA MEDICAL CENTER,"21644 STATE RD 7",BOCA RATON,FL,"33428",PALM BEACH,"5614888000"
"100269",PALMS WEST HOSPITAL,"13001 SOUTHERN BLVD",LOXAHATCHEE,FL,"33470",PALM BEACH,"5617534245"
"100200",BROWARD HEALTH IMPERIAL POINT,"6401 N FEDERAL HWY",FORT LAUDERDALE,FL,"33308",BROWARD,"9547768500"
"100049",HIGHLANDS REGIONAL MEDICAL CENTER,"3600 S HIGHLANDS AVE",SEBRING,FL,"33870",HIGHLANDS,"8633856101"
"100249",SEVEN RIVERS REGIONAL MEDICAL CENTER,"6201 N SUNCOAST BLVD",CRYSTAL RIVER,FL,"34428",CITRUS,"3527956560"
"100135",TALLAHASSEE MEMORIAL HOSPITAL,"1300 MICCOSUKEE RD",TALLAHASSEE,FL,"32308",LEON,"8504311155"
"140213",SILVER CROSS HOSPITAL  AND MEDICAL CENTERS,"1900 SILVER CROSS BLVD",NEW LENOX,IL,"60451",WILL,"8153001100"
"100022",JACKSON MEMORIAL HOSPITAL,"1611 NW 12TH AVE",MIAMI,FL,"33136",MIAMI-DADE,"3055851111"
"121308",KULA HOSPITAL,"100 KOKEA PLACE",KULA,HI,"96790",MAUI,"8088781221"
"100176",PALM BEACH GARDENS MEDICAL CENTER,"3360 BURNS RD",PALM BEACH GARDENS,FL,"33410",PALM BEACH,"5616221411"
"123301",SHRINERS HOSPITAL FOR CHILDREN,"1310 PUNAHOU STREET",HONOLULU,HI,"96826",HONOLULU,"8089414466"
"140001",GRAHAM HOSPITAL ASSOCIATION,"210 WEST WALNUT STREET",CANTON,IL,"61520",FULTON,"3096475240"
"100019",HOLMES REGIONAL MEDICAL CENTER,"1350 S HICKORY ST",MELBOURNE,FL,"32901",BREVARD,"3214347000"
"120001",THE QUEENS MEDICAL CENTER,"1301 PUNCHBOWL ST",HONOLULU,HI,"96813",HONOLULU,"8085389011"
"100224",UNIVERSITY HOSPITAL AND MEDICAL CENTER,"7201 N UNIVERSITY DR",TAMARAC,FL,"33321",BROWARD,"9547212200"
"111314",PIONEER COMMUNITY HOSPITAL OF EARLY,"11740 COLUMBIA STREET",BLAKELY,GA,"39823",EARLY,"2297234241"
"110054",FLOYD MEDICAL CENTER,"304 TURNER MCCALL BLVD P O BOX 233",ROME,GA,"30162",FLOYD,"7065096900"
"110038",JOHN D ARCHBOLD MEMORIAL HOSPITAL,"915 GORDON AVENUE & MIMOSA DRIVE",THOMASVILLE,GA,"31792",THOMAS,"2292282880"
"110191",PIEDMONT HENRY HOSPITAL,"1133 EAGLE'S LANDING PARKWAY",STOCKBRIDGE,GA,"30281",HENRY,"6786041000"
"103301",NICKLAUS CHILDREN'S HOSPITAL,"3100 SW 62ND AVE",MIAMI,FL,"33155",MIAMI-DADE,"3056666511"
"100122",NORTH OKALOOSA MEDICAL CENTER,"151 REDSTONE AVE SE",CRESTVIEW,FL,"32539",OKALOOSA,"8506898100"
"100124",SANTA ROSA MEDICAL CENTER,"6002 BERRYHILL RD",MILTON,FL,"32570",SANTA ROSA,"8506267762"
"100238",NORTHSIDE HOSPITAL,"6000 49TH ST N",SAINT PETERSBURG,FL,"33709",PINELLAS,"8135215000"
"70021",WINDHAM COMM MEM HOSP & HATCH HOSP,"112 MANSFIELD AVENUE",WILLIMANTIC,CT,"6226",WINDHAM,"8604569116"
"110042",WELLSTAR PAULDING HOSPITAL,"2518 JIMMY LEE SMITH PARKWAY",HIRAM,GA,"30141",PAULDING,"4706447000"
"110008",NORTHSIDE HOSPITAL CHEROKEE,"201 HOSPITAL ROAD",CANTON,GA,"30114",CHEROKEE,"7707205100"
"110200",NORTHSIDE MEDICAL CENTER,"100 FRIST COURT",COLUMBUS,GA,"31909",MUSCOGEE,"7064942100"
"100032",BAYFRONT HEALTH - ST PETERSBURG,"701 6TH ST S",SAINT PETERSBURG,FL,"33701",PINELLAS,"7278231234"
"111325",WILLS MEMORIAL HOSPITAL,"120 GORDON STREET",WASHINGTON,GA,"30673",WILKES,"7066789212"
"111335",LIBERTY REGIONAL MEDICAL CENTER,"462 E G MILES PARKWAY",HINESVILLE,GA,"31310",LIBERTY,"9123699438"
"100109",FLORIDA HOSPITAL HEARTLAND MEDICAL CENTER,"4200 SUN N LAKE BLVD",SEBRING,FL,"33871",HIGHLANDS,"8633144466"
"100118",FLORIDA HOSPITAL FLAGLER,"60 MEMORIAL MEDICAL PKWY",PALM COAST,FL,"32164",FLAGLER,"3865862000"
"100236",FAWCETT MEMORIAL HOSPITAL,"21298 OLEAN BLVD",PORT CHARLOTTE,FL,"33952",CHARLOTTE,"9416291181"
"130006",ST LUKE'S REGIONAL MEDICAL CENTER,"190 EAST BANNOCK STREET",BOISE,ID,"83712",ADA,"2083812222"
"140160",FHN MEMORIAL HOSPITAL,"1045 WEST STEPHENSON STREET",FREEPORT,IL,"61032",STEPHENSON,"8152354131"
"140011",HERRIN HOSPITAL,"201 S 14TH ST",HERRIN,IL,"62948",WILLIAMSON,"6189422171"
"130013",SAINT ALPHONSUS MEDICAL CENTER - NAMPA,"1512 TWELFTH AVENUE ROAD",NAMPA,ID,"83686",CANYON,"2084635000"
"140054",MACNEAL  HOSPITAL,"3249 SOUTH OAK PARK AVENUE",BERWYN,IL,"60402",COOK,"7087839100"
"131308",CASCADE MEDICAL CENTER,"402 LAKE CASCADE PARKWAY",CASCADE,ID,"83611",VALLEY,"2083824242"
"140240",WESTLAKE COMMUNITY HOSPITAL,"1225 LAKE ST",MELROSE PARK,IL,"60160",COOK,"7089384000"
"130025",MADISON MEMORIAL HOSPITAL,"450 EAST MAIN STREET",REXBURG,ID,"83440",MADISON,"2083596900"
"140030",SHERMAN HOSPITAL,"1425 NORTH RANDALL ROAD",ELGIN,IL,"60123",KANE,"8477429800"
"131301",BOUNDARY COMMUNITY HOSPITAL,"6640 KANIKSU STREET",BONNERS FERRY,ID,"83805",BOUNDARY,"2082674850"
"140182",ADVOCATE ILLINOIS MASONIC MEDICAL CENTER,"836 WEST WELLINGTON AVENUE",CHICAGO,IL,"60657",COOK,"7739751600"
"140043",CGH MEDICAL CENTER,"100 EAST LEFEVRE ROAD",STERLING,IL,"61081",WHITESIDE,"8156250400"
"10001",SOUTHEAST ALABAMA MEDICAL CENTER,"1108 ROSS CLARK CIRCLE",DOTHAN,AL,"36301",HOUSTON,"3347938701"
"10103",PRINCETON BAPTIST MEDICAL CENTER,"701 PRINCETON AVENUE SOUTHWEST",BIRMINGHAM,AL,"35211",JEFFERSON,"2057833800"
"10056",ST VINCENT'S BIRMINGHAM,"810 ST VINCENT'S DRIVE",BIRMINGHAM,AL,"35205",JEFFERSON,"2059397000"
"10169",ATMORE COMMUNITY HOSPITAL,"401 MEDICAL PARK DRIVE",ATMORE,AL,"36502",ESCAMBIA,"2513682500"
"10109",PICKENS COUNTY MEDICAL CENTER,"241 ROBERT K WILSON DRIVE",CARROLLTON,AL,"35447",PICKENS,"2053678111"
"10090",PROVIDENCE HOSPITAL,"6801 AIRPORT BOULEVARD",MOBILE,AL,"36608",MOBILE,"2516331000"
"21303",SITKA COMMUNITY HOSPITAL,"209 MOLLER DRIVE",SITKA,AK,"99835",SITKA,"9077473241"
"30001",ABRAZO MARYVALE CAMPUS,"5102 WEST CAMPBELL AVENUE",PHOENIX,AZ,"85031",MARICOPA,"6238485000"
"21307",CORDOVA COMMUNITY MEDICAL CENTER,PO BOX 160 - 602 CHASE AVENUE,CORDOVA,AK,"99574",,"9074248000"
"30030",ABRAZO CENTRAL CAMPUS,"2000 WEST BETHANY HOME ROAD",PHOENIX,AZ,"85015",MARICOPA,"6022490212"
"30122",BANNER GATEWAY MEDICAL CENTER,"1900 NORTH HIGLEY ROAD",GILBERT,AZ,"85234",MARICOPA,"4805432000"
"30077",SAN CARLOS APACHE HEALTHCARE,"103 MEDICINE WAY ROAD",PERIDOT,AZ,"85542",GILA,"9284751200"
"30132","FLORENCE HOSPITAL AT ANTHEM, LLC","4545 NORTH HUNT HIGHWAY",FLORENCE,AZ,"85132",PINAL,"5204242060"
"30107",ARIZONA SPINE AND JOINT HOSPITAL,"4620 EAST BASELINE ROAD",MESA,AZ,"85206",MARICOPA,"4808324770"
"30108","CORE INSTITUTE SPECIALTY HOSPITAL, THE","6501 NORTH 19TH AVENUE",PHOENIX,AZ,"85015",MARICOPA,"6027956020"
"40026",CHI ST. VINCENT HOSPITAL HOT SPRINGS,"300 WERNER STREET",HOT SPRINGS,AR,"71903",GARLAND,"5016221000"
"31301",BENSON HOSPITAL,"450 SOUTH OCOTILLO AVENUE",BENSON,AZ,"85602",COCHISE,"5205862261"
"40019",FORREST CITY MEDICAL CENTER,"1601 NEWCASTLE ROAD",FORREST CITY,AR,"72335",SAINT FRANCIS,"8702610000"
"40017",NORTH ARKANSAS REGIONAL MEDICAL CENTER,"620 NORTH MAIN STREET",HARRISON,AR,"72601",BOONE,"8704144000"
"40018",SPARKS MEDICAL CENTER - VAN BUREN,EAST MAIN AND SOUTH 20TH STREET,VAN BUREN,AR,"72956",CRAWFORD,"4794743401"
"40085",HELENA REGIONAL MEDICAL CENTER,"1801 MARTIN LUTHER KING JR DRIVE",HELENA,AR,"72342",PHILLIPS,"8703385800"
"40153",WADLEY REGIONAL MEDICAL CENTER AT HOPE,"2001 SOUTH MAIN",HOPE,AR,"71801",HEMPSTEAD,"8707223800"
"40067",MAGNOLIA HOSPITAL,"101 HOSPITAL DRIVE",MAGNOLIA,AR,"71754",COLUMBIA,"8702353000"
"41318",MERCY HOSPITAL BOONEVILLE,"880 WEST MAIN",BOONEVILLE,AR,"72927",LOGAN,"4796752800"
"41305",MERCY HOSPITAL WALDRON,"1341 WEST SIXTH STREET",WALDRON,AR,"72958",SCOTT,"4796374135"
"50009",QUEEN OF THE VALLEY MEDICAL CENTER,"1000 TRANCAS ST",NAPA,CA,"94558",NAPA,"7072524411"
"50018",PACIFIC ALLIANCE MEDICAL CENTER,"531 W COLLEGE ST",LOS ANGELES,CA,"90012",LOS ANGELES,"2136248411"
"50045",EL CENTRO REGIONAL MEDICAL CENTER,"1415 ROSS AVENUE",EL CENTRO,CA,"92243",IMPERIAL,"7603397100"
"50071",KAISER FOUNDATION HOSPITAL-SANTA CLARA,"700 LAWRENCE EXPRESSWAY",SANTA CLARA,CA,"95051",SANTA CLARA,"4082366400"
"50126",VALLEY PRESBYTERIAN HOSPITAL,"15107 VANOWEN ST",VAN NUYS,CA,"91406",LOS ANGELES,"8187826600"
"51307",CATALINA ISLAND MEDICAL CENTER,"100 FALLS CANYON ROAD",AVALON,CA,"90704",LOS ANGELES,"3105100700"
"50727",COMMUNITY HOSPITAL OF LONG BEACH,"1720 TERMINO AVENUE",LONG BEACH,CA,"90804",LOS ANGELES,"5624940600"
"50226",AHMC ANAHEIM REGIONAL MEDICAL CENTER,"1111 W LA PALMA AVENUE",ANAHEIM,CA,"92801",ORANGE,"7147741450"
"50239",GLENDALE ADVENTIST MEDICAL CENTER,"1509 E WILSON TERRACE",GLENDALE,CA,"91206",LOS ANGELES,"8184098202"
"50309",SUTTER ROSEVILLE MEDICAL CENTER,ONE MEDICAL PLAZA,ROSEVILLE,CA,"95661",PLACER,"9167811000"
"50382",CITRUS VALLEY MEDICAL CENTER-IC CAMPUS,"210 W  SAN BERNARDINO ROAD",COVINA,CA,"91723",LOS ANGELES,"6268142468"
"50149",CALIFORNIA HOSPITAL MEDICAL CENTER LA,"1401 SOUTH GRAND AVENUE",LOS ANGELES,CA,"90015",LOS ANGELES,"2137482411"
"50423",PALO VERDE HOSPITAL,"250 NORTH FIRST STREET",BLYTHE,CA,"92225",RIVERSIDE,"7609224115"
"50723",KAISER FOUNDATION HOSPITAL - BALDWIN PARK,"1011 BALDWIN PARK BLVD",BALDWIN PARK,CA,"91706",LOS ANGELES,"6268511011"
"50599",UNIVERSITY OF CALIFORNIA DAVIS MEDICAL CENTER,"2315 STOCKTON BOULEVARD",SACRAMENTO,CA,"95817",SACRAMENTO,"9167342011"
"50604",KAISER FOUNDATION HOSPITAL-SAN JOSE,"250 HOSPITAL PARKWAY",SAN JOSE,CA,"95119",SANTA CLARA,"4089727000"
"50425",KAISER FOUNDATION HOSPITAL - SACRAMENTO,"2025 MORSE AVENUE",SACRAMENTO,CA,"95825",SACRAMENTO,"9169735000"
"50152",SAINT FRANCIS MEMORIAL HOSPITAL,"900 HYDE ST",SAN FRANCISCO,CA,"94109",SAN FRANCISCO,"4153536000"
"50704",MISSION COMMUNITY HOSPITAL,"14850 ROSCOE BLVD",PANORAMA CITY,CA,"91402",LOS ANGELES,"8189043100"
"100299",LAKEWOOD RANCH MEDICAL CENTER,"8330 LAKEWOOD RANCH BLVD",BRADENTON,FL,"34202",MANATEE,"9417822100"
"100307",ST VINCENT'S MEDICAL CENTER SOUTHSIDE,"4201 BELFORT RD",JACKSONVILLE,FL,"32216",DUVAL,"9042963700"
"50438",HUNTINGTON MEMORIAL HOSPITAL,"100 W  CALIFORNIA BLVD",PASADENA,CA,"91109",LOS ANGELES,"6263975000"
"50441",STANFORD HEALTH CARE,"300 PASTEUR DRIVE",STANFORD,CA,"94305",SANTA CLARA,"6507235708"
"50717",LAC/RANCHO LOS AMIGOS NATIONAL REHABILITATION  CTR,"7601 EAST IMPERIAL HIGHWAY",DOWNEY,CA,"90242",LOS ANGELES,"5624017022"
"50204",PALMDALE REGIONAL MEDICAL CENTER,"38600 MEDICAL CENTER DRIVE",PALMDALE,CA,"93552",LOS ANGELES,"6613825000"
"50329",CORONA REGIONAL MEDICAL CENTER,"800 SOUTH MAIN STREET",CORONA,CA,"92882",RIVERSIDE,"9517374343"
"50367",NORTHBAY MEDICAL CENTER,"1200 B  GALE WILSON BLVD",FAIRFIELD,CA,"94533",SOLANO,"7076465000"
"110124",WAYNE MEMORIAL HOSPITAL,"865 SOUTH FIRST STREET",JESUP,GA,"31545",WAYNE,"9125303302"
"50454",UCSF MEDICAL CENTER,"505 PARNASSUS AVE, BOX 0296",SAN FRANCISCO,CA,"94143",SAN FRANCISCO,"4153532733"
"50737",GARFIELD MEDICAL CENTER,"525 N GARFIELD AVE",MONTEREY PARK,CA,"91754",LOS ANGELES,"6265732222"
"60054",COMMUNITY HOSPITAL,"2351 G RD",GRAND JUNCTION,CO,"81505",MESA,"9702566201"
"50772",KAISER FOUNDATION HOSPITAL - ROSEVILLE,"1600 EUREKA ROAD",ROSEVILLE,CA,"95661",PLACER,"9167844000"
"50776",COLLEGE MEDICAL CENTER,"2776 PACIFIC AVENUE",LONG BEACH,CA,"90806",LOS ANGELES,"5625951911"
"50557",MEMORIAL MEDICAL CENTER,"1700 COFFEE RD",MODESTO,CA,"95355",STANISLAUS,"2095264500"
"60004",PLATTE VALLEY MEDICAL CENTER,"1600 PRAIRIE CENTER PARKWAY",BRIGHTON,CO,"80601",ADAMS,"3034981601"
"61309",WRAY COMMUNITY DISTRICT HOSPITAL,"1017 W 7TH ST",WRAY,CO,"80758",YUMA,"9703324811"
"51334",OJAI VALLEY COMMUNITY HOSPITAL,"1306 MARICOPA HWY",OJAI,CA,"93023",VENTURA,"8056402280"
"51325",MENDOCINO COAST DISTRICT HOSPITAL,"700 RIVER DR",FORT BRAGG,CA,"95437",MENDOCINO,"7079611234"
"51314",KERN VALLEY HEALTHCARE DISTRICT,"6412 LAUREL AVE",LAKE ISABELLA,CA,"93240",KERN,"7603792681"
"60010",POUDRE VALLEY HOSPITAL,"1024 S LEMAY AVE",FORT COLLINS,CO,"80524",LARIMER,"9704957000"
"53301",CHILDREN'S HOSPITAL & RESEARCH CENTER OAKLAND,"747 52ND STREET",OAKLAND,CA,"94609",ALAMEDA,"5104283000"
"60096",VAIL VALLEY MEDICAL CENTER,"181 W MEADOW DRIVE",VAIL,CO,"81657",EAGLE,"9704762451"
"60013",MERCY REGIONAL MEDICAL CENTER,"1010 THREE SPRINGS BLVD",DURANGO,CO,"81301",LA PLATA,"9702474311"
"50767",KAISER FOUNDATION HOSPITAL - VACAVILLE,"1 QUALITY DRIVE",VACAVILLE,CA,"95688",SOLANO,"7076244000"
"50573",EISENHOWER MEDICAL CENTER,"39-000 BOB HOPE DRIVE",RANCHO MIRAGE,CA,"92270",RIVERSIDE,"7603403911"
"50135",SOUTHERN CALIFORNIA HOSPITAL AT HOLLYWOOD,"6245 DE LONGPRE AVE",HOLLYWOOD,CA,"90028",LOS ANGELES,"3234622271"
"51328",TAHOE FOREST HOSPITAL,"10121 PINE AVE",TRUCKEE,CA,"96161",NEVADA,"5305876011"
"51318",REDWOOD MEMORIAL HOSPITAL,"3300 RENNER DRIVE",FORTUNA,CA,"95540",HUMBOLDT,"7074458121"
"50771",COAST PLAZA HOSPITAL,"13100 STUDERBAKER ROAD",NORWALK,CA,"90650",LOS ANGELES,"3103560550"
"100154",SOUTH MIAMI HOSPITAL,"6200 SW 73RD ST",SOUTH MIAMI,FL,"33143",MIAMI-DADE,"7866624000"
"131320",CLEARWATER VALLEY HOSPITAL & CLINICS,"301 CEDAR STREET",OROFINO,ID,"83544",CLEARWATER,"2084764555"
"140088",THE UNIVERSITY OF CHICAGO MEDICAL CENTER,"5841 SOUTH MARYLAND",CHICAGO,IL,"60637",COOK,"7737021000"
"100128",TAMPA GENERAL HOSPITAL,"1 TAMPA GENERAL CIR",TAMPA,FL,"33606",HILLSBOROUGH,"8138447000"
"100127",MORTON PLANT HOSPITAL,"300 PINELLAS ST",CLEARWATER,FL,"33756",PINELLAS,"7274627000"
"100240",ANNE BATES LEACH EYE HOSPITAL,"900 NW 17TH ST",MIAMI,FL,"33136",MIAMI-DADE,"3053266000"
"100286",PHYSICIANS REGIONAL MEDICAL CENTER - PINE RIDGE,"6101 PINE RIDGE ROAD",NAPLES,FL,"34119",COLLIER,"2393484000"
"100290","VILLAGES REGIONAL HOSPITAL, THE","1451 EL CAMINO REAL",THE VILLAGES,FL,"32159",SUMTER,"3527518000"
"100244",CAPE CORAL HOSPITAL,"636 DEL PRADO BLVD",CAPE CORAL,FL,"33990",LEE,"2395742323"
"100296",DOCTORS HOSPITAL,"5000 UNIVERSITY DR",CORAL GABLES,FL,"33146",MIAMI-DADE,"3056662111"
"80006",NANTICOKE MEMORIAL HOSPITAL,"801 MIDDLEFORD RD",SEAFORD,DE,"19973",SUSSEX,"3026296611"
"80009",BAYHEALTH - MILFORD MEMORIAL HOSPITAL,"21 WEST CLARKE AVENUE",MILFORD,DE,"19963",SUSSEX,"3024223311"
"100063",MORTON PLANT NORTH BAY HOSPITAL,"6600 MADISON ST",NEW PORT RICHEY,FL,"34652",PASCO,"7278428468"
"140100",MIDWESTERN REGION MED CENTER,"2520 ELISHA AVENUE",ZION,IL,"60099",LAKE,"8478724561"
"83300",ALFRED I DUPONT HOSPITAL FOR CHILDREN,"1600 ROCKLAND RD PO BOX 269",WILMINGTON,DE,"19899",NEW CASTLE,"3026514000"
"100006",ORLANDO HEALTH,"52 W UNDERWOOD ST",ORLANDO,FL,"32806",ORANGE,"3218438000"
"121307",HALE HO'OLA HAMAKUA,"45-547 PLUMERIA STREET",HONOKAA,HI,"96727",HAWAII,"8089324100"
"121306",SAMUEL MAHELONA MEMORIAL HOSPITAL,"4800 KAWAIHAU ROAD",KAPAA,HI,"96746",KAUAI,"8088224961"
"131325",BINGHAM MEMORIAL HOSPITAL,"98 POPLAR STREET",BLACKFOOT,ID,"83221",BINGHAM,"2087853804"
"100209",KENDALL REGIONAL MEDICAL CENTER,"11750 BIRD RD",MIAMI,FL,"33175",MIAMI-DADE,"3052233000"
"100134",ED FRASER MEMORIAL HOSPITAL,"159 N 3RD ST",MACCLENNY,FL,"32063",BAKER,"9042593151"
"100072",FLORIDA HOSPITAL FISH MEMORIAL,"1055 SAXON BLVD",ORANGE CITY,FL,"32763",VOLUSIA,"3869175000"
"100211",BAYFRONT HEALTH DADE CITY,"13100 FT KING RD",DADE CITY,FL,"33525",PASCO,"3525683174"
"140113",PRESENCE COVENANT MEDICAL CENTER,"1400 WEST PARK AVENUE",URBANA,IL,"61801",CHAMPAIGN,"2173372000"
"140187",ST ELIZABETH HOSPITAL,"211 S THIRD ST",BELLEVILLE,IL,"62220",SAINT CLAIR,"6182342120"
"121301",KAU HOSPITAL,"1 KAMANI STREET",PAHALA,HI,"96777",HAWAII,"8089288331"
"90006",PROVIDENCE HOSPITAL,"1150 VARNUM ST NE",WASHINGTON,DC,"20017",DISTRICT OF COLUMBIA,"2022697000"
"110035",WELLSTAR KENNESTONE HOSPITAL,"677 CHURCH STREET",MARIETTA,GA,"30060",COBB,"7707935000"
"101309",HENDRY REGIONAL MEDICAL CENTER,"524 W SAGAMORE AVE",CLEWISTON,FL,"33440",HENDRY,"8639023033"
"110089",COFFEE REGIONAL MEDICAL CENTER,"1101 OCILLA ROAD",DOUGLAS,GA,"31533",COFFEE,"9123835620"
"100223",FORT WALTON BEACH MEDICAL CENTER,"1000 MAR-WALT DR",FORT WALTON BEACH,FL,"32547",OKALOOSA,"8508621111"
"111316",WARM SPRINGS MEDICAL CENTER,"5995 SPRING STREET",WARM SPRINGS,GA,"31830",MERIWETHER,"7066559351"
"111330",POLK MEDICAL CENTER,"2360 ROCKMART HIGHWAY",CEDARTOWN,GA,"30125",POLK,"7707482500"
"110064",MIDTOWN MEDICAL CENTER,"710 CENTER ST BOX 951",COLUMBUS,GA,"31901",MUSCOGEE,"7065711000"
"110006",ST MARY'S HOSPITAL,"1230 BAXTER STREET",ATHENS,GA,"30606",CLARKE,"7063893930"
"100028",PARRISH MEDICAL CENTER,"951 N WASHINGTON AVE",TITUSVILLE,FL,"32796",BREVARD,"3212686111"
"110146",SOUTHEAST GEORGIA HEALTH SYSTEM- CAMDEN CAMPUS,"2000 DAN PROCTOR DRIVE",SAINT MARYS,GA,"31558",CAMDEN,"9125766401"
"101312",FISHERMEN'S HOSPITAL,"3301 OVERSEAS HWY",MARATHON,FL,"33050",MONROE,"3057435533"
"100255",TAMPA COMMUNITY HOSPITAL,"6001 WEBB RD",TAMPA,FL,"33615",HILLSBOROUGH,"8138827159"
"100232",PUTNAM COMMUNITY MEDICAL CENTER,"611 ZEAGLER DR",PALATKA,FL,"32177",PUTNAM,"3863268500"
"70020",MIDDLESEX HOSPITAL,"28 CRESCENT ST",MIDDLETOWN,CT,"6457",MIDDLESEX,"8603446000"
"70024",WILLIAM W BACKUS HOSPITAL,"326 WASHINGTON ST",NORWICH,CT,"6360",NEW LONDON,"8608898331"
"110075",EAST GEORGIA REGIONAL MEDICAL CENTER,"1499 FAIR ROAD",STATESBORO,GA,"30458",BULLOCH,"9124861500"
"101304",CALHOUN-LIBERTY HOSPITAL,"20370 NE BURNS AVE",BLOUNTSTOWN,FL,"32424",CALHOUN,"8506743493"
"101307",DOCTORS MEMORIAL HOSPITAL,"2600 HOSPITAL DR",BONIFAY,FL,"32425",HOLMES,"8505471120"
"111333",JEFF DAVIS HOSPITAL,"163 SOUTH TALLAHASSEE STREET, P O BOX 1690",HAZLEHURST,GA,"31539",JEFF DAVIS,"9123757781"
"70027",MANCHESTER MEMORIAL HOSPITAL,"71 HAYNES ST",MANCHESTER,CT,"6040",HARTFORD,"8606474780"
"110209",TURNING POINT HOSPITAL,"3015 VETERANS PARKWAY",MOULTRIE,GA,"31788",COLQUITT,"2299854815"
"120019",KONA COMMUNITY HOSPITAL,"79-1019 HAUKAPILA STREET",KEALAKEKUA,HI,"96750",HAWAII,"8083229311"
"110109",EMANUEL MEDICAL CENTER,"117 KITE ROAD",SWAINSBORO,GA,"30401",EMANUEL,"4782891304"
"100217",SEBASTIAN RIVER MEDICAL CENTER,"13695 US HWY 1",SEBASTIAN,FL,"32978",INDIAN RIVER,"7725893187"
"110215",PIEDMONT FAYETTE HOSPITAL,"1255 HIGHWAY 54 WEST",FAYETTEVILLE,GA,"30214",FAYETTE,"7707197071"
"140161",SAINT JAMES HOSPITAL,"2500 WEST REYNOLDS STREET",PONTIAC,IL,"61764",LIVINGSTON,"8158422828"
"140120",PEKIN MEMORIAL HOSPITAL,"600 SOUTH 13TH STREET",PEKIN,IL,"61554",TAZEWELL,"3093471151"
"140058",PASSAVANT AREA HOSPITAL,"1600 W WALNUT ST",JACKSONVILLE,IL,"62650",MORGAN,"2172459551"
"140012",KATHERINE SHAW BETHEA HOSPITAL,"403 E 1ST ST",DIXON,IL,"61021",LEE,"8152885531"
"140167",IROQUOIS MEMORIAL HOSPITAL,"200 FAIRMAN STREET",WATSEKA,IL,"60970",IROQUOIS,"8154325201"
"140176",CENTEGRA HEALTH SYSTEM - WOODSTOCK HOSPITAL,"3701 DOTY ROAD",WOODSTOCK,IL,"60098",MCHENRY,"8157885823"
"131311",ST LUKE'S ELMORE MEDICAL CENTER,"895 NORTH 6TH EAST",MOUNTAIN HOME,ID,"83647",ELMORE,"2085878401"
"140145",ST JOSEPHS HOSPITAL,"9515 HOLY CROSS LN",BREESE,IL,"62230",CLINTON,"6185264511"
"130067",IDAHO DOCTORS HOSPITAL,"350 N MERIDIAN STREET",BLACKFOOT,ID,"83221",BINGHAM,"2087822900"
"140148",MEMORIAL MEDICAL CENTER,"701 N FIRST ST",SPRINGFIELD,IL,"62781",SANGAMON,"2177883000"
"140048",ADVOCATE TRINITY HOSPITAL,"2320 E 93RD ST",CHICAGO,IL,"60617",COOK,"7739672000"
"10065",RUSSELL HOSPITAL,"3316 HIGHWAY 280",ALEXANDER CITY,AL,"35010",TALLAPOOSA,"2563297100"
"10086",NORTHWEST MEDICAL CENTER,"1530 U S HIGHWAY 43",WINFIELD,AL,"35594",MARION,"2054877736"
"10035",CULLMAN REGIONAL MEDICAL CENTER,"1912 ALABAMA HIGHWAY 157",CULLMAN,AL,"35058",CULLMAN,"2567372000"
"10039",HUNTSVILLE HOSPITAL,"101 SIVLEY RD",HUNTSVILLE,AL,"35801",MADISON,"2562651000"
"10045",FAYETTE MEDICAL CENTER,"1653 TEMPLE AVENUE NORTH",FAYETTE,AL,"35555",FAYETTE,"2059325966"
"10055",FLOWERS HOSPITAL,"4370 WEST MAIN STREET",DOTHAN,AL,"36305",HOUSTON,"3347935000"
"10097",ELMORE COMMUNITY HOSPITAL,"500 HOSPITAL DRIVE",WETUMPKA,AL,"36092",ELMORE,"3345674311"
"10164",COOSA VALLEY MEDICAL CENTER,"315 W HICKORY ST",SYLACAUGA,AL,"35150",TALLADEGA,"2562495000"
"10113",MOBILE INFIRMARY MEDICAL CENTER,"5 MOBILE INFIRMARY CIRCLE",MOBILE,AL,"36652",MOBILE,"2514354700"
"10128",JACKSON MEDICAL CENTER,"220 HOSPITAL DRIVE",JACKSON,AL,"36545",CLARKE,"2512469021"
"10130",ST VINCENT'S ST CLAIR,"7063 VETERANS PARKWAY",PELL CITY,AL,"35125",SAINT CLAIR,"2053383301"
"10148",EVERGREEN MEDICAL CENTER,"101 CRESTVIEW AVENUE",EVERGREEN,AL,"36401",CONECUH,"2515782480"
"11302",RED BAY HOSPITAL,"211 HOSPITAL ROAD",RED BAY,AL,"35582",FRANKLIN,"2563569532"
"30085",NORTHWEST MEDICAL CENTER,"6200 NORTH LA CHOLLA BOULEVARD",TUCSON,AZ,"85741",PIMA,"5204698100"
"30083",ABRAZO SCOTTSDALE CAMPUS,"3929 EAST BELL ROAD",PHOENIX,AZ,"85032",MARICOPA,"6029235000"
"30013",YUMA REGIONAL MEDICAL CENTER,"2400 SOUTH AVENUE A",YUMA,AZ,"85364",YUMA,"9283367600"
"30022",MARICOPA MEDICAL CENTER,"2601 EAST ROOSEVELT STREET",PHOENIX,AZ,"85008",MARICOPA,"6023445011"
"30037",ST LUKE'S MEDICAL CENTER,"1800 EAST VAN BUREN STREET",PHOENIX,AZ,"85006",MARICOPA,"6022518156"
"30088",BANNER BAYWOOD MEDICAL CENTER,"6644 EAST BAYWOOD AVENUE",MESA,AZ,"85206",MARICOPA,"4806845898"
"31308",HUHU KAM MEMORIAL HOSPITAL,"483 WEST SEED FARM ROAD",SACATON,AZ,"85147",PINAL,"5205623321"
"31314",COBRE VALLEY REGIONAL MEDICAL CENTER,"5880 SOUTH HOSPITAL DRIVE",GLOBE,AZ,"85501",GILA,"9284253261"
"40004",WASHINGTON REGIONAL MEDICAL CENTER,"3215 N NORTH HILLS BOULEVARD",FAYETTEVILLE,AR,"72703",WASHINGTON,"4794635113"
"31317",LA PAZ REGIONAL HOSPITAL,"1200 WEST MOHAVE ROAD",PARKER,AZ,"85344",LA PAZ,"9286699201"
"33302",PHOENIX CHILDREN'S HOSPITAL,"1919 EAST THOMAS ROAD",PHOENIX,AZ,"85016",MARICOPA,"6029331000"
"31300",WICKENBURG COMMUNITY HOSPITAL,"520 ROSE LANE",WICKENBURG,AZ,"85390",MARICOPA,"9286845421"
"31305",HOPI HEALTH CARE CENTER,"HIGHWAY 264, MILEPOST 388",POLACCA,AZ,"86042",NAVAJO,"9287376000"
"40036",BAPTIST HEALTH MEDICAL CENTER NORTH LITTLE ROCK,"3333 SPRINGHILL DRIVE",NORTH LITTLE ROCK,AR,"72117",PULASKI,"5012023000"
"40016",UAMS MEDICAL CENTER,"4301 WEST MARKHAM STREET MAIL SLOT 612",LITTLE ROCK,AR,"72205",PULASKI,"5016865000"
"150065",SCHNECK MEDICAL CENTER,"411 W TIPTON ST",SEYMOUR,IN,"47274",JACKSON,"8125222349"
"40132",LEVI HOSPITAL,"300 PROSPECT AVE",HOT SPRINGS,AR,"71901",GARLAND,"5016241281"
"150004",FRANCISCAN HEALTH HAMMOND,"5454 HOHMAN AVE",HAMMOND,IN,"46320",LAKE,"2199322300"
"40069",GREAT RIVER MEDICAL CENTER,"1520 N DIVISION STREET",BLYTHEVILLE,AR,"72315",MISSISSIPPI,"8708387300"
"150026",GOSHEN HOSPITAL,"200 HIGH PARK AVE",GOSHEN,IN,"46526",ELKHART,"5743641000"
"41311",HOWARD MEMORIAL HOSPITAL,"130 MEDICAL CIRCLE",NASHVILLE,AR,"71852",HOWARD,"8708454400"
"41316",SOUTH MISSISSISSPI COUNTY REGIONAL MEDICAL CENTER,"611 WEST LEE AVENUE",OSCEOLA,AR,"72370",MISSISSIPPI,"8705637000"
"41304","EUREKA SPRINGS HOSPITAL, LLC","24 NORRIS STREET",EUREKA SPRINGS,AR,"72632",CARROLL,"4792537400"
"41328",CHICOT MEMORIAL MEDICAL CENTER,"2729 SOUTH HIGHWAY 65 & 82",LAKE VILLAGE,AR,"71653",CHICOT,"8702655351"
"50007",MILLS-PENINSULA MEDICAL CENTER,"1501 TROUSDALE DRIVE",BURLINGAME,CA,"94010",SAN MATEO,"6506965270"
"50006",ST JOSEPH HOSPITAL,"2700 DOLBEER ST",EUREKA,CA,"95501",HUMBOLDT,"7074458121"
"41321",BAPTIST HEALTH MEDICAL CENTER-ARKADELPHIA,"3050 TWIN RIVERS DRIVE",ARKADELPHIA,AR,"71923",CLARK,"8702452622"
"220024",HOLYOKE MEDICAL CENTER,"575 BEECH STREET",HOLYOKE,MA,"1040",HAMPDEN,"4135342500"
"50070",KAISER FOUNDATION HOSPITAL - SOUTH SAN FRANCISCO,"1200 EL CAMINO REAL",SOUTH SAN FRANCISCO,CA,"94080",SAN MATEO,"6507423200"
"50028",MAD RIVER COMMUNITY HOSPITAL,"3800 JANES RD",ARCATA,CA,"95521",HUMBOLDT,"7078223621"
"50055",CALIFORNIA PACIFIC MEDICAL CTR - ST. LUKE'S CAMPUS,"3555 CESAR CHAVEZ STREET",SAN FRANCISCO,CA,"94110",SAN FRANCISCO,"4156416562"
"50115",PALOMAR HEALTH DOWNTOWN CAMPUS,"555 E VALLEY PARKWAY",ESCONDIDO,CA,"92025",SAN DIEGO,"7607393000"
"60118",ST ANTHONY SUMMIT MEDICAL CENTER,"340 PEAK ONE DRIVE",FRISCO,CO,"80443",SUMMIT,"9706683300"
"60119",MEDICAL CENTER OF THE ROCKIES,"2500 ROCKY MOUNTAIN AVENUE",LOVELAND,CO,"80538",LARIMER,"9706242500"
"70002",ST FRANCIS HOSPITAL & MEDICAL CENTER,"114 WOODLAND STREET",HARTFORD,CT,"6105",HARTFORD,"8607144000"
"70005",WATERBURY HOSPITAL,"64 ROBBINS ST",WATERBURY,CT,"6721",NEW HAVEN,"2035736000"
"70006",STAMFORD HOSPITAL,"30 SHELBURNE ROAD",STAMFORD,CT,"6904",FAIRFIELD,"2032761000"
"50668",LAGUNA HONDA HOSPITAL & REHABILITATION CENTER,"375 LAGUNA HONDA BLVD",SAN FRANCISCO,CA,"94116",SAN FRANCISCO,"4157592300"
"50305",ALTA BATES SUMMIT MEDICAL CENTER - ALTA BATES CAMP,"2450 ASHBY AVE",BERKELEY,CA,"94705",ALAMEDA,"5102044444"
"50407",CHINESE HOSPITAL,"845 JACKSON ST",SAN FRANCISCO,CA,"94133",SAN FRANCISCO,"4159822400"
"50390",HEMET VALLEY MEDICAL CENTER,"1117 EAST DEVONSHIRE",HEMET,CA,"92543",RIVERSIDE,"9516522811"
"50145",COMMUNITY HOSPITAL OF THE MONTEREY PENINSULA,"23625 W R HOLMAN HIGHWAY",MONTEREY,CA,"93940",MONTEREY,"8316245311"
"50283",VALLEYCARE MEDICAL CENTER,"5555 WEST LAS POSITAS BOULEVARD",PLEASANTON,CA,"94588",ALAMEDA,"9254477000"
"50608",DELANO REGIONAL MEDICAL CENTER,"1401 GARCES HIGHWAY",DELANO,CA,"93215",KERN,"6617254800"
"110025",SOUTHEAST GEORGIA HEALTH SYSTEM- BRUNSWICK CAMPUS,"2415 PARKWOOD DRIVE",BRUNSWICK,GA,"31520",GLYNN,"9124667000"
"50426",WEST ANAHEIM MEDICAL CENTER,"3033 W ORANGE AVENUE",ANAHEIM,CA,"92804",ORANGE,"7148273000"
"50191",ST MARY MEDICAL CENTER,"1050 LINDEN AVE",LONG BEACH,CA,"90813",LOS ANGELES,"5624919000"
"50352",BARTON MEMORIAL HOSPITAL,"2170 SOUTH AVENUE",SOUTH LAKE TAHOE,CA,"96150",EL DORADO,"5305413420"
"120022",STRAUB CLINIC AND HOSPITAL,"888 SO KING STREET",HONOLULU,HI,"96813",HONOLULU,"8085224000"
"50150",SIERRA NEVADA MEMORIAL HOSPITAL,"155 GLASSON WAY",GRASS VALLEY,CA,"95945",NEVADA,"5302746000"
"50357",GOLETA VALLEY COTTAGE HOSPITAL,"351 S PATTERSON AVE",SANTA BARBARA,CA,"93111",SANTA BARBARA,"8056816446"
"50528",MEMORIAL HOSPITAL LOS BANOS,"520 WEST I ST",LOS BANOS,CA,"93635",MERCED,"2098260591"
"110121",GRADY GENERAL HOSPITAL,"1155 5TH STREET, SE",CAIRO,GA,"39828",GRADY,"2293770251"
"50320",HIGHLAND HOSPITAL,"1411 E 31ST STREET",OAKLAND,CA,"94602",ALAMEDA,"5104374800"
"50444",MERCY MEDICAL CENTER,"333 MERCY AVENUE",MERCED,CA,"95340",MERCED,"2095645000"
"50158",ENCINO HOSPITAL MEDICAL CENTER,"16237 VENTURA BLVD",ENCINO,CA,"91436",LOS ANGELES,"8189955000"
"50167",SAN JOAQUIN GENERAL HOSPITAL,"500 W HOSPITAL ROAD",FRENCH CAMP,CA,"95231",SAN JOAQUIN,"2094686000"
"50327",LOMA LINDA UNIVERSITY MEDICAL CENTER,"11234 ANDERSON ST",LOMA LINDA,CA,"92354",SAN BERNARDINO,"9095584000"
"50296",HAZEL HAWKINS MEMORIAL HOSPITAL,"911 SUNSET DRIVE",HOLLISTER,CA,"95023",SAN BENITO,"8316375711"
"100314",WEST KENDALL BAPTIST HOSPITAL,"9555 SW 162 AVE",MIAMI,FL,"33196",MIAMI-DADE,"7864672011"
"100316",PALM BAY HOSPITAL,"1425 MALABAR RD, NE",PALM BAY,FL,"32907",BREVARD,"3214348000"
"50455",SAN JOAQUIN COMMUNITY HOSPITAL,"2615 CHESTER AVENUE",BAKERSFIELD,CA,"93301",KERN,"6613953000"
"50697",PATIENTS' HOSPITAL OF REDDING,"2900 EUREKA WAY",REDDING,CA,"96001",SHASTA,"5302258700"
"10021",DALE MEDICAL CENTER,"126 HOSPITAL AVE",OZARK,AL,"36360",DALE,"3347742601"
"10006",ELIZA COFFEE MEMORIAL HOSPITAL,"205 MARENGO STREET",FLORENCE,AL,"35631",LAUDERDALE,"2567688400"
"10011",ST VINCENT'S EAST,"50 MEDICAL PARK EAST DRIVE",BIRMINGHAM,AL,"35235",JEFFERSON,"2058383122"
"10016",SHELBY BAPTIST MEDICAL CENTER,"1000 FIRST STREET NORTH",ALABASTER,AL,"35007",SHELBY,"2056208100"
"10101",CITIZENS BAPTIST MEDICAL CENTER,"604 STONE AVENUE",TALLADEGA,AL,"35161",TALLADEGA,"2567614542"
"10034",COMMUNITY HOSPITAL INC,"805 FRIENDSHIP ROAD",TALLASSEE,AL,"36078",ELMORE,"3342836541"
"10044",MARION REGIONAL MEDICAL CENTER,"1256 MILITARY STREET SOUTH",HAMILTON,AL,"35570",MARION,"2059216200"
"10095",HALE COUNTY HOSPITAL,"508 GREEN STREET",GREENSBORO,AL,"36744",HALE,"3346243024"
"10112",BRYAN W. WHITFIELD MEMORIAL HOSPITAL,"105 HIGHWAY 80 EAST",DEMOPOLIS,AL,"36732",MARENGO,"3342894000"
"10078",NORTHEAST ALABAMA REGIONAL MEDICAL CENTER,"400 EAST 10TH STREET",ANNISTON,AL,"36207",CALHOUN,"2562355121"
"10079",ATHENS LIMESTONE HOSPITAL,"700 WEST MARKET STREET",ATHENS,AL,"35611",LIMESTONE,"2562339292"
"10150",L V STABLER MEMORIAL HOSPITAL,"29 L V STABLER DRIVE",GREENVILLE,AL,"36037",BUTLER,"3343822200"
"30043",CANYON VISTA MEDICAL CENTER,"5700 EAST HIGHWAY 90",SIERRA VISTA,AZ,"85635",COCHISE,"5204173001"
"13301",UNIVERSITY OF S A CHILDREN'S AND WOMEN'S HOS,"1700 CENTER STREET",MOBILE,AL,"36604",MOBILE,"2514151000"
"20001",PROVIDENCE ALASKA MEDICAL CENTER,"3200 PROVIDENCE DRIVE",ANCHORAGE,AK,"99508",ANCHORAGE,"9075622211"
"21312",SAMUEL SIMMONDS MEMORIAL HOSPITAL,"7000 UULA ST",BARROW,AK,"99723",,"9078524611"
"30064",BANNER-UNIVERSITY MEDICAL CENTER TUCSON CAMPUS,"1501 NORTH CAMPBELL AVENUE",TUCSON,AZ,"85724",PIMA,"5208744189"
"30065",BANNER DESERT MEDICAL CENTER,"1400 SOUTH  DOBSON ROAD",MESA,AZ,"85202",MARICOPA,"4804123000"
"30010",ST. MARY'S HOSPITAL,"1601 WEST ST MARY'S ROAD",TUCSON,AZ,"85745",PIMA,"5208723000"
"30023",FLAGSTAFF MEDICAL CENTER,"1200 NORTH BEAVER STREET",FLAGSTAFF,AZ,"86001",COCONINO,"9287732378"
"30121","MOUNTAIN VISTA MEDICAL CENTER, LP","1301 SOUTH CRISMON ROAD",MESA,AZ,"85209",MARICOPA,"4803586100"
"30078",PHOENIX INDIAN MEDICAL CENTER,"4212 NORTH 16TH STREET",PHOENIX,AZ,"85016",MARICOPA,"6022631200"
"20024",CENTRAL PENINSULA GENERAL HOSPITAL,"250 HOSPITAL PLACE",SOLDOTNA,AK,"99669",,"9072624404"
"21302",PROVIDENCE SEWARD HOSPITAL,"417 FIRST AVENUE, PO BOX 365",SEWARD,AK,"99664",,"9072245205"
"31311",LITTLE COLORADO MEDICAL CENTER,"1501 NORTH WILLIAMSON AVENUE",WINSLOW,AZ,"86047",NAVAJO,"9282894691"
"30105",BANNER HEART HOSPITAL,"6750 EAST BAYWOOD AVENUE",MESA,AZ,"85206",MARICOPA,"4808545050"
"30112",ARIZONA ORTHOPEDIC AND SURGICAL SPECIALITY HOSP,"2905 WEST WARNER ROAD",CHANDLER,AZ,"85224",MARICOPA,"4806039000"
"40011",CHAMBERS MEMORIAL HOSPITAL,"719 DETROIT STREET",DANVILLE,AR,"72833",YELL,"4794952241"
"40022",NORTHWEST MEDICAL CENTER-SPRINGDALE,"609 WEST MAPLE AVENUE",SPRINGDALE,AR,"72764",WASHINGTON,"4797515711"
"30136",DIGNITY HEALTH - ARIZONA GENERAL HOSPITAL,"7171 SOUTH 51ST AVENUE",LAVEEN,AZ,"85339",MARICOPA,"6235845100"
"40027",BAXTER REGIONAL MEDICAL CENTER,"624 HOSPITAL DRIVE",MOUNTAIN HOME,AR,"72653",BAXTER,"8705081000"
"40029",CONWAY REGIONAL MEDICAL CENTER,"2302 COLLEGE AVENUE",CONWAY,AR,"72034",FAULKNER,"5013293831"
"40007",CHI-ST VINCENT INFIRMARY,TWO ST VINCENT CIRCLE,LITTLE ROCK,AR,"72205",PULASKI,"5015523000"
"40084",SALINE MEMORIAL HOSPITAL,#1 MEDICAL PARK DRIVE,BENTON,AR,"72015",SALINE,"5017766000"
"40074",NORTH METRO MEDICAL CENTER,"1400 BRADEN STREET",JACKSONVILLE,AR,"72076",PULASKI,"5019857000"
"50002",ST ROSE HOSPITAL,"27200 CALAROGA AVE",HAYWARD,CA,"94545",ALAMEDA,"5107826200"
"41313",OZARK HEALTH,"2500 HIGHWAY 65 SOUTH",CLINTON,AR,"72031",VAN BUREN,"5017457000"
"40134","ARKANSAS HEART HOSPITAL, LLC","1701 S SHACKLEFORD ROAD",LITTLE ROCK,AR,"72211",PULASKI,"5012197000"
"150082",DEACONESS HOSPITAL INC,"600 MARY ST",EVANSVILLE,IN,"47747",VANDERBURGH,"8124505000"
"40072",BAPTIST HEALTH MEDICAL CENTER-STUTTGART,"1703 NORTH BUERKLE ST",STUTTGART,AR,"72160",ARKANSAS,"8706733511"
"41317",DALLAS COUNTY MEDICAL CENTER,"201 CLIFTON STREET",FORDYCE,AR,"71742",DALLAS,"8703526300"
"41320",LITTLE RIVER MEMORIAL HOSPITAL,"451 WEST LOCKE STREET",ASHDOWN,AR,"71822",LITTLE RIVER,"8708985011"
"41327",BRADLEY COUNTY MEDICAL CENTER,"404 SOUTH BRADLEY STREET",WARREN,AR,"71671",BRADLEY,"8702263731"
"50030",OROVILLE HOSPITAL,"2767 OLIVE HIGHWAY",OROVILLE,CA,"95966",BUTTE,"5305338500"
"50039",ENLOE MEDICAL CENTER,"1531 ESPLANADE",CHICO,CA,"95926",BUTTE,"5303327300"
"50040",LAC/OLIVE VIEW-UCLA MEDICAL CENTER,"14445 OLIVE VIEW DRIVE",SYLMAR,CA,"91342",LOS ANGELES,"8183641555"
"50078",PROVIDENCE LITTLE CO OF MARY MED CTR SAN PEDRO,"1300 W 7TH ST",SAN PEDRO,CA,"90732",LOS ANGELES,"3108323311"
"50129",ST BERNARDINE MEDICAL CENTER,"2101 N WATERMAN AVE",SAN BERNARDINO,CA,"92404",SAN BERNARDINO,"9098838711"
"51308",SURPRISE VALLEY COMMUNITY HOSPITAL,"741 NORTH MAIN STREET",CEDARVILLE,CA,"96104",MODOC,"5302796111"
"50735",WHITTIER HOSPITAL MEDICAL CENTER,"9080 COLIMA RD",WHITTIER,CA,"90605",LOS ANGELES,"5629453561"
"111313",PUTNAM GENERAL HOSPITAL,"101 LAKE OCONEE PARKWAY",EATONTON,GA,"31024",PUTNAM,"7064852711"
"50616",ST JOHNS PLEASANT VALLEY HOSPITAL,"2309 ANTONIO AVE",CAMARILLO,CA,"93010",VENTURA,"8053895800"
"50243",DESERT REGIONAL MEDICAL CENTER,"1150 NORTH INDIAN CANYON DRIVE",PALM SPRINGS,CA,"92262",RIVERSIDE,"7603236511"
"50586",CHINO VALLEY MEDICAL CENTER,"5451 WALNUT AVE",CHINO,CA,"91710",SAN BERNARDINO,"9096276111"
"50588",SAN DIMAS COMMUNITY HOSPITAL,"1350 W COVINA BLVD",SAN DIMAS,CA,"91773",LOS ANGELES,"9095996811"
"50180",JOHN MUIR MEDICAL CENTER - WALNUT CREEK CAMPUS,"1601 YGNACIO VALLEY RD",WALNUT CREEK,CA,"94598",CONTRA COSTA,"9259393000"
"50471",GOOD SAMARITAN HOSPITAL,"1225 WILSHIRE BOULEVARD",LOS ANGELES,CA,"90017",LOS ANGELES,"2139772121"
"50481",WEST HILLS HOSPITAL & MEDICAL CENTER,"7300 MEDICAL CENTER DR",WEST HILLS,CA,"91307",LOS ANGELES,"8186764100"
"50515",KAISER FOUNDATION HOSPITAL - SAN DIEGO,"4647 ZION AVE",SAN DIEGO,CA,"92120",SAN DIEGO,"6195285000"
"50551",LOS ALAMITOS MEDICAL CENTER,"3751 KATELLA AVENUE",LOS ALAMITOS,CA,"90720",ORANGE,"5627993220"
"110023",GORDON HOSPITAL,"1035 RED BUD ROAD",CALHOUN,GA,"30701",GORDON,"7066292895"
"330084",ALICE HYDE MEDICAL CENTER,"133 PARK STREET",MALONE,NY,"12953",FRANKLIN,"5184833000"
"120028",NORTH HAWAII COMMUNITY HOSPITAL,"67 1125 MAMALAHOA HIGHWAY",KAMUELA,HI,"96743",HAWAII,"8088854444"
"50313",SUTTER TRACY COMMUNITY HOSPITAL,"1420 N TRACY BLVD",TRACY,CA,"95376",SAN JOAQUIN,"2098351500"
"50324",SCRIPPS MEMORIAL HOSPITAL LA JOLLA,"9888 GENESEE AVENUE",LA JOLLA,CA,"92037",SAN DIEGO,"8586264123"
"111306",EFFINGHAM HEALTH SYSTEM,"459 GA HIGHWAY 119 SOUTH",SPRINGFIELD,GA,"31329",EFFINGHAM,"9127540160"
"111305",MILLER COUNTY HOSPITAL,"209 N CUTHBERT STREET",COLQUITT,GA,"39837",MILLER,"2297584231"
"50674",KAISER FOUNDATION HOSP SO SACRAMENTO,"6600 BRUCEVILLE ROAD",SACRAMENTO,CA,"95823",SACRAMENTO,"9166882000"
"50169",PRESBYTERIAN INTERCOMMUNITY HOSPITAL,"12401 WASHINGTON BLVD",WHITTIER,CA,"90602",LOS ANGELES,"5266980811"
"50174",SANTA ROSA MEMORIAL HOSPITAL,"1165 MONTGOMERY DR",SANTA ROSA,CA,"95405",SONOMA,"7075255300"
"50336",LODI MEMORIAL HOSPITAL,"975 S FAIRMONT AVENUE",LODI,CA,"95240",SAN JOAQUIN,"2093343411"
"61318",MIDDLE PARK MEDICAL CENTER,"214 S 4TH STREET",KREMMLING,CO,"80459",GRAND,"9707243442"
"100113",UF HEALTH SHANDS HOSPITAL,"1600 SW ARCHER RD",GAINESVILLE,FL,"32610",ALACHUA,"3522658000"
"110177",DOCTORS HOSPITAL,"3651 WHEELER ROAD",AUGUSTA,GA,"30909",RICHMOND,"7066516008"
"101308",NORTHWEST FLORIDA COMMUNITY HOSPITAL,"1360 BRICKYARD RD",CHIPLEY,FL,"32428",WASHINGTON,"8506381610"
"110046",CLEARVIEW  REGIONAL MEDICAL CENTER,"2151 WEST SPRING STREET",MONROE,GA,"30655",WALTON,"7702678461"
"110083",PIEDMONT HOSPITAL,"1968 PEACHTREE RD NW",ATLANTA,GA,"30309",FULTON,"4046055000"
"140052",OSF SAINT ANTHONY'S HEALTH CENTER,ST ANTHONY'S WAY,ALTON,IL,"62002",MADISON,"6184652571"
"130014",WEST VALLEY MEDICAL CENTER,"1717 ARLINGTON STREET",CALDWELL,ID,"83605",CANYON,"2084594641"
"130018",EASTERN IDAHO REGIONAL MEDICAL CENTER,"3100 CHANNING WAY",IDAHO FALLS,ID,"83404",BONNEVILLE,"2085296111"
"140130",NORTHWESTERN LAKE FOREST HOSPITAL,"660 N WESTMORELAND ROAD",LAKE FOREST,IL,"60045",LAKE,"8472345600"
"131312",ST LUKE'S MCCALL,"1000 STATE STREET",MC CALL,ID,"83638",VALLEY,"2086342221"
"140135",DECATUR MEMORIAL HOSPITAL,"2300 NORTH EDWARD STREET",DECATUR,IL,"62526",MACON,"2178778121"
"130065",MOUNTAIN VIEW HOSPITAL,"2325 CORONADO STREET",IDAHO FALLS,ID,"83404",BONNEVILLE,"2085572700"
"140032",ST ANTHONYS MEMORIAL HOSPITAL,"503 N MAPLE STREET",EFFINGHAM,IL,"62401",EFFINGHAM,"2173422121"
"140143",ST MARGARETS HOSPITAL,"600 E 1ST ST",SPRING VALLEY,IL,"61362",BUREAU,"8156641176"
"140147",RICHLAND MEMORIAL HOSPITAL,"800 EAST LOCUST",OLNEY,IL,"62450",RICHLAND,"6183952131"
"131315",SYRINGA GENERAL HOSPITAL,"607 W MAIN STREET",GRANGEVILLE,ID,"83530",IDAHO,"2089831700"
"140217",PRESENCE SAINT JOSEPH HOSPITAL - ELGIN,"77 N AIRLITE STREET",ELGIN,IL,"60123",KANE,"8476953200"
"140185",MEMORIAL HOSPITAL,"4500 MEMORIAL DRIVE",BELLEVILLE,IL,"62226",SAINT CLAIR,"6182337750"
"10062",WIREGRASS MEDICAL CENTER,"1200 W MAPLE AVENUE",GENEVA,AL,"36340",GENEVA,"3346843655"
"10069",MEDICAL CENTER BARBOUR,"820 W WASHINGTON ST",EUFAULA,AL,"36027",BARBOUR,"3346887271"
"10023",BAPTIST MEDICAL CENTER SOUTH,"2105 EAST SOUTH BOULEVARD",MONTGOMERY,AL,"36116",MONTGOMERY,"3342882100"
"10058",BIBB MEDICAL CENTER,"208 PIERSON AVE",CENTREVILLE,AL,"35042",BIBB,"2059264881"
"10033",UNIVERSITY OF ALABAMA HOSPITAL,"619 SOUTH 19TH STREET",BIRMINGHAM,AL,"35233",JEFFERSON,"2059344011"
"10052",LAKE MARTIN COMMUNITY HOSPITAL,"201 MARIARDEN ROAD",DADEVILLE,AL,"36853",TALLAPOOSA,"2568257821"
"10100",THOMAS HOSPITAL,"750 MORPHY AVENUE",FAIRHOPE,AL,"36532",BALDWIN,"2519282375"
"10104",GRANDVIEW MEDICAL CENTER,"3690 GRANDVIEW PARKWAY",BIRMINGHAM,AL,"35243",JEFFERSON,"2055921000"
"10157",SHOALS HOSPITAL,"201 WEST AVALON AVENUE",MUSCLE SHOALS,AL,"35661",COLBERT,"2563861601"
"10131",CRESTWOOD MEDICAL CENTER,ONE HOSPITAL DR SE,HUNTSVILLE,AL,"35801",MADISON,"2568823100"
"20017",ALASKA REGIONAL HOSPITAL,"2801 DEBARR ROAD",ANCHORAGE,AK,"99508",ANCHORAGE,"9072761131"
"21311",PEACEHEALTH KETCHIKAN MEDICAL CENTER,"3100 TONGASS AVENUE",KETCHIKAN,AK,"99901",KETCHIKAN GATEWAY,"9072255171"
"21314",MT EDGECUMBE HOSPITAL,"222 TONGASS DR",SITKA,AK,"99835",SITKA,"9079662411"
"11300",WASHINGTON COUNTY HOSPITAL,"14600 ST. STEPHENS AVENUE",CHATOM,AL,"36518",WASHINGTON,"2518472223"
"30012",YAVAPAI REGIONAL MEDICAL CENTER,"1003 WILLOW CREEK ROAD",PRESCOTT,AZ,"86301",YAVAPAI,"9284452700"
"21305",WRANGELL MEDICAL CENTER,"310 BENNETT STREET PO BOX 1081",WRANGELL,AK,"99929",,"9078747000"
"21304",PETERSBURG MEDICAL CENTER,PO BOX 589,PETERSBURG,AK,"99833",,"9077724291"
"30120",GILBERT HOSPITAL,"5656 SOUTH POWER ROAD",GILBERT,AZ,"85295",MARICOPA,"4808403715"
"110143",WELLSTAR COBB HOSPITAL,"3950 AUSTELL RD",AUSTELL,GA,"30106",COBB,"7707324000"
"30074",SELLS INDIAN HEALTH SERVICE HOSPITAL,PO BOX 548,SELLS,AZ,"85634",PIMA,"5203837200"
"30113",WHITERIVER PHS INDIAN HOSPITAL,"200 WEST HOSPITAL DRIVE  (PO BOX 860)",WHITERIVER,AZ,"85941",NAVAJO,"9283384911"
"30117",VALLEY VIEW MEDICAL CENTER,"5330 SOUTH HIGHWAY 95",FORT MOHAVE,AZ,"86426",MOHAVE,"9287887252"
"40020",ST BERNARDS MEDICAL CENTER,"225 E JACKSON",JONESBORO,AR,"72401",CRAIGHEAD,"8709724100"
"33301","LOS NINOS HOSPITAL, INC.","2303 EAST THOMAS",PHOENIX,AZ,"85016",MARICOPA,"6029547311"
"140010",EVANSTON HOSPITAL,"2650 RIDGE AVE",EVANSTON,IL,"60201",COOK,"8474328000"
"40002",JOHNSON REGIONAL MEDICAL CENTER,"1100 EAST POPLAR STREET",CLARKSVILLE,AR,"72830",JOHNSON,"4797545454"
"40078",NATIONAL PARK MEDICAL CENTER,"1910 MALVERN AVENUE",HOT SPRINGS,AR,"71901",GARLAND,"5013211000"
"40152",NORTHWEST HEALTH PHYSICIANS SPECIALTY HOSPITAL,"3873 NORTH PARKVIEW DRIVE",FAYETTEVILLE,AR,"72703",WASHINGTON,"4795717002"
"40062",MERCY HOSPITAL FORT SMITH,"7301 ROGERS AVE",FORT SMITH,AR,"72917",SEBASTIAN,"4793146000"
"41310",STONE COUNTY MEDICAL CENTER,"2106 EAST MAIN STREET",MOUNTAIN VIEW,AR,"72560",STONE,"8702694361"
"41314","DEWITT HOSPITAL & NURSING HOME, INC","1641 WHITEHEAD DRIVE",DE WITT,AR,"72042",ARKANSAS,"8709463571"
"41329",MERCY HOSPITAL BERRYVILLE,"214 CARTER STREET",BERRYVILLE,AR,"72616",CARROLL,"8704233355"
"50060",COMMUNITY REGIONAL MEDICAL CENTER,"2823 FRESNO STREET",FRESNO,CA,"93721",FRESNO,"5594596000"
"50067",OAK VALLEY HOSPITAL DISTRICT,"350 S OAK AVE",OAKDALE,CA,"95361",STANISLAUS,"2098473011"
"50069",ST JOSEPH HOSPITAL,"1100 WEST STEWART DR",ORANGE,CA,"92868",ORANGE,"7146339111"
"50101",SUTTER SOLANO MEDICAL CENTER,"300 HOSPITAL DR",VALLEJO,CA,"94589",SOLANO,"7075545280"
"50103",WHITE MEMORIAL MEDICAL CENTER,"1720 E CESAR AVENUE",LOS ANGELES,CA,"90033",LOS ANGELES,"3232685000"
"50102",PARKVIEW COMMUNITY HOSPITAL MEDICAL CENTER,"3865 JACKSON STREET",RIVERSIDE,CA,"92503",RIVERSIDE,"9516882211"
"50093",SAINT AGNES MEDICAL CENTER,"1303 E HERNDON AVE",FRESNO,CA,"93710",FRESNO,"5594503000"
"51306",GLENN MEDICAL CENTER,"1133 W SYCAMORE ST",WILLOWS,CA,"95988",GLENN,"5309341818"
"53310",SHRINERS HOSPITALS FOR CHILDREN,"3160 GENEVA STREET",LOS ANGELES,CA,"90020",LOS ANGELES,"2133883151"
"53309",MILLER CHILDREN'S HOSPITAL,"2801 ATLANTIC AVENUE",LONG BEACH,CA,"90806",LOS ANGELES,"5629338001"
"50122",DAMERON HOSPITAL,"525 WEST ACACIA STREET",STOCKTON,CA,"95203",SAN JOAQUIN,"2099445550"
"51304",JOHN C FREMONT HEALTHCARE DISTRICT,"5189 HOSPITAL ROAD",MARIPOSA,CA,"95338",MARIPOSA,"2099663631"
"110031",WELLSTAR SPALDING REGIONAL HOSPITAL,"601 SOUTH 8TH STREET",GRIFFIN,GA,"30223",SPALDING,"7702282721"
"50696",KECK HOSPITAL OF USC,"1500 SAN PABLO ST",LOS ANGELES,CA,"90033",LOS ANGELES,"3234428656"
"50308",EL CAMINO HOSPITAL,"2500 GRANT ROAD",MOUNTAIN VIEW,CA,"94040",SANTA CLARA,"6509407000"
"50552",MOTION PICTURE & TELEVISION HOSPITAL,"23388 MULHOLLAND DRIVE",WOODLAND HILLS,CA,"91364",LOS ANGELES,"8188761888"
"50424",SCRIPPS GREEN HOSPITAL,"10666 NORTH TORREY PINES ROAD",LA JOLLA,CA,"92037",SAN DIEGO,"8584559100"
"50485",LONG BEACH MEMORIAL MEDICAL CENTER,"2801 ATLANTIC AVE",LONG BEACH,CA,"90806",LOS ANGELES,"5629332000"
"50724",BAKERSFIELD HEART HOSPITAL,"3001 SILLECT AVENUE",BAKERSFIELD,CA,"93308",KERN,"6613166000"
"110018",PIEDMONT NEWTON HOSPITAL,"5126 HOSPITAL DRIVE NE",COVINGTON,GA,"30014",NEWTON,"7707867053"
"110024",CANDLER HOSPITAL,"5353 REYNOLDS STREET",SAVANNAH,GA,"31412",CHATHAM,"9128196000"
"50625",CEDARS-SINAI MEDICAL CENTER,"8700 BEVERLY BLVD",LOS ANGELES,CA,"90048",LOS ANGELES,"3104235000"
"50194",WATSONVILLE COMMUNITY HOSPITAL,"75 NIELSON STREET",WATSONVILLE,CA,"95076",SANTA CRUZ,"8317244741"
"330164",HIGHLAND HOSPITAL,"1000 SOUTH AVENUE",ROCHESTER,NY,"14620",MONROE,"5854732200"
"50205",GLENDORA COMMUNITY HOSPITAL,"150 WEST ROUTE 66",GLENDORA,CA,"91740",LOS ANGELES,"6263350231"
"500152",SWEDISH ISSAQUAH,"751 NE BLAKELY DR",ISSAQUAH,WA,"98029",KING,"4253134000"
"100302",ST CLOUD REGIONAL MEDICAL CENTER,"2906 17TH STREET",SAINT CLOUD,FL,"34769",OSCEOLA,"4074983432"
"100313",SACRED HEART HOSPITAL ON THE GULF,"3801 E HWY 98",PORT SAINT JOE,FL,"32456",GULF,"8502295600"
"111304",MORGAN MEMORIAL HOSPITAL,"1077 SOUTH MAIN STREET",MADISON,GA,"30650",MORGAN,"7063421667"
"50195",WASHINGTON HOSPITAL,"2000 MOWRY AVE",FREMONT,CA,"94538",ALAMEDA,"5107971111"
"50197",SEQUOIA HOSPITAL,"170 ALAMEDA DE LAS PULGAS",REDWOOD CITY,CA,"94062",SAN MATEO,"6503675551"
"110026",ELBERT MEMORIAL HOSPITAL,"4 MEDICAL DRIVE",ELBERTON,GA,"30635",ELBERT,"7062132535"
"50295",MERCY HOSPITAL,"2215 TRUXTUN AVENUE",BAKERSFIELD,CA,"93301",KERN,"6616325000"
"50503",SCRIPPS MEMORIAL HOSPITAL - ENCINITAS,"354 SANTA FE DRIVE",ENCINITAS,CA,"92024",SAN DIEGO,"7607536501"
"50543",COLLEGE HOSPITAL COSTA MESA,"301 VICTORIA STREET",COSTA MESA,CA,"92627",ORANGE,"9496422734"
"50678",ORANGE COAST MEMORIAL MEDICAL CENTER,"9920 TALBERT AVENUE",FOUNTAIN VALLEY,CA,"92708",ORANGE,"7143787406"
"50238",METHODIST HOSPITAL OF SOUTHERN CA,"300 W HUNTINGTON DR",ARCADIA,CA,"91006",LOS ANGELES,"6264454441"
"110029","NORTHEAST GEORGIA MEDICAL CENTER, INC","743 SPRING STREET",GAINESVILLE,GA,"30501",HALL,"7705353553"
"50335",SONORA REGIONAL MEDICAL CENTER,"1000 GREENLEY ROAD",SONORA,CA,"95370",TUOLUMNE,"2095323161"
"110130",IRWIN COUNTY HOSPITAL,"710 N IRWIN AVENUE",OCILLA,GA,"31774",IRWIN,"2294683845"
"100319",FLORIDA HOSPITAL WESLEY CHAPEL,"2600 BRUCE B DOWNS BLVD",WESLEY CHAPEL,FL,"33544",PASCO,"8139295490"
"50298",BARSTOW COMMUNITY HOSPITAL,"820 E MOUNTAIN VIEW STREET",BARSTOW,CA,"92311",SAN BERNARDINO,"7602561761"
"61316",SPANISH PEAKS REGIONAL HEALTH CENTER,"23500 US HWY 160",WALSENBURG,CO,"81089",HUERFANO,"7197385100"
"53311",SHRINERS HOSPITALS FOR CHILDREN NORTHERN CALIF,"2425 STOCKTON BOULEVARD",SACRAMENTO,CA,"95817",SACRAMENTO,"9164532000"
"51320",BANNER LASSEN MEDICAL CENTER,"1800 SPRING RIDGE DRIVE",SUSANVILLE,CA,"96130",LASSEN,"5302522000"
"60124",ORTHOCOLORADO HOSPITAL AT ST ANTHONY MED CAMPUS,"11650 W 2ND PLACE",LAKEWOOD,CO,"80228",JEFFERSON,"7203215000"
"50567",MISSION HOSPITAL REGIONAL MED CENTER,"27700 MEDICAL CENTER RD",MISSION VIEJO,CA,"92691",ORANGE,"9493641400"
"50137",KAISER FOUNDATION HOSPITAL - PANORAMA CITY,"13652 CANTARA ST",PANORAMA CITY,CA,"91402",LOS ANGELES,"8183753333"
"60027",FOOTHILLS HOSPITAL,"4747 ARAPAHOE AVENUE",BOULDER,CO,"80304",BOULDER,"3034402273"
"61321",MT SAN RAFAEL HOSPITAL,"410 BENEDICTA AVENUE",TRINIDAD,CO,"81082",LAS ANIMAS,"7198469213"
"50272",REDLANDS COMMUNITY HOSPITAL,"350 TERRACINA BLVD",REDLANDS,CA,"92373",SAN BERNARDINO,"9093355500"
"50396",SANTA BARBARA COTTAGE HOSPITAL,"400 WEST PUEBLO",SANTA BARBARA,CA,"93102",SANTA BARBARA,"8056827111"
"50411",KAISER FOUNDATION HOSPITAL - SOUTH BAY,"25825 SOUTH VERMONT AVENUE",HARBOR CITY,CA,"90710",LOS ANGELES,"3105176441"
"50746",ORANGE COUNTY GLOBAL MEDICAL CENTER,"1001 NORTH TUSTIN AVENUE",SANTA ANA,CA,"92705",ORANGE,"7149533331"
"60032",ROSE MEDICAL CENTER,"4567 E 9TH AVENUE",DENVER,CO,"80220",DENVER,"3033202121"
"60034",SWEDISH MEDICAL CENTER,"501 E HAMPDEN AVENUE",ENGLEWOOD,CO,"80113",ARAPAHOE,"3037885000"
"61324",ASPEN VALLEY HOSPITAL,"0401 CASTLE CREEK ROAD",ASPEN,CO,"81611",PITKIN,"9705441261"
"50766",SUTTER SURGICAL HOSPITAL - NORTH VALLEY,"455 PLUMAS BLVD",YUBA CITY,CA,"95991",SUTTER,"5307495700"
"50769",HOAG ORTHOPEDIC INSTITUTE,"16250 SAND CANYON AVENUE",IRVINE,CA,"92618",ORANGE,"9497275000"
"60107",NATIONAL JEWISH HEALTH,"1400 JACKSON ST",DENVER,CO,"80206",DENVER,"3033884461"
"51329",SUTTER LAKESIDE HOSPITAL,"5176 HILL ROAD EAST",LAKEPORT,CA,"95453",LAKE,"7072625000"
"130007",ST ALPHONSUS REGIONAL MEDICAL CENTER,"1055 NORTH CURTIS ROAD",BOISE,ID,"83706",ADA,"2083672121"
"100189",NORTHWEST MEDICAL CENTER,"2801 N STATE RD 7",MARGATE,FL,"33063",BROWARD,"9549740400"
"100126",PALMS OF PASADENA HOSPITAL,"1501 PASADENA AVE S",SAINT PETERSBURG,FL,"33707",PINELLAS,"7273811000"
"100288",ST MARY'S MEDICAL CENTER,"901 45TH ST",WEST PALM BEACH,FL,"33407",PALM BEACH,"5618406202"
"80004",BAYHEALTH - KENT GENERAL HOSPITAL,"640 S STATE STREET",DOVER,DE,"19901",KENT,"3027447001"
"93300",CHILDREN'S HOSPITAL NMC,"111 MICHIGAN AVE, NW",WASHINGTON,DC,"20010",DISTRICT OF COLUMBIA,"2024765000"
"140206",NORWEGIAN-AMERICAN HOSPITAL,"1044 N FRANCISCO AVE",CHICAGO,IL,"60622",COOK,"7732928200"
"70029",BRISTOL HOSPITAL,BREWSTER RD,BRISTOL,CT,"6010",HARTFORD,"8605853000"
"100084",LEESBURG REGIONAL MEDICAL CENTER,"600 E DIXIE AVE",LEESBURG,FL,"34748",LAKE,"3523235762"
"100045",FLORIDA HOSPITAL DELAND,"701 W PLYMOUTH AVE",DELAND,FL,"32720",VOLUSIA,"3869434772"
"100191",MEDICAL CENTER OF TRINITY,"9330 SR 54, STE 401",TRINITY,FL,"34655",PASCO,"7278481733"
"100284",WESTCHESTER GENERAL HOSPITAL,"2500 SW 75TH AVE",MIAMI,FL,"33155",MIAMI-DADE,"3052639270"
"100265",MEASE COUNTRYSIDE HOSPITAL,"3231 MCMULLEN BOOTH RD",SAFETY HARBOR,FL,"34695",PINELLAS,"7277346950"
"90001",GEORGE WASHINGTON UNIV HOSPITAL,"900 23RD ST NW",WASHINGTON,DC,"20037",DISTRICT OF COLUMBIA,"2027164605"
"100007",FLORIDA HOSPITAL,"601 E ROLLINS ST",ORLANDO,FL,"32803",ORANGE,"4073031976"
"131324",LOST RIVERS HOSPITAL,"551 HIGHLAND DRIVE",ARCO,ID,"83213",BUTTE,"2085278206"
"100048",JAY HOSPITAL,"14114 ALABAMA ST",JAY,FL,"32565",SANTA ROSA,"8506754532"
"100137",HEART OF FLORIDA REGIONAL MEDICAL CENTER,"40100 US HWY 27 N",DAVENPORT,FL,"33837",POLK,"8634224971"
"100175",DESOTO MEMORIAL HOSPITAL,"900 N ROBERT AVE",ARCADIA,FL,"34265",DE SOTO,"8634943535"
"100276",BROWARD HEALTH CORAL SPRINGS,"3000 CORAL HILLS DR",CORAL SPRINGS,FL,"33065",BROWARD,"9543443000"
"100093",BAPTIST HOSPITAL,"1000 W MORENO ST",PENSACOLA,FL,"32501",ESCAMBIA,"8504344011"
"90005",SIBLEY MEMORIAL HOSPITAL,"5255 LOUGHBORO RD NW",WASHINGTON,DC,"20016",DISTRICT OF COLUMBIA,"2025374680"
"100213",BLAKE MEDICAL CENTER,"2020 59TH ST W",BRADENTON,FL,"34209",MANATEE,"9417926611"
"140191",INGALLS MEMORIAL HOSPITAL,ONE INGALLS DRIVE,HARVEY,IL,"60426",COOK,"7083332300"
"80001","CHRISTIANA CARE HEALTH SERVICES, INC.","4755 OGLETOWN-STANTON ROAD",NEWARK,DE,"19718",NEW CASTLE,"3027331000"
"100077",BAYFRONT HEALTH PORT CHARLOTTE,"2500 HARBOR BLVD",PORT CHARLOTTE,FL,"33952",CHARLOTTE,"9417664122"
"110226",DEKALB MEDICAL CENTER AT HILLANDALE,"2801 DEKALB MEDICAL PARKWAY",LITHONIA,GA,"30058",DEKALB,"4045018040"
"110187",CHESTATEE REGIONAL HOSPITAL,"227 MOUNTAIN DRIVE",DAHLONEGA,GA,"30533",LUMPKIN,"7068646136"
"110184",WELLSTAR DOUGLAS HOSPITAL,"8954 HOSPITAL DRIVE",DOUGLASVILLE,GA,"30134",DOUGLAS,"7709491500"
"101310",SHANDS STARKE REGIONAL MEDICAL CENTER,"922 E CALL ST",STARKE,FL,"32091",BRADFORD,"9043682300"
"120002",MAUI MEMORIAL MEDICAL CENTER,"221 MAHALANI STREET",WAILUKU,HI,"96793",MAUI,"8084425101"
"111318",MONROE COUNTY HOSPITAL,"88 MARTIN LUTHER KING JR DRIVE",FORSYTH,GA,"31029",MONROE,"4789942521"
"100023",CITRUS MEMORIAL HOSPITAL,"502 W HIGHLAND BLVD",INVERNESS,FL,"34452",CITRUS,"3527261551"
"100026",BAY MEDICAL CENTER SACRED HEART HEALTH SYSTEM,"615 N BONITA AVE",PANAMA CITY,FL,"32401",BAY,"8507691511"
"103303",SHRINERS HOSPITALS FOR CHILDREN-TAMPA,"12502 USF PINE DR",TAMPA,FL,"33612",HILLSBOROUGH,"8139722250"
"120004",WAHIAWA GENERAL HOSPITAL,"128 LEHUA STREET",WAHIAWA,HI,"96786",HONOLULU,"8086218411"
"110092",DODGE COUNTY HOSPITAL,"901 GRIFFIN AVE",EASTMAN,GA,"31023",DODGE,"4784484067"
"110073",DORMINY MEDICAL CENTER,"200 PERRY HOUSE ROAD, BOX 1447",FITZGERALD,GA,"31750",BEN HILL,"2294247100"
"110153",PERRY HOSPITAL,"1120 MORNINGSIDE DR",PERRY,GA,"31069",HOUSTON,"4789873600"
"110105",COLQUITT REGIONAL MEDICAL CENTER,"3131 THOMASVILLE HWY BOX 40",MOULTRIE,GA,"31768",COLQUITT,"2299853420"
"110101",COOK  MEDICAL CENTER  A CAMPUS OF TIFT REG MED CTR,"706 N PARRISH AVE",ADEL,GA,"31620",COOK,"2298968077"
"111303",JASPER MEMORIAL HOSPITAL,"898 COLLEGE STREET",MONTICELLO,GA,"31064",JASPER,"7064686411"
"110043",ST JOSEPH'S HOSPITAL - SAVANNAH,"11705 MERCY BOULEVARD",SAVANNAH,GA,"31419",CHATHAM,"9128194100"
"110079",GRADY MEMORIAL HOSPITAL,"80 JESSE HILL, JR DRIVE SE",ATLANTA,GA,"30303",FULTON,"4046164252"
"100230",MEMORIAL HOSPITAL PEMBROKE,"7800 SHERIDAN ST",PEMBROKE PINES,FL,"33024",BROWARD,"9549629650"
"140119",RUSH UNIVERSITY MEDICAL CENTER,"1653 WEST CONGRESS PARKWAY",CHICAGO,IL,"60612",COOK,"3129425000"
"140013",PROCTOR HOSPITAL,"5409 N KNOXVILLE AVE",PEORIA,IL,"61614",PEORIA,"3096911000"
"140127",ADVOCATE BROMENN MEDICAL CENTER,"1304 FRANKLIN AVENUE",NORMAL,IL,"61761",MCLEAN,"3094541400"
"140172",FRANCISCAN ST JAMES HEALTH,"20201 S CRAWFORD AVENUE",OLYMPIA FIELDS,IL,"60461",COOK,"7087474000"
"140029",COPLEY MEMORIAL HOSPITAL,"2000 OGDEN AVENUE",AURORA,IL,"60504",KANE,"6309786200"
"140018",MT SINAI HOSPITAL MEDICAL CENTER,"15TH STREET AT CALIFORNIA",CHICAGO,IL,"60608",COOK,"7732576751"
"130066",NORTHWEST SPECIALTY HOSPITAL,"1593 EAST POLSTON AVENUE",POST FALLS,ID,"83854",KOOTENAI,"2082622300"
"131313",TETON VALLEY HOSPITAL,"120 EAST HOWARD AVE",DRIGGS,ID,"83422",TETON,"2083542383"
"140068",ROSELAND COMMUNITY HOSPITAL,"45 W 111TH STREET",CHICAGO,IL,"60628",COOK,"7739953000"
"140082",LOUIS A WEISS MEMORIAL HOSPITAL,"4646 N MARINE DRIVE",CHICAGO,IL,"60640",COOK,"7738788700"
"140181",SOUTH SHORE HOSPITAL,"8012 SOUTH CRANDON AVENUE",CHICAGO,IL,"60617",COOK,"7737680810"
"140155",PRESENCE ST MARYS HOSPITAL,"500 W COURT ST",KANKAKEE,IL,"60901",KANKAKEE,"8159372490"
"140186",RIVERSIDE MEDICAL CENTER,"350 N WALL ST",KANKAKEE,IL,"60901",KANKAKEE,"8159331671"
"10007",MIZELL MEMORIAL HOSPITAL,"702 N MAIN ST",OPP,AL,"36467",COVINGTON,"3344933541"
"10008",CRENSHAW COMMUNITY HOSPITAL,"101 HOSPITAL CIRCLE",LUVERNE,AL,"36049",CRENSHAW,"3343353374"
"10012",DEKALB REGIONAL MEDICAL CENTER,"200 MED CENTER DRIVE",FORT PAYNE,AL,"35968",DE KALB,"2568453150"
"10059",LAWRENCE MEDICAL CENTER,"202 HOSPITAL STREET",MOULTON,AL,"35650",LAWRENCE,"2569742200"
"10061",HIGHLANDS MEDICAL CENTER,"380 WOODS COVE ROAD",SCOTTSBORO,AL,"35768",JACKSON,"2562594444"
"10049",MEDICAL CENTER ENTERPRISE,"400 N EDWARDS STREET",ENTERPRISE,AL,"36330",COFFEE,"3343470584"
"10092",D C H REGIONAL MEDICAL CENTER,"809 UNIVERSITY BOULEVARD EAST",TUSCALOOSA,AL,"35401",TUSCALOOSA,"2057597111"
"10168",JACK HUGHSTON MEMORIAL HOSPITAL,"4401 RIVER CHASE DRIVE",PHENIX CITY,AL,"36867",RUSSELL,"3347323000"
"10108",PRATTVILLE BAPTIST HOSPITAL,"124 S MEMORIAL DR",PRATTVILLE,AL,"36067",AUTAUGA,"3343614267"
"10087",UNIVERSITY OF SOUTH ALABAMA MEDICAL CENTER,"2451 FILLINGIM STREET",MOBILE,AL,"36617",MOBILE,"2514717110"
"10091",GROVE HILL MEMORIAL HOSPITAL,"295 JACKSON HWY S",GROVE HILL,AL,"36451",CLARKE,"2512753191"
"21306",PROVIDENCE KODIAK ISLAND MEDICAL CTR,"1915 EAST REZANOF DRIVE",KODIAK,AK,"99615",KODIAK ISLAND,"9074869592"
"10118",VAUGHAN REGIONAL MEDICAL CENTER PARKWAY CAMPUS,"1015 MEDICAL CENTER PARKWAY",SELMA,AL,"36701",DALLAS,"3344184100"
"10144",SPRINGHILL MEMORIAL HOSPITAL,"3719 DAUPHIN STREET",MOBILE,AL,"36608",MOBILE,"2513449630"
"20018",YUKON KUSKOKWIM DELTA REG HOSPITAL,PO BOX 287,BETHEL,AK,"99559",BETHEL,"9075436300"
"30061",BANNER BOSWELL MEDICAL CENTER,"10401 WEST THUNDERBIRD BOULEVARD",SUN CITY,AZ,"85351",MARICOPA,"6238324000"
"11304",CHOCTAW GENERAL HOSPITAL,"401 VANITY FAIR LANE, PO BOX 618",BUTLER,AL,"36904",CHOCTAW,"2054599100"
"11305",ST VINCENTS BLOUNT,"150 GILBREATH DRIVE",ONEONTA,AL,"35121",BLOUNT,"2052743000"
"13300",CHILDREN'S HOSPITAL OF ALABAMA,"1600 SEVENTH AVENUE SOUTH",BIRMINGHAM,AL,"35233",JEFFERSON,"2059399100"
"30007",VERDE VALLEY MEDICAL CENTER,"269 SOUTH CANDY LANE",COTTONWOOD,AZ,"86326",YAVAPAI,"9286396058"
"30016",BANNER CASA GRANDE MEDICAL CENTER,"1800 EAST FLORENCE BOULEVARD",CASA GRANDE,AZ,"85222",PINAL,"5203816300"
"30024",ST. JOSEPH'S HOSPITAL AND MEDICAL CENTER,"350 WEST THOMAS ROAD",PHOENIX,AZ,"85013",MARICOPA,"6024065001"
"30123",SCOTTSDALE THOMPSON PEAK MEDICAL CENTER,"7400 EAST THOMPSON PEAK PARKWAY",SCOTTSDALE,AZ,"85255",MARICOPA,"4803247004"
"30073",TUBA CITY REGIONAL HEALTH CARE CORPORATION,PO BOX 600,TUBA CITY,AZ,"86045",COCONINO,"9282832501"
"21301",PROVIDENCE VALDEZ MEDICAL CENTER,PO BOX 550,VALDEZ,AK,"99686",,"9078352249"
"31313",HOLY CROSS HOSPITAL,"1171 WEST TARGET RANGE ROAD",NOGALES,AZ,"85621",SANTA CRUZ,"5202853000"
"30134",BANNER GOLDFIELD MEDICAL CENTER,"2050 WEST SOUTHERN AVENUE",APACHE JUNCTION,AZ,"85120",PINAL,"4807333300"
"30101",WESTERN ARIZONA REGIONAL MEDICAL CENTER,"2735 SILVER CREEK ROAD",BULLHEAD CITY,AZ,"86442",MOHAVE,"9287632273"
"30103",MAYO CLINIC HOSPITAL,"5777 EAST MAYO BOULEVARD",PHOENIX,AZ,"85054",MARICOPA,"4803422000"
"30111",BANNER-UNIVERSITY MEDICAL CENTER SOUTH CAMPUS,"2800 EAST AJO WAY",TUCSON,AZ,"85713",PIMA,"5208742000"
"30118",YAVAPAI REGIONAL MEDICAL CENTER-EAST CAMPUS,"7700 EAST FLORENTINE ROAD",PRESCOTT VALLEY,AZ,"86314",YAVAPAI,"9287715676"
"31315",WHITE MOUNTAIN REGIONAL MEDICAL CENTER,"118 SOUTH MOUNTAIN AVENUE",SPRINGERVILLE,AZ,"85938",APACHE,"9283334368"
"33303","HACIENDA CHILDREN'S HOSPITAL, INC.","610 WEST JEROME AVENUE",MESA,AZ,"85210",MARICOPA,"6022434231"
"31302",NORTHERN COCHISE COMMUNITY HOSPITAL,"901 WEST REX ALLEN DRIVE",WILLCOX,AZ,"85643",COCHISE,"5203843541"
"140040",GALESBURG COTTAGE HOSPITAL,"695 N KELLOGG ST",GALESBURG,IL,"61401",KNOX,"3093454555"
"40114",BAPTIST HEALTH MEDICAL CENTER-LITTLE ROCK,"9601 INTERSTATE 630, EXIT 7",LITTLE ROCK,AR,"72205",PULASKI,"5012022000"
"40041",ST MARYS REGIONAL MEDICAL CENTER,"1808 WEST MAIN STREET",RUSSELLVILLE,AR,"72801",POPE,"4799682841"
"40010",MERCY HOSPITAL NORTHWEST ARKANSAS,"2710 SOUTH RIFE MEDICAL LANE",ROGERS,AR,"72758",BENTON,"4793388000"
"40076",BAPTIST HEALTH MEDICAL CENTER-HOT SPRINGS COUNTY,"1001 SCHNEIDER DRIVE",MALVERN,AR,"72104",HOT SPRING,"5013321000"
"40147",ARKANSAS SURGICAL HOSPITAL,"5201 NORTH SHORE DRIVE",NO LITTLE ROCK,AR,"72118",PULASKI,"5017488000"
"41300",NORTH LOGAN MERCY HOSPITAL,"500 EAST ACADEMY",PARIS,AR,"72855",LOGAN,"4799636101"
"40050",OUACHITA COUNTY MEDICAL CENTER,"638 CALIFORNIA AVENUE",CAMDEN,AR,"71701",OUACHITA,"8708361000"
"40051",DREW MEMORIAL HOSPITAL,"778 SCOGIN DRIVE",MONTICELLO,AR,"71655",DREW,"8703672411"
"41302",RIVER VALLEY MEDICAL CENTER,"200 NORTH THIRD STREET",DARDANELLE,AR,"72834",YELL,"4792294677"
"41309",LAWRENCE MEMORIAL HOSPITAL,"1309 WEST MAIN",WALNUT RIDGE,AR,"72476",LAWRENCE,"8708861200"
"50014",SUTTER AMADOR HOSPITAL,"200 MISSION BLVD",JACKSON,CA,"95642",AMADOR,"2092237500"
"50017",MERCY GENERAL HOSPITAL,"4001 J ST",SACRAMENTO,CA,"95819",SACRAMENTO,"9164534545"
"41324",CHI ST VINCENT MORRILTON,#4 HOSPITAL DRIVE,MORRILTON,AR,"72110",CONWAY,"5019772300"
"50058",GLENDALE MEM HOSPITAL & HLTH CENTER,"1420 S CENTRAL AVE",GLENDALE,CA,"91204",LOS ANGELES,"8185021900"
"50063",HOLLYWOOD PRESBYTERIAN MEDICAL CENTER,"1300 N VERMONT AVE",LOS ANGELES,CA,"90027",LOS ANGELES,"2134133000"
"50026",GROSSMONT HOSPITAL,"5555 GROSSMONT CENTER DRIVE BOX 58",LA MESA,CA,"91942",SAN DIEGO,"6194650711"
"50082",ST JOHNS REGIONAL MEDICAL CENTER,"1600 N ROSE AVE",OXNARD,CA,"93030",VENTURA,"8059882500"
"50104",SAINT FRANCIS MEDICAL CENTER,"3630 EAST IMPERIAL HIGHWAY",LYNWOOD,CA,"90262",LOS ANGELES,"3109008900"
"50121",ADVENTIST MEDICAL CENTER,"115 MALL DRIVE",HANFORD,CA,"93230",KINGS,"2094107200"
"50108","SUTTER MEDICAL CENTER, SACRAMENTO","2825 CAPITOL AVENUE",SACRAMENTO,CA,"95816",SACRAMENTO,"9167338999"
"50128",TRI-CITY MEDICAL CENTER,"4002 VISTA WAY",OCEANSIDE,CA,"92056",SAN DIEGO,"7607248411"
"50099",SAN ANTONIO REGIONAL HOSPITAL,"999 SAN BERNARDINO ROAD",UPLAND,CA,"91786",SAN BERNARDINO,"7149852811"
"50118",DOCTORS HOSPITAL OF MANTECA,"1205 E NORTH STREET",MANTECA,CA,"95336",SAN JOAQUIN,"2098233111"
"50124",USC VERDUGO HILLS HOSPITAL,"1812 VERDUGO BLVD",GLENDALE,CA,"91209",LOS ANGELES,"8187907100"
"50125",REGIONAL MEDICAL CENTER OF SAN JOSE,"225 N JACKSON AVENUE",SAN JOSE,CA,"95116",SANTA CLARA,"4082595000"
"70003",DAY KIMBALL HOSPITAL,"320 POMFRET STREET",PUTNAM,CT,"6260",WINDHAM,"8609286541"
"50726",STANISLAUS SURGICAL HOSPITAL,"1421 OAKDALE ROAD",MODESTO,CA,"95355",STANISLAUS,"2095722700"
"50224",HOAG MEMORIAL HOSPITAL PRESBYTERIAN,ONE HOAG DRIVE,NEWPORT BEACH,CA,"92663",ORANGE,"9497644624"
"50140",KAISER FOUNDATION HOSPITAL FONTANA,"9961 SIERRA AVE",FONTANA,CA,"92335",SAN BERNARDINO,"9094275500"
"50351",TORRANCE MEMORIAL MEDICAL CENTER,"3330 LOMITA BLVD",TORRANCE,CA,"90509",LOS ANGELES,"3103259110"
"50245",ARROWHEAD REGIONAL MEDICAL CENTER,"400 NORTH PEPPER AVENUE",COLTON,CA,"92324",SAN BERNARDINO,"9095801000"
"50516",MERCY SAN JUAN MEDICAL CENTER,"6501 COYLE AVE",CARMICHAEL,CA,"95608",SACRAMENTO,"9165375000"
"50537",SUTTER DAVIS HOSPITAL,"2000 SUTTER PLACE",DAVIS,CA,"95616",YOLO,"5307566440"
"50517",VICTOR VALLEY GLOBAL MEDICAL CENTER,"15248 11TH ST",VICTORVILLE,CA,"92392",SAN BERNARDINO,"7602458691"
"50281",ALHAMBRA HOSPITAL MEDICAL CENTER,"100 S RAYMOND AVE",ALHAMBRA,CA,"91801",LOS ANGELES,"6265701606"
"50231",POMONA VALLEY HOSPITAL MEDICAL CENTER,"1798 N GAREY AVE",POMONA,CA,"91767",LOS ANGELES,"9098659500"
"120026",PALI MOMI MEDICAL CENTER,"98-1079 MOANALUA ROAD",AIEA,HI,"96701",HONOLULU,"8084866000"
"50315",KERN MEDICAL CENTER,"1700 MOUNT VERNON AVENUE",BAKERSFIELD,CA,"93306",KERN,"6613262000"
"50353",PROVIDENCE LITTLE COMPANY OF MARY MED CTR TORRANCE,"4101 TORRANCE BLVD",TORRANCE,CA,"90503",LOS ANGELES,"3105407676"
"110115",WELLSTAR ATLANTA MEDICAL CENTER,"303 PARKWAY DRIVE, NE",ATLANTA,GA,"30312",FULTON,"4042654000"
"110113",BURKE MEDICAL CENTER,"351 SOUTH LIBERTY STREET",WAYNESBORO,GA,"30830",BURKE,"7065544435"
"50290",PROVIDENCE SAINT JOHN'S HEALTH CENTER,"2121 SANTA MONICA BLVD",SANTA MONICA,CA,"90404",LOS ANGELES,"3108295511"
"50534",JOHN F KENNEDY MEMORIAL HOSPITAL,"47111 MONROE STREET",INDIO,CA,"92201",RIVERSIDE,"7603476191"
"50590",METHODIST HOSPITAL OF SACRAMENTO,"7500 HOSPITAL DRIVE",SACRAMENTO,CA,"95823",SACRAMENTO,"9164236010"
"50714",SUTTER MATERNITY & SURGERY CENTER OF SANTA CRUZ,"2900 CHANTICLEER AVENUE",SANTA CRUZ,CA,"95065",SANTA CRUZ,"8314772200"
"50234",SHARP CORONADO HOSPITAL AND HLTHCR CTR,"250 PROSPECT PLACE",CORONADO,CA,"92118",SAN DIEGO,"6194356251"
"50541",KAISER FOUNDATION HOSPITAL - REDWOOD CITY,"1100 VETERANS BOULEVARD",REDWOOD CITY,CA,"94063",SAN MATEO,"6502992000"
"370114","ST JOHN MEDICAL CENTER, INC","1923 SOUTH UTICA AVENUE",TULSA,OK,"74104",TULSA,"9187443131"
"50506",SIERRA VISTA REGIONAL MEDICAL CENTER,"1010 MURRAY ST",SAN LUIS OBISPO,CA,"93405",SAN LUIS OBISPO,"8505467600"
"100315",VIERA HOSPITAL,"8745 N WICKHAM RD",MELBOURNE,FL,"32940",BREVARD,"3214349000"
"50457",ST MARY'S MEDICAL CENTER,"450 STANYAN ST",SAN FRANCISCO,CA,"94117",SAN FRANCISCO,"4156681000"
"50236",SIMI VALLEY HOSPITAL & HEALTH CARE SERVICES,"2975 N SYCAMORE DR",SIMI VALLEY,CA,"93065",VENTURA,"8059556000"
"111311",OPTIM MEDICAL CENTER - JENKINS,"931 EAST WINTHROPE AVENUE",MILLEN,GA,"30442",JENKINS,"4784784221"
"110030",CARTERSVILLE MEDICAL CENTER,"960 JOE FRANK HARRIS PARKWAY",CARTERSVILLE,GA,"30120",BARTOW,"7703878182"
"50663",LOS ANGELES COMMUNITY HOSPITAL,"4081 E OLYMPIC BLVD",LOS ANGELES,CA,"90023",LOS ANGELES,"3232670477"
"61317",GRAND RIVER MEDICAL CENTER,"501 AIRPORT ROAD",RIFLE,CO,"81650",GARFIELD,"9706251510"
"50754",MENLO PARK SURGICAL HOSPITAL,"570 WILLOW ROAD",MENLO PARK,CA,"94025",SAN MATEO,"6503248500"
"50755",SHERMAN OAKS HOSPITAL,"4929 VAN NUYS BLVD",SHERMAN OAKS,CA,"91403",LOS ANGELES,"8189817111"
"60001",NORTH COLORADO MEDICAL CENTER,"1801 16TH STREET",GREELEY,CO,"80631",WELD,"9708104121"
"61308",SAN LUIS VALLEY HEALTH CONEJOS COUNTY HOSPITAL,"19021 US HWY 285",LA JARA,CO,"81140",CONEJOS,"7192745121"
"61322",HEART OF THE ROCKIES REGIONAL MEDICAL CENTER,"1000 RUSH DRIVE",SALIDA,CO,"81201",CHAFFEE,"7195302200"
"60003",LONGMONT UNITED HOSPITAL,"1950 MOUNTAIN VIEW AVENUE",LONGMONT,CO,"80501",BOULDER,"3036515111"
"60023",ST MARYS  MEDICAL CENTER,"2635 N 7TH STREET",GRAND JUNCTION,CO,"81502",MESA,"9702981950"
"50760",KAISER FOUNDATION HOSPITAL - ANTIOCH,"4501 SAND CREEK ROAD",ANTIOCH,CA,"94531",CONTRA COSTA,"9258136500"
"51335",BEAR VALLEY COMMUNITY HOSPITAL,"41870 GARSTIN DR",BIG BEAR LAKE,CA,"92315",SAN BERNARDINO,"9098666501"
"50139",KAISER FOUNDATION HOSPITAL - DOWNEY,"9333 IMPERIAL HIGHWAY",DOWNEY,CA,"90242",LOS ANGELES,"5624616007"
"50744",ANAHEIM GLOBAL MEDICAL CENTER,"1025 S ANAHEIM BLVD",ANAHEIM,CA,"92805",ORANGE,"7145336220"
"50778",LOMA LINDA UNIVERSITY CHILDREN'S HOSPITAL,"11234 ANDERSON STREET SUITE A",LOMA LINDA,CA,"92354",SAN BERNARDINO,"9095588000"
"50393",PIH HOSPITAL - DOWNEY,"11500 BROOKSHIRE AVENUE",DOWNEY,CA,"90241",LOS ANGELES,"5269045000"
"50394",COMMUNITY MEMORIAL HOSPITAL SAN BUENAVENTURA,"147 N BRENT ST",VENTURA,CA,"93003",VENTURA,"8056525011"
"370020",MERCY HOSPITAL ADA,"430 NORTH MONTE VISTA",ADA,OK,"74820",PONTOTOC,"5803322323"
"50745",CHAPMAN GLOBAL MEDICAL CENTER,"2601 E CHAPMAN AVE",ORANGE,CA,"92869",ORANGE,"7146330011"
"51326",PLUMAS DISTRICT HOSPITAL,"1065 BUCKS LAKE ROAD",QUINCY,CA,"95971",PLUMAS,"5302832121"
"50780",FOOTHILL REGIONAL MEDICAL CENTER,"14662 NEWPORT AVE",TUSTIN,CA,"92780",ORANGE,"7146197700"
"60011",DENVER HEALTH MEDICAL CENTER,"777 BANNOCK ST",DENVER,CO,"80204",DENVER,"3036024930"
"60014",PRESBYTERIAN ST LUKES MEDICAL CENTER,"1719 E 19TH AVE",DENVER,CO,"80218",DENVER,"3038396000"
"50133",RIDEOUT MEMORIAL HOSPITAL,"726 4TH ST",MARYSVILLE,CA,"95901",YUBA,"5307494300"
"51300",EASTERN PLUMAS HOSPITAL - PORTOLA CAMPUS,"500 FIRST AVENUE",PORTOLA,CA,"96122",PLUMAS,"5308324277"
"130002",ST LUKE'S MAGIC VALLEY RMC,"801 POLE LINE ROAD WEST",TWIN FALLS,ID,"83301",TWIN FALLS,"2088141000"
"100055",FLORIDA HOSPITAL NORTH PINELLAS,"1395 S PINELLAS AVE",TARPON SPRINGS,FL,"34689",PINELLAS,"7279425000"
"140089",MC DONOUGH DISTRICT HOSPITAL,"525 EAST GRANT STREET",MACOMB,IL,"61455",MCDONOUGH,"3098334101"
"100156",LAKE CITY MEDICAL CENTER,"340 NW COMMERCE DR",LAKE CITY,FL,"32055",COLUMBIA,"3867199000"
"140091",THE CARLE FOUNDATION HOSPITAL,"611 WEST PARK STREET",URBANA,IL,"61801",CHAMPAIGN,"2173833311"
"140200",ELMHURST MEMORIAL HOSPITAL,"155 EAST BRUSH HILL ROAD",ELMHURST,IL,"60126",DUPAGE,"6308331400"
"100292",SACRED HEART HOSPITAL ON THE EMERALD COAST,"7800 US HWY 98 W",MIRAMAR BEACH,FL,"32550",WALTON,"8502783600"
"80003",ST FRANCIS HOSPITAL,"7TH AND CLAYTON STS",WILMINGTON,DE,"19805",NEW CASTLE,"3024214100"
"90011",MEDSTAR WASHINGTON HOSPITAL CENTER,"110 IRVING ST NW",WASHINGTON,DC,"20010",DISTRICT OF COLUMBIA,"2028777000"
"121304",KAHUKU MEDICAL CENTER,"56-117 PUALALEA STREET",KAHUKU,HI,"96731",HONOLULU,"8082939221"
"121302",KOHALA HOSPITAL,"54-383 HOSPITAL ROAD",KAPAAU,HI,"96755",HAWAII,"8088896211"
"121303",MOLOKAI GENERAL HOSPITAL,"280 HOME OLU PLACE",KAUNAKAKAI,HI,"96748",MAUI,"8085535331"
"70031",GRIFFIN HOSPITAL,"130 DIVISION ST",DERBY,CT,"6418",NEW HAVEN,"2037327500"
"100046",FLORIDA HOSPITAL ZEPHYRHILLS,"7050 GALL BLVD",ZEPHYRHILLS,FL,"33541",PASCO,"8137880411"
"100161",CENTRAL FLORIDA REGIONAL HOSPITAL,"1401 W SEMINOLE BLVD",SANFORD,FL,"32771",SEMINOLE,"4073214500"
"100047",BAYFRONT HEALTH PUNTA GORDA,"809 E MARION AVE",PUNTA GORDA,FL,"33950",CHARLOTTE,"9416393131"
"100267",ENGLEWOOD COMMUNITY HOSPITAL,"700 MEDICAL BLVD",ENGLEWOOD,FL,"34223",SARASOTA,"9414756571"
"100009",UNIVERSITY OF MIAMI HOSPITAL,"1400 NW 12TH AVE",MIAMI,FL,"33136",MIAMI-DADE,"3053255511"
"100092",WUESTHOFF MEDICAL CENTER-ROCKLEDGE,"110 LONGWOOD AVE",ROCKLEDGE,FL,"32955",BREVARD,"3216372603"
"100088",BAPTIST MEDICAL CENTER JACKSONVILLE,"800 PRUDENTIAL DR",JACKSONVILLE,FL,"32207",DUVAL,"9042022000"
"100168",BOCA RATON REGIONAL HOSPITAL,"800 MEADOWS RD",BOCA RATON,FL,"33486",PALM BEACH,"5613625002"
"123300",KAPIOLANI MEDICAL CENTER FOR WOMEN & CHILDREN,"1319 PUNAHOU STREET",HONOLULU,HI,"96826",HONOLULU,"8089836000"
"70040",HEBREW HOME AND HOSPITAL INC,"1 ABRAHMS BOULEVARD",WEST HARTFORD,CT,"6117",HARTFORD,"8605233800"
"131326",CASSIA REGIONAL MEDICAL CENTER,"1501 HILAND AVENUE",BURLEY,ID,"83318",CASSIA,"2086784444"
"140189",SARAH BUSH LINCOLN HEALTH CENTER,"1000 HEALTH CENTER DRIVE P O BOX 372",MATTOON,IL,"61938",COLES,"2172582572"
"140114",SWEDISH COVENANT HOSPITAL,"5145 N CALIFORNIA AVE",CHICAGO,IL,"60625",COOK,"7738788200"
"140115",THOREK MEMORIAL HOSPITAL,"850 W IRVING PARK RD",CHICAGO,IL,"60613",COOK,"3125256780"
"100246",LAWNWOOD REGIONAL MEDICAL CENTER & HEART INSTITUTE,"1700 S 23RD ST",FORT PIERCE,FL,"34950",SAINT LUCIE,"7724614000"
"131328",BONNER GENERAL HOSPITAL,"520 NORTH THIRD AVENUE",SANDPOINT,ID,"83864",BONNER,"2082631441"
"140002",ALTON MEMORIAL HOSPITAL,ONE MEMORIAL DRIVE,ALTON,IL,"62002",MADISON,"6184637300"
"100017",HALIFAX HEALTH MEDICAL CENTER,"303 N CLYDE MORRIS BLVD",DAYTONA BEACH,FL,"32114",VOLUSIA,"3862544000"
"110034",AU MEDICAL CENTER,"1120 15TH STREET",AUGUSTA,GA,"30912",RICHMOND,"7067216569"
"110189",FANNIN REGIONAL HOSPITAL,"2855 OLD HIGHWAY 5 NORTH",BLUE RIDGE,GA,"30513",FANNIN,"7066323711"
"100107",LEHIGH REGIONAL MEDICAL CENTER,"1500 LEE BLVD",LEHIGH ACRES,FL,"33936",LEE,"2393692101"
"110007",PHOEBE PUTNEY MEMORIAL HOSPITAL,"417 THIRD AVENUE",ALBANY,GA,"31703",DOUGHERTY,"2293124068"
"100025",SACRED HEART HOSPITAL,"5151 N 9TH AVE",PENSACOLA,FL,"32504",ESCAMBIA,"8504167000"
"110192",EASTSIDE MEDICAL CENTER,"1700 MEDICAL WAY",SNELLVILLE,GA,"30078",GWINNETT,"7707362498"
"100125",HOMESTEAD HOSPITAL,"975 BAPTIST WAY",HOMESTEAD,FL,"33033",MIAMI-DADE,"7862438000"
"101302",CAMPBELLTON-GRACEVILLE HOSPITAL,"5429 COLLEGE DR",GRACEVILLE,FL,"32440",JACKSON,"8502637201"
"111332",BROOKS COUNTY HOSPITAL,"903 N COURT ST",QUITMAN,GA,"31643",BROOKS,"9122636309"
"100256",REGIONAL MEDICAL CENTER BAYONET POINT,"14000 FIVAY RD",HUDSON,FL,"34667",PASCO,"7278192929"
"100038",MEMORIAL REGIONAL HOSPITAL,"3501 JOHNSON ST",HOLLYWOOD,FL,"33021",BROWARD,"9549872000"
"110015",TANNER MEDICAL CENTER VILLA RICA,"601 DALLAS HIGHWAY",VILLA RICA,GA,"30180",CARROLL,"7704563101"
"110201",COLISEUM NORTHSIDE HOSPITAL,"400 CHARTER BOULEVARD",MACON,GA,"31210",BIBB,"4787578200"
"100035",MANATEE MEMORIAL HOSPITAL,"206 2ND ST E",BRADENTON,FL,"34208",MANATEE,"9417465111"
"140007",PRESENCE SAINT JOSEPH MEDICAL CENTER,"333 N MADISON",JOLIET,IL,"60435",WILL,"8157257133"
"140124",JOHN H STROGER JR HOSPITAL,"1901 W HARRISON ST",CHICAGO,IL,"60612",COOK,"3128646000"
"131310",ST LUKE'S JEROME,"709 NORTH LINCOLN AVENUE",JEROME,ID,"83338",JEROME,"2088149500"
"131309",CARIBOU MEMORIAL HOSPITAL,"300 SOUTH 3RD WEST",SODA SPRINGS,ID,"83276",CARIBOU,"2085473341"
"140177",JACKSON PARK HOSPITAL,"7531 S STONY ISLAND AVE",CHICAGO,IL,"60649",COOK,"7739477500"
"140033",VISTA MEDICAL CENTER WEST,"2615 WASHINGTON ST",WAUKEGAN,IL,"60085",LAKE,"8472493900"
"131303",NELL J REDFIELD MEMORIAL HOSPITAL,"150 NORTH 200 WEST",MALAD,ID,"83252",ONEIDA,"2087662231"
"10019",HELEN KELLER MEMORIAL HOSPITAL,"1300 SOUTH MONTGOMERY AVENUE",SHEFFIELD,AL,"35660",COLBERT,"2563864556"
"10073",CLAY COUNTY HOSPITAL,"83825 HIGHWAY 9    P O BOX 1270",ASHLAND,AL,"36251",CLAY,"2563542131"
"10024",JACKSON HOSPITAL & CLINIC INC,"1725 PINE STREET",MONTGOMERY,AL,"36106",MONTGOMERY,"3342938000"
"10040",GADSDEN REGIONAL MEDICAL CENTER,"1007 GOODYEAR AVENUE",GADSDEN,AL,"35903",ETOWAH,"2564944000"
"10046",RIVERVIEW REGIONAL MEDICAL CENTER,"600 SOUTH THIRD STREET",GADSDEN,AL,"35901",ETOWAH,"2565435200"
"10047",GEORGIANA MEDICAL CENTER,"515 N MIRANDA AVENUE",GEORGIANA,AL,"36033",BUTLER,"3343762205"
"10099",D W MCMILLAN MEMORIAL HOSPITAL,"1301 BELLEVILLE AVENUE",BREWTON,AL,"36426",ESCAMBIA,"2518678061"
"10110",BULLOCK COUNTY HOSPITAL,"102 WEST CONECUH AVENUE",UNION SPRINGS,AL,"36089",BULLOCK,"3347382140"
"10089",WALKER BAPTIST MEDICAL CENTER,"3400 HIGHWAY 78 EAST",JASPER,AL,"35502",WALKER,"2053874000"
"10158",RUSSELLVILLE HOSPITAL,"15155 HIGHWAY 43",RUSSELLVILLE,AL,"35653",FRANKLIN,"2563321611"
"10125",LAKELAND COMMUNITY HOSPITAL,"42024 HIGHWAY 195 E",HALEYVILLE,AL,"35565",WINSTON,"2054857117"
"10129",NORTH BALDWIN INFIRMARY,"1815 HAND AVENUE",BAY MINETTE,AL,"36507",BALDWIN,"2519375521"
"10139",BROOKWOOD MEDICAL CENTER,"2010 BROOKWOOD MEDICAL CENTER DRIVE",BIRMINGHAM,AL,"35209",JEFFERSON,"2058771000"
"10146",RMC JACKSONVILLE,"1701 SOUTH PELHAM ROAD",JACKSONVILLE,AL,"36265",CALHOUN,"2567824538"
"30055",KINGMAN REGIONAL MEDICAL CENTER,"3269 STOCKTON HILL ROAD",KINGMAN,AZ,"86409",MOHAVE,"9287572101"
"30084",CHINLE COMPREHENSIVE HEALTH CARE FACILITY,"US HWY 191, HOSPITAL ROAD",CHINLE,AZ,"86503",APACHE,"9286747001"
"30002",BANNER - UNIVERSITY MEDICAL CENTER PHOENIX,"1111 EAST MCDOWELL ROAD",PHOENIX,AZ,"85006",MARICOPA,"6022392000"
"30014",JOHN C. LINCOLN MEDICAL CENTER,"250 EAST DUNLAP AVENUE",PHOENIX,AZ,"85020",MARICOPA,"6028706060"
"30094",ABRAZO ARROWHEAD CAMPUS,"18701 NORTH 67TH AVENUE",GLENDALE,AZ,"85308",MARICOPA,"6235611000"
"30093",BANNER DEL E. WEBB MEDICAL CENTER,"14502 WEST MEEKER BOULEVARD",SUN CITY WEST,AZ,"85375",MARICOPA,"6235244000"
"30071",FORT DEFIANCE INDIAN HOSPITAL,PO BOX 649,FORT DEFIANCE,AZ,"86504",APACHE,"9287298000"
"30137",GREEN VALLEY HOSPITAL,"4455 SOUTH I-19 FRONTAGE ROAD",GREEN VALLEY,AZ,"85614",PIMA,"5203934710"
"31304",PAGE HOSPITAL,"501 NORTH NAVAJO DRIVE",PAGE,AZ,"86040",COCONINO,"9286452424"
"40088",MEDICAL CENTER SOUTH ARKANSAS,"700 WEST GROVE STREET",EL DORADO,AR,"71731",UNION,"8708632000"
"40039",ARKANSAS METHODIST MEDICAL CENTER,"900 WEST KINGSHIGHWAY",PARAGOULD,AR,"72450",GREENE,"8702397000"
"40001",SILOAM SPRINGS REGIONAL HOSPITAL,"603 NORTH PROGRESS AVENUE",SILOAM SPRINGS,AR,"72761",BENTON,"4795244141"
"40014",WHITE COUNTY MEDICAL CENTER,"3214 EAST RACE AVENUE",SEARCY,AR,"72143",WHITE,"5012783100"
"40015",MENA REGIONAL HEALTH SYSTEM,"311 NORTH MORROW STREET",MENA,AR,"71953",POLK,"4793946100"
"40137",ST VINCENT MEDICAL CENTER/NORTH,"2215 WILDWOOD AVENUE",SHERWOOD,AR,"72120",PULASKI,"5015527100"
"40071",JEFFERSON REGIONAL MEDICAL CENTER,"1600 WEST 40TH AVENUE",PINE BLUFF,AR,"71603",JEFFERSON,"8705417100"
"41306",COMMUNITY MEDICAL CENTER IZARD COUNTY,"103 GRASSE STREET",CALICO ROCK,AR,"72519",IZARD,"8702973726"
"50211",ALAMEDA HOSPITAL,"2070 CLINTON AVENUE",ALAMEDA,CA,"94501",ALAMEDA,"5105223700"
"50376",LAC/HARBOR-UCLA MED CENTER,"1000 W CARSON ST",TORRANCE,CA,"90502",LOS ANGELES,"3102222101"
"50300",ST MARY MEDICAL CENTER,"18300 HIGHWAY 18",APPLE VALLEY,CA,"92307",SAN BERNARDINO,"7602422311"
"50510",KAISER FOUNDATION HOSPITAL,"99 MONTECILLO RD",SAN RAFAEL,CA,"94903",MARIN,"4154442000"
"60112",SKY RIDGE MEDICAL CENTER,"10101 RIDGE GATE PARKWAY",LONE TREE,CO,"80124",DOUGLAS,"7202251000"
"61306",LINCOLN COMMUNITY HOSPITAL,"111 6TH ST",HUGO,CO,"80821",LINCOLN,"7197432421"
"60049",YAMPA VALLEY MEDICAL CENTER,"1024 CENTRAL PARK DR",STEAMBOAT SPRINGS,CO,"80487",ROUTT,"9708791322"
"60113",CENTURA HEALTH-LITTLETON ADVENTIST HOSPITAL,"7700 S BROADWAY",LITTLETON,CO,"80122",ARAPAHOE,"3037305888"
"51319",MERCY MEDICAL CENTER MT SHASTA,"914 PINE STREET",MOUNT SHASTA,CA,"96067",SISKIYOU,"5309266111"
"50775",TEMECULA VALLEY HOSPITAL,"31700 TEMECULA PKWY",TEMECULA,CA,"92592",RIVERSIDE,"9513312200"
"51302",SOUTHERN INYO HOSPITAL,"501 EAST LOCUST STREET",LONE PINE,CA,"93545",INYO,"7608765501"
"61328",PAGOSA SPRINGS MEDICAL CENTER,"95 SOUTH PAGOSA BOULEVARD",PAGOSA SPRINGS,CO,"81147",ARCHULETA,"9707313700"
"60125",CASTLE ROCK ADVENTIST HOSPITAL,"2350 MEADOWS BLVD",CASTLE ROCK,CO,"80109",DOUGLAS,"7204552500"
"60020",PARKVIEW MEDICAL CENTER INC,"400 W 16TH STREET",PUEBLO,CO,"81003",PUEBLO,"7195844000"
"51311",ORCHARD HOSPITAL,"240 SPRUCE STREET",GRIDLEY,CA,"95948",BUTTE,"5308465671"
"51310",FRANK R HOWARD MEMORIAL HOSPITAL,"1 MARCELA DR",WILLITS,CA,"95490",MENDOCINO,"7074563031"
"61319",ST VINCENT HOSPITAL GENERAL DISTRICT,"822 W 4TH STREET",LEADVILLE,CO,"80461",LAKE,"7194860230"
"50561",KAISER FOUNDATION HOSPITAL - WEST LA,"6041 CADILLAC AVE",LOS ANGELES,CA,"90034",LOS ANGELES,"2138572201"
"61310",SEDGWICK COUNTY MEMORIAL HOSPITAL,"900 CEDAR STREET",JULESBURG,CO,"80737",SEDGWICK,"9704743323"
"60065",NORTH SUBURBAN MEDICAL CENTER,"9191 GRANT ST",THORNTON,CO,"80229",ADAMS,"3034517800"
"60071",DELTA COUNTY MEMORIAL HOSPITAL,"1501 E 3RD STREET",DELTA,CO,"81416",DELTA,"9708747681"
"50138",KAISER FOUNDATION HOSPITAL - LOS ANGELES,"4867 SUNSET BLVD",LOS ANGELES,CA,"90027",LOS ANGELES,"3237834011"
"50257",GOOD SAMARITAN HOSPITAL,"901 OLIVE DRIVE",BAKERSFIELD,CA,"93308",KERN,"6613994461"
"50764",SHASTA REGIONAL MEDICAL CENTER,"1100 BUTTE ST",REDDING,CA,"96001",SHASTA,"5302445454"
"61311",SOUTHEAST COLORADO HOSPITAL,"373 E TENTH AVE",SPRINGFIELD,CO,"81073",BACA,"7195234501"
"61315",YUMA DISTRICT HOSPITAL,"1000 WEST 8TH AVENUE",YUMA,CO,"80759",YUMA,"9708485405"
"60100","MEDICAL CENTER OF AURORA, THE","1501 S POTOMAC ST",AURORA,CO,"80012",ARAPAHOE,"3036952600"
"50570",FOUNTAIN VALLEY REGIONAL HOSPITAL & MEDICAL CENTER,"17100 EUCLID STREET",FOUNTAIN VALLEY,CA,"92708",ORANGE,"7149667200"
"61302",COLORADO CANYONS HOSPITAL AND MEDICAL CENTER,"300 WEST OTTLEY AVENUE",FRUITA,CO,"81521",MESA,"9708589871"
"50417",SUTTER COAST HOSPITAL,"800 E WASHINGTON BLVD",CRESCENT CITY,CA,"95531",DEL NORTE,"7074648880"
"51315",TRINITY HOSPITAL,"60 EASTER AVENUE",WEAVERVILLE,CA,"96093",TRINITY,"5306235541"
"51316",FAIRCHILD MEDICAL CENTER,"444 BRUCE STREET",YREKA,CA,"96097",SISKIYOU,"5308424121"
"61325",PIONEERS MEDICAL CENTER,"100 PIONEERS MEDICAL CENTER DRIVE",MEEKER,CO,"81641",RIO BLANCO,"9708785047"
"60012",CENTURA HEALTH-ST MARY CORWIN MEDICAL CENTER,"1008 MINNEQUA AVE",PUEBLO,CO,"81004",PUEBLO,"7195574000"
"50136",PETALUMA VALLEY HOSPITAL,"400 N MCDOWELL BLVD",PETALUMA,CA,"94954",SONOMA,"7077781111"
"61314","MEMORIAL HOSPITAL, THE","750 HOSPITAL LOOP",CRAIG,CO,"81625",MOFFAT,"9708249411"
"50132",SAN GABRIEL VALLEY MEDICAL CENTER,"438 W LAS TUNAS DRIVE",SAN GABRIEL,CA,"91776",LOS ANGELES,"6262895454"
"61326",PIKES PEAK REGIONAL HOSPITAL,"16420 HIGHWAY 24",WOODLAND PARK,CO,"80863",TELLER,"7196879999"
"100081",HEALTHMARK REGIONAL MEDICAL CENTER,"4413 US HWY 331 S",DEFUNIAK SPRINGS,FL,"32435",WALTON,"8509514500"
"100043",MEASE DUNEDIN HOSPITAL,"601 MAIN ST",DUNEDIN,FL,"34698",PINELLAS,"7277331111"
"140197",METHODIST HOSPITAL OF CHICAGO,"5025 N PAULINA STREET",CHICAGO,IL,"60640",COOK,"7732719040"
"100002",BETHESDA HOSPITAL EAST,"2815 S SEACREST BLVD",BOYNTON BEACH,FL,"33435",PALM BEACH,"5617377733"
"100087",SARASOTA MEMORIAL HOSPITAL,"1700 S TAMIAMI TRL",SARASOTA,FL,"34239",SARASOTA,"9419179000"
"70034",NORWALK HOSPITAL ASSOCIATION,"24 STEVENS STREET",NORWALK,CT,"6856",FAIRFIELD,"2038522000"
"100044",MARTIN MEDICAL CENTER,"200 SE HOSPITAL AVE",STUART,FL,"34995",MARTIN,"7722875200"
"100157",LAKELAND REGIONAL MEDICAL CENTER,"1324 LAKELAND HILLS BLVD",LAKELAND,FL,"33805",POLK,"8636871100"
"100187",PALMETTO GENERAL HOSPITAL,"2001 W 68TH ST",HIALEAH,FL,"33016",MIAMI-DADE,"3058235000"
"140095",SAINT ANTHONY HOSPITAL,"2875 WEST 19TH STREET",CHICAGO,IL,"60623",COOK,"7735211710"
"140209",METHODIST MEDICAL CENTER OF ILLINOIS,"221 N E GLEN OAK AVE",PEORIA,IL,"61636",PEORIA,"3096725522"
"100070",VENICE REGIONAL MEDICAL CENTER - BAYFRONT HEALTH,"540 THE RIALTO",VENICE,FL,"34285",SARASOTA,"9414857711"
"100173",FLORIDA HOSPITAL TAMPA,"3100 E FLETCHER AVE",TAMPA,FL,"33613",HILLSBOROUGH,"8136157200"
"140103",ST BERNARD HOSPITAL,"326 W 64TH ST",CHICAGO,IL,"60621",COOK,"7739623900"
"100258",DELRAY MEDICAL CENTER,"5352 LINTON BLVD",DELRAY BEACH,FL,"33484",PALM BEACH,"5614984440"
"100253",JUPITER MEDICAL CENTER,"1210 S OLD DIXIE HWY",JUPITER,FL,"33458",PALM BEACH,"5617472234"
"140211",DELNOR COMMUNITY HOSPITAL,"300 RANDALL RD",GENEVA,IL,"60134",KANE,"6302083000"
"90003",HOWARD UNIVERSITY HOSPITAL,"2041 GEORGIA AVE NW",WASHINGTON,DC,"20060",DISTRICT OF COLUMBIA,"2027456100"
"100052",WINTER HAVEN HOSPITAL,"200 AVE F NE",WINTER HAVEN,FL,"33881",POLK,"8632931121"
"140116",CENTEGRA HEALTH SYSTEM - MC HENRY HOSPITAL,"4201 MEDICAL CENTER DRIVE",MCHENRY,IL,"60050",MCHENRY,"8153445000"
"110001",HAMILTON MEDICAL CENTER,"1200 MEMORIAL DRIVE",DALTON,GA,"30720",WHITFIELD,"7062726105"
"110132",MEMORIAL HOSPITAL AND MANOR,"1500 E SHOTWELL STREET",BAINBRIDGE,GA,"39819",DECATUR,"2292463500"
"110190",FLINT RIVER COMMUNITY HOSPITAL,"509 SUMTER STREET, BOX 770",MONTEZUMA,GA,"31063",MACON,"4784723100"
"101311",MADISON COUNTY MEMORIAL HOSPITAL,"224 NW CRANE AVE",MADISON,FL,"32340",MADISON,"8509732271"
"111329",ST MARY'S GOOD SAMARITAN HOSPITAL,"5401 LAKE OCONEE PARKWAY",GREENSBORO,GA,"30642",GREENE,"7064537331"
"110233",SOUTHEASTERN REGIONAL MEDICAL CENTER,"600 CELEBRATE LIFE PARKWAY",NEWNAN,GA,"30265",COWETA,"4048448334"
"110004",HUTCHESON MEDICAL CENTER,"100 GROSS CRESCENT",FORT OGLETHORPE,GA,"30742",CATOOSA,"7068582101"
"100228",WESTSIDE REGIONAL MEDICAL CENTER,"8201 W BROWARD BLVD",PLANTATION,FL,"33324",BROWARD,"9544736600"
"110039",TRINITY HOSPITAL OF AUGUSTA,"2260 WRIGHTSBORO RD",AUGUSTA,GA,"30904",RICHMOND,"7064817000"
"120005",HILO MEDICAL CENTER,"1190 WAIANUENUE AVENUE",HILO,HI,"96720",HAWAII,"8089323000"
"110100",JEFFERSON HOSPITAL,"1067 PEACHTREE ST",LOUISVILLE,GA,"30434",JEFFERSON,"4786257000"
"110104",CRISP REGIONAL HOSPITAL,"902 7TH STREET NORTH",CORDELE,GA,"31015",CRISP,"2292763100"
"70019","MILFORD HOSPITAL, INC","300 SEASIDE AVENUE",MILFORD,CT,"6460",NEW HAVEN,"2038764000"
"110010",EMORY UNIVERSITY HOSPITAL,"1364 CLIFTON ROAD, NE",ATLANTA,GA,"30322",DEKALB,"4046868500"
"110011",TANNER MEDICAL CENTER - CARROLLTON,"705 DIXIE STREET",CARROLLTON,GA,"30117",CARROLL,"7708369580"
"120006",CASTLE MEDICAL CENTER,"640 ULUKAHIKI ST",KAILUA,HI,"96734",HONOLULU,"8082635500"
"110161",NORTHSIDE HOSPITAL,"1000 JOHNSON FERRY ROAD, NE",ATLANTA,GA,"30342",FULTON,"4048518000"
"100029",NORTH SHORE MEDICAL CENTER,"1100 NW 95TH ST",MIAMI,FL,"33150",MIAMI-DADE,"3058356000"
"100030",HEALTH CENTRAL,"10000 W COLONIAL DR",OCOEE,FL,"34761",ORANGE,"4072961820"
"111323",OPTIM MEDICAL CENTER - TATTNALL,"247 S MAIN STREET",REIDSVILLE,GA,"30453",TATTNALL,"9125571000"
"110045",BARROW REGIONAL MEDICAL CENTER,"316 NORTH BROAD STREET",WINDER,GA,"30680",BARROW,"7703075210"
"110205",NORTH GEORGIA MEDICAL CENTER,"1362 SOUTH MAIN STREET",ELLIJAY,GA,"30540",GILMER,"7062764741"
"103304",NEMOURS CHILDREN'S HOSPITAL,"13535 NEMOURS PKWY",ORLANDO,FL,"32827",ORANGE,"4075674000"
"100034",MOUNT SINAI MEDICAL CENTER,"4300 ALTON RD",MIAMI BEACH,FL,"33140",MIAMI-DADE,"3056742121"
"111326",SGMC LANIER CAMPUS,"116 WEST THIGPEN AVENUE",LAKELAND,GA,"31635",LANIER,"2294828402"
"100220",GULF COAST MEDICAL CENTER LEE MEM HEALTH SYSTEM,"13681 DOCTORS WAY",FORT MYERS,FL,"33912",LEE,"2397685000"
"140008",LOYOLA GOTTLIEB MEMORIAL HOSPITAL,"701 WEST NORTH AVE",MELROSE PARK,IL,"60160",COOK,"7084504924"
"140174",PRESENCE MERCY MEDICAL CENTER,"1325 N HIGHLAND AVENUE",AURORA,IL,"60506",KANE,"6308592222"
"140133",HOLY CROSS HOSPITAL,"2701 W 68TH STREET",CHICAGO,IL,"60629",COOK,"7738849000"
"140065",ADVENTIST LA GRANGE MEMORIAL HOSPITAL,"5101 S WILLOW SPRINGS RD",LA GRANGE,IL,"60525",COOK,"7083521200"
"130063",TREASURE VALLEY HOSPITAL,"8800 WEST EMERALD STREET",BOISE,ID,"83704",ADA,"2083735000"
"140034",SSM HEALTH ST MARY'S HOSPITAL -CENTRALIA,"400 NORTH PLEASANT AVENUE",CENTRALIA,IL,"62801",MARION,"6184366519"
"131316",BEAR LAKE MEMORIAL HOSPITAL,"164 SOUTH FIFTH STREET",MONTPELIER,ID,"83254",BEAR LAKE,"2088471630"
"140083",LORETTO HOSPITAL,"645 SOUTH CENTRAL AVE",CHICAGO,IL,"60644",COOK,"7736264300"
"140049",WEST SUBURBAN MEDICAL CENTER,"3 ERIE COURT",OAK PARK,IL,"60302",COOK,"7083836200"
"10022",CHEROKEE MEDICAL CENTER,"400 NORTHWOOD DR",CENTRE,AL,"35960",CHEROKEE,"2569275531"
"10018",CALLAHAN EYE HOSPITAL,"1720 UNIVERSITY BLVD",BIRMINGHAM,AL,"35233",JEFFERSON,"2053258100"
"10102",J PAUL JONES HOSPITAL,"317 MCWILLIAMS AVENUE",CAMDEN,AL,"36726",WILCOX,"3346824131"
"10032",WEDOWEE HOSPITAL,"209 NORTH MAIN STREET",WEDOWEE,AL,"36278",RANDOLPH,"2563572111"
"10038",STRINGFELLOW MEMORIAL HOSPITAL,"301 EAST 18TH ST",ANNISTON,AL,"36201",CALHOUN,"2562358900"
"10051",GREENE COUNTY HOSPITAL,"509 WILSON AVENUE",EUTAW,AL,"35462",GREENE,"2053723388"
"110028",UNIVERSITY HOSPITAL,"1350 WALTON WAY",AUGUSTA,GA,"30901",RICHMOND,"7067229011"
"21308",NORTON SOUND REGIONAL HOSPITAL,"1000 GREG KRUSCHEK AVENUE (P O BOX 966)",NOME,AK,"99762",NOME,"9074433311"
"10120",MONROE COUNTY HOSPITAL,"2016 SOUTH ALABAMA AVENUE, BOX 886",MONROEVILLE,AL,"36460",MONROE,"2515753111"
"10114","MEDICAL WEST, AN AFFILIATE OF UAB HEALTH SYSTEM","995 9TH AVENUE SOUTHWEST",BESSEMER,AL,"35021",JEFFERSON,"2054817000"
"10138",HILL HOSPITAL OF SUMTER COUNTY,"751 DERBY DRIVE",YORK,AL,"36925",SUMTER,"2053925263"
"10149",BAPTIST MEDICAL CENTER EAST,"400 TAYLOR ROAD",MONTGOMERY,AL,"36117",MONTGOMERY,"3342448330"
"20006",MAT-SU REGIONAL MEDICAL CENTER,"2500 SOUTH WOODWORTH LOOP",PALMER,AK,"99645",MATANUSKA SUSITNA,"9078616000"
"30068",MT. GRAHAM REGIONAL MEDICAL CENTER,"1600 SOUTH 20TH AVENUE",SAFFORD,AZ,"85546",GRAHAM,"9283484000"
"30006",TUCSON MEDICAL CENTER,"5301 EAST GRANT ROAD",TUCSON,AZ,"85712",PIMA,"5203275461"
"30089",BANNER THUNDERBIRD MEDICAL CENTER,"5555 WEST THUNDERBIRD ROAD",GLENDALE,AZ,"85306",MARICOPA,"4806845898"
"30092",HONORHEALTH DEER VALLEY MEDICAL CENTER,"19829 NORTH 27TH AVENUE",PHOENIX,AZ,"85027",MARICOPA,"6238796100"
"30131",O.A.S.I.S. HOSPITAL,"750 NORTH 40TH STREET",PHOENIX,AZ,"85008",MARICOPA,"6027977700"
"30130",BANNER IRONWOOD MEDICAL CENTER,"37000 NORTH GANTZEL ROAD",SAN TAN VALLEY,AZ,"85140",PINAL,"4803944030"
"30114",ORO VALLEY HOSPITAL,"1551 EAST TANGERINE ROAD",ORO VALLEY,AZ,"85755",PIMA,"5209013549"
"30115",BANNER ESTRELLA MEDICAL CENTER,"9201 WEST THOMAS ROAD",PHOENIX,AZ,"85037",MARICOPA,"6233274000"
"40047",FIVE RIVERS MEDICAL CENTER,"2801 MEDICAL CENTER DRIVE",POCAHONTAS,AR,"72455",RANDOLPH,"8708926000"
"40118",NEA BAPTIST MEMORIAL HOSPITAL,"4800 EAST JOHNSON AVENUE",JONESBORO,AR,"72401",CRAIGHEAD,"8709727000"
"40055",SPARKS REGIONAL MEDICAL CENTER,"1001 TOWSON AVENUE",FORT SMITH,AR,"72902",SEBASTIAN,"4794414000"
"41307",CROSSRIDGE COMMUNITY HOSPITAL,"310 SOUTH FALLS BOULEVARD",WYNNE,AR,"72396",CROSS,"8702383300"
"41330",PIGGOTT COMMUNITY HOSPITAL,"1206 GORDON DUCKWORTH DRIVE",PIGGOTT,AR,"72454",CLAY,"8705983881"
"50024",PARADISE VALLEY HOSPITAL,"2400 EAST 4TH ST",NATIONAL CITY,CA,"91950",SAN DIEGO,"6194704321"
"50043",ALTA BATES SUMMIT MEDICAL CENTER,"350 HAWTHORNE AVENUE",OAKLAND,CA,"94609",ALAMEDA,"5106554000"
"50047",CALIFORNIA PACIFIC MEDICAL CTR-PACIFIC CAMPUS HOSP,"2333 BUCHANAN STREET",SAN FRANCISCO,CA,"94115",SAN FRANCISCO,"4156006000"
"50054",SAN GORGONIO MEMORIAL HOSPITAL,"600 NORTH HIGHLAND SPRINGS AVENUE",BANNING,CA,"92220",RIVERSIDE,"9518451121"
"50076",KAISER FOUNDATION HOSPITAL - SAN FRANCISCO,"2425 GEARY BLVD",SAN FRANCISCO,CA,"94115",SAN FRANCISCO,"4158332646"
"50089",COMMUNITY HOSPITAL OF SAN BERNARDINO,"1805 MEDICAL CENTER DRIVE",SAN BERNARDINO,CA,"92411",SAN BERNARDINO,"9098876333"
"50110",LOMPOC VALLEY MEDICAL CENTER,"1515 E OCEAN AVENUE",LOMPOC,CA,"93436",SANTA BARBARA,"8057373300"
"50112",SANTA MONICA - UCLA MED CTR & ORTHOPAEDIC HOSPITAL,"1250 16TH STREET",SANTA MONICA,CA,"90404",LOS ANGELES,"3103194000"
"50096","WEST COVINA MEDICAL CENTER, INC","725 S ORANGE AVE",WEST COVINA,CA,"91790",LOS ANGELES,"6263388481"
"60117","ANIMAS SURGICAL HOSPITAL, LLC","575 RIVERGATE LANE",DURANGO,CO,"81301",LA PLATA,"9702473537"
"53306",CHILDREN'S HOSPITAL AT MISSION,"27700 MEDICAL CENTER RD, 5TH FLOOR",MISSION VIEJO,CA,"92691",ORANGE,"9493652408"
"50179",EMANUEL MEDICAL CENTER,"825 DELBON AVE",TURLOCK,CA,"95382",STANISLAUS,"2096674200"
"50624",HENRY MAYO NEWHALL  HOSPITAL,"23845  MCBEAN PKWY",VALENCIA,CA,"91355",LOS ANGELES,"6612538000"
"50380",GOOD SAMARITAN HOSPITAL,"2425 SAMARITAN DRIVE",SAN JOSE,CA,"95124",SANTA CLARA,"4085592011"
"50378",PACIFICA HOSPITAL OF THE VALLEY,"9449 SAN FERNANDO RD",SUN VALLEY,CA,"91352",LOS ANGELES,"8187673310"
"50168",ST JUDE MEDICAL CENTER,"101 E VALENCIA MESA DRIVE",FULLERTON,CA,"92835",ORANGE,"7149923000"
"50523",SUTTER DELTA MEDICAL CENTER,"3901 LONE TREE WAY",ANTIOCH,CA,"94509",CONTRA COSTA,"9257797200"
"50548",FAIRVIEW DEVELOPMENTAL CENTER,"2501 HARBOR BOULEVARD",COSTA MESA,CA,"92626",ORANGE,"7149575000"
"50549",LOS ROBLES HOSPITAL & MEDICAL CENTER,"215 W JANSS RD",THOUSAND OAKS,CA,"91360",VENTURA,"8054972727"
"50192",ADVENTIST MEDICAL CENTER - REEDLEY,"372 W CYPRESS AVE",REEDLEY,CA,"93654",FRESNO,"5596388155"
"50230",GARDEN GROVE HOSPITAL & MEDICAL CENTER,"12601 GARDEN GROVE BLVD",GARDEN GROVE,CA,"92843",ORANGE,"7145375160"
"50526",HUNTINGTON BEACH HOSPITAL,"17772 BEACH BLVD",HUNTINGTON BEACH,CA,"92647",ORANGE,"7148435000"
"50153",O'CONNOR HOSPITAL,"2105 FOREST AVENUE",SAN JOSE,CA,"95128",SANTA CLARA,"4089472500"
"50289",SETON MEDICAL CENTER,"1900 SULLIVAN AVENUE",DALY CITY,CA,"94015",SAN MATEO,"6509924000"
"50709",DESERT VALLEY HOSPITAL,"16850 BEAR VALLEY RD",VICTORVILLE,CA,"92395",SAN BERNARDINO,"7602418000"
"50360",MARIN GENERAL HOSPITAL,"250 BON AIR ROAD, PO BOX 8010",GREENBRAE,CA,"94904",MARIN,"4159257900"
"111308",CLINCH MEMORIAL HOSPITAL,"1050 VALDOSTA HIGHWAY",HOMERVILLE,GA,"31634",CLINCH,"9124875211"
"110027","ST MARY'S SACRED HEART HOSPITAL, INC","367 CLEAR CREEK PARKWAY",LAVONIA,GA,"30553",FRANKLIN,"7063567800"
"110122",SOUTH GEORGIA MEDICAL CENTER,"2501 NORTH PATTERSON STREET, PO BOX 1727",VALDOSTA,GA,"31603",LOWNDES,"2293331020"
"110125",FAIRVIEW PARK HOSPITAL,"200 INDUSTRIAL BOULEVARD",DUBLIN,GA,"31021",LAURENS,"4782743100"
"50292",RIVERSIDE UNIVERSITY HEALTH SYSTEM-MEDICAL CENTER,"26520 CACTUS AVENUE",MORENO VALLEY,CA,"92555",RIVERSIDE,"9514864000"
"50677",KAISER FOUNDATION HOSPITAL - WOODLAND HILLS,"5601 DE SOTO",WOODLAND HILLS,CA,"91367",LOS ANGELES,"8187193800"
"111310","MEDICAL CENTER OF PEACH COUNTY, NAVICENT HEALTH","1960 HIGHWAY 247 CONNECTOR",BYRON,GA,"31008",PEACH,"4786542000"
"50684",MENIFEE VALLEY MEDICAL CENTER,"28400 MCCALL B0ULEVARD",SUN CITY,CA,"92585",RIVERSIDE,"9516798888"
"50222",SHARP CHULA VISTA MEDICAL CENTER,"751 MEDICAL CENTER COURT",CHULA VISTA,CA,"91911",SAN DIEGO,"6195025800"
"110129",ST FRANCIS HOSPITAL,"2122 MANCHESTER EXPRESSWAY",COLUMBUS,GA,"31995",MUSCOGEE,"7065964020"
"50609",KAISER FOUNDATION HOSPITAL - ORANGE COUNTY - ANAHE,"3440 E LA PALMA AVE",ANAHEIM,CA,"92806",ORANGE,"7142794000"
"100321",ST VINCENTS MEDICAL CENTER - CLAY COUNTY,"1670 ST VINCENTS WAY",MIDDLEBURG,FL,"32068",CLAY,"9043087164"
"50464",DOCTORS MEDICAL CENTER,"1441 FLORIDA AVENUE",MODESTO,CA,"95350",STANISLAUS,"2095781211"
"50468",MEMORIAL HOSPITAL OF GARDENA,"1145 W REDONDO BEACH BLVD",GARDENA,CA,"90247",LOS ANGELES,"3105324200"
"50757",ALVARADO HOSPITAL MEDICAL CENTER,"6655 ALVARADO ROAD",SAN DIEGO,CA,"92120",SAN DIEGO,"6192293172"
"60044",COLORADO PLAINS MEDICAL CENTER,"1000 LINCOLN ST",FORT MORGAN,CO,"80701",MORGAN,"9708673391"
"50773",SAN LEANDRO HOSPITAL,"13855 E 14TH STREET",SAN LEANDRO,CA,"94578",ALAMEDA,"5103576500"
"51323",COLORADO RIVER MEDICAL CENTER,"1401 BAILEY AVE",NEEDLES,CA,"92363",SAN BERNARDINO,"7603264531"
"61320",GUNNISON VALLEY HOSPITAL,"711 N TAYLOR STREET",GUNNISON,CO,"81230",GUNNISON,"9706411456"
"60030",MCKEE MEDICAL CENTER,"2000 BOISE AVE",LOVELAND,CO,"80538",LARIMER,"9706694640"
"50763",SILVER LAKE MEDICAL CENTER,"1711 WEST TEMPLE STREET",LOS ANGELES,CA,"90026",LOS ANGELES,"2139896123"
"50568",MADERA COMMUNITY HOSPITAL,"1250 E ALMOND AVE",MADERA,CA,"93637",MADERA,"5596755555"
"51327",SENECA DISTRICT HOSPITAL,"130 BRENTWOOD DRIVE",CHESTER,CA,"96020",PLUMAS,"5302582121"
"50414",MERCY HOSPITAL OF FOLSOM,"1650 CREEKSIDE DRIVE",FOLSOM,CA,"95630",SACRAMENTO,"9169837400"
"51317",ST HELENA HOSPITAL-CLEARLAKE,"15630 18TH AVE - HWY 53",CLEARLAKE,CA,"95422",LAKE,"7079946486"
"53302",CHILDREN'S HOSP OF LOS ANGELES,"4650 SUNSET BLVD",LOS ANGELES,CA,"90027",LOS ANGELES,"3236692164"
"50748",KAISER FOUNDATION HOSPITAL MANTECA,"1777 WEST YOSEMITE AVE",MANTECA,CA,"95337",SAN JOAQUIN,"2098253700"
"61304",HAXTUN HOSPITAL DISTRICT,"235 W FLETCHER STREET",HAXTUN,CO,"80731",PHILLIPS,"9707746123"
"50248",NATIVIDAD MEDICAL CENTER,"1441 CONSTITUTION BOULEVARD",SALINAS,CA,"93906",MONTEREY,"8317554195"
"60015",CENTURA HEALTH-ST ANTHONY HOSPITAL,"11600 WEST 2ND PLACE",LAKEWOOD,CO,"80228",JEFFERSON,"7203210000"
"50261",SIERRA VIEW MEDICAL CENTER,"465 W PUTNAM AVE",PORTERVILLE,CA,"93257",TULARE,"5597841110"
"100053",HIALEAH HOSPITAL,"651 E 25TH ST",HIALEAH,FL,"33013",MIAMI-DADE,"3056936100"
"100150",LOWER KEYS MEDICAL CENTER,"5900 COLLEGE ROAD",KEY WEST,FL,"33040",MONROE,"3052945531"
"100183",CORAL GABLES HOSPITAL,"3100 DOUGLAS RD",CORAL GABLES,FL,"33134",MIAMI-DADE,"3054458461"
"100243",BRANDON REGIONAL HOSPITAL,"119 OAKFIELD DR",BRANDON,FL,"33511",HILLSBOROUGH,"8136815551"
"100062",MUNROE REGIONAL MEDICAL CENTER,"1500 SW 1ST AVE",OCALA,FL,"34474",MARION,"3523517200"
"100166",DOCTORS HOSPITAL OF SARASOTA,"5731 BEE RIDGE RD",SARASOTA,FL,"34233",SARASOTA,"9413421100"
"131322",FRANKLIN COUNTY MEDICAL CENTER,"44 NORTH FIRST EAST",PRESTON,ID,"83263",FRANKLIN,"2088520137"
"100275",WELLINGTON REGIONAL MEDICAL CENTER,"10101 FOREST HILL BLVD",WELLINGTON,FL,"33414",PALM BEACH,"5617988500"
"100090",FLAGLER HOSPITAL,"400 HEALTH PARK BLVD",SAINT AUGUSTINE,FL,"32086",SAINT JOHNS,"9048194426"
"100068",FLORIDA HOSPITAL MEMORIAL MEDICAL CENTER,"301 MEMORIAL MEDICAL PARKWAY",DAYTONA BEACH,FL,"32117",VOLUSIA,"3866766000"
"100069",FLORIDA HOSPITAL CARROLLWOOD,"7171 N DALE MABRY HWY",TAMPA,FL,"33614",HILLSBOROUGH,"8139322222"
"100252",RAULERSON HOSPITAL,"1796 HWY 441 NORTH",OKEECHOBEE,FL,"34972",OKEECHOBEE,"8637632151"
"140110",OTTAWA REGIONAL HOSPITAL & HEALTHCARE CENTER,"1100 EAST NORRIS DRIVE",OTTAWA,IL,"61350",LA SALLE,"8154333100"
"100264",OAK HILL HOSPITAL,"11375 CORTEZ BLVD",BROOKSVILLE,FL,"34613",HERNANDO,"3525966632"
"100254",CAPITAL REGIONAL MEDICAL CENTER,"2626 CAPITAL MEDICAL BLVD",TALLAHASSEE,FL,"32308",LEON,"8506565000"
"140210",HARRISBURG MEDICAL CENTER,"100 DOCTOR WARREN TUTTLE DR",HARRISBURG,IL,"62946",SALINE,"6182537671"
"100014",FLORIDA HOSPITAL NEW SMYRNA,"401 PALMETTO ST",NEW SMYRNA BEACH,FL,"32170",VOLUSIA,"3864245000"
"100051",SOUTH LAKE HOSPITAL,"1900 DON WICKHAM DR",CLERMONT,FL,"34711",LAKE,"3523944071"
"100212",OCALA REGIONAL MEDICAL CENTER,"1431 SW 1ST AVE",OCALA,FL,"34478",MARION,"3524011000"
"100142",JACKSON HOSPITAL,"4250 HOSPITAL DR",MARIANNA,FL,"32446",JACKSON,"8507182620"
"100248",LARGO MEDICAL CENTER,"201 14TH ST SW",LARGO,FL,"33770",PINELLAS,"7275885200"
"131317",BENEWAH COMMUNITY HOSPITAL,"229 SOUTH 7TH STREET",ST MARIES,ID,"83861",BENEWAH,"2082457614"
"100080",JFK MEDICAL CENTER,"5301 S CONGRESS AVE",ATLANTIS,FL,"33462",PALM BEACH,"5619657300"
"110002",UPSON REGIONAL MEDICAL CENTER,"801 W GORDON STREET",THOMASTON,GA,"30286",UPSON,"7066478111"
"70007",LAWRENCE & MEMORIAL HOSPITAL,"365 MONTAUK AVE",NEW LONDON,CT,"6320",NEW LONDON,"8604420711"
"100106",DOCTOR'S MEMORIAL HOSPITAL INC,"333 N BYRON BUTLER PKWY",PERRY,FL,"32348",TAYLOR,"8505840800"
"111328",PHOEBE WORTH MEDICAL CENTER,"807 SOUTH ISABELLA STREET",SYLVESTER,GA,"31791",WORTH,"2297773851"
"110051",UNION GENERAL HOSPITAL,"35 HOSPITAL ROAD",BLAIRSVILLE,GA,"30512",UNION,"7067452111"
"110229","PIEDMONT NEWNAN HOSPITAL, INC","745 POPLAR ROAD",NEWNAN,GA,"30265",COWETA,"7704002300"
"70011",CHARLOTTE HUNGERFORD HOSPITAL,"540 LITCHFIELD ST",TORRINGTON,CT,"6790",LITCHFIELD,"8604966666"
"70012",ROCKVILLE GENERAL HOSPITAL,"31 UNION ST",ROCKVILLE,CT,"6066",TOLLAND,"8608725160"
"110036","MEMORIAL HEALTH UNIV MED CEN, INC","4700 WATERS AVENUE",SAVANNAH,GA,"31403",CHATHAM,"9123503691"
"110005",NORTHSIDE HOSPITAL FORSYTH,"1200 NORTHSIDE FORSYTH DRIVE",CUMMING,GA,"30041",FORSYTH,"7708443200"
"111331",MITCHELL COUNTY HOSPITAL,"90 STEPHENS STREET",CAMILLA,GA,"31730",MITCHELL,"2293365284"
"70018",GREENWICH HOSPITAL ASSOCIATION,"5 PERRYRIDGE RD",GREENWICH,CT,"6830",FAIRFIELD,"2038633000"
"111319",WELLSTAR SYLVAN GROVE HOSPITAL,"1050 MCDONOUGH ROAD",JACKSON,GA,"30233",BUTTS,"7707757861"
"70025",HARTFORD HOSPITAL,"80 SEYMOUR STREET",HARTFORD,CT,"6102",HARTFORD,"8605455000"
"110164",COLISEUM MEDICAL CENTERS,"350 HOSPITAL DRIVE",MACON,GA,"31217",BIBB,"4787657000"
"111334",CANDLER COUNTY HOSPITAL,"400 CEDAR STREET",METTER,GA,"30439",CANDLER,"9126855741"
"110044",PHOEBE SUMTER MEDICAL CENTER,"126 HIGHWAY 280 W",AMERICUS,GA,"31719",SUMTER,"2299311280"
"110082","SAINT JOSEPH'S HOSPITAL OF ATLANTA, INC","5665 PEACHTREE DUNWOODY ROAD",ATLANTA,GA,"30342",FULTON,"6788435720"
"100110",OSCEOLA REGIONAL MEDICAL CENTER,"700 WEST OAK STREET",KISSIMMEE,FL,"34741",OSCEOLA,"4078462266"
"110016",WELLSTAR WEST GEORGIA MEDICAL CENTER,"1514 VERNON ROAD",LAGRANGE,GA,"30240",TROUP,"7068821411"
"70033",DANBURY HOSPITAL,"24 HOSPITAL AVE",DANBURY,CT,"6810",FAIRFIELD,"2037397000"
"100067",ST ANTHONYS HOSPITAL,"1200 SEVENTH AVE N",SAINT PETERSBURG,FL,"33705",PINELLAS,"7278251100"
"140166",ST MARYS HOSPITAL,"1800 E LAKE SHORE DR",DECATUR,IL,"62521",MACON,"2174647000"
"100131",AVENTURA HOSPITAL AND MEDICAL CENTER,"20900 BISCAYNE BLVD",AVENTURA,FL,"33180",MIAMI-DADE,"3056827000"
"100285",MEMORIAL HOSPITAL MIRAMAR,"1901 SW 172ND AVE",MIRAMAR,FL,"33029",BROWARD,"9545384810"
"140208",ADVOCATE CHRIST HOSPITAL & MEDICAL CENTER,"4440 W 95TH STREET",OAK LAWN,IL,"60453",COOK,"7086848000"
"100132",SOUTH FLORIDA BAPTIST HOSPITAL,"301 N ALEXANDER ST",PLANT CITY,FL,"33563",HILLSBOROUGH,"8137571200"
"100204",NORTH FLORIDA REGIONAL MEDICAL CENTER,"6500 NEWBERRY RD",GAINESVILLE,FL,"32605",ALACHUA,"3523334100"
"100260",ST LUCIE MEDICAL CENTER,"1800 SE TIFFANY AVE",PORT SAINT LUCIE,FL,"34952",SAINT LUCIE,"7723354000"
"100277",DOUGLAS GARDENS HOSPITAL,"5200 NE 2ND AVE",MIAMI,FL,"33137",MIAMI-DADE,"3057518626"
"90004",MEDSTAR GEORGETOWN UNIVERSITY HOSPITAL,"3800 RESERVOIR RD",WASHINGTON,DC,"20007",DISTRICT OF COLUMBIA,"2027843000"
"100012",LEE MEMORIAL HOSPITAL,"2776 CLEVELAND AVE",FORT MYERS,FL,"33901",LEE,"2393321111"
"100071",BAYFRONT HEALTH BROOKSVILLE,"17240 CORTEZ BLVD",BROOKSVILLE,FL,"34601",HERNANDO,"3527965111"
"100099",LAKE WALES MEDICAL CENTER,"410 S 11TH ST",LAKE WALES,FL,"33853",POLK,"8636761433"
"100102",SHANDS LAKE SHORE REGIONAL MEDICAL CENTER,"368 NE FRANKLIN ST",LAKE CITY,FL,"32055",COLUMBIA,"3862928000"
"100140",BAPTIST MEDICAL CENTER - NASSAU,"1250 S 18TH ST",FERNANDINA BEACH,FL,"32034",NASSAU,"9043213500"
"100075",ST JOSEPHS HOSPITAL,"3001 W MARTIN LUTHER KING JR BLVD",TAMPA,FL,"33677",HILLSBOROUGH,"8138704398"
"70008",JOHNSON MEMORIAL HOSPITAL,"201 CHESTNUT HILL ROAD",STAFFORD SPRINGS,CT,"6076",TOLLAND,"8606844251"
"113300",CHILDREN'S HEALTHCARE OF ATLANTA AT EGLESTON,"1405 CLIFTON ROAD, NE",ATLANTA,GA,"30322",DEKALB,"4047856101"
"100105",INDIAN RIVER MEDICAL CENTER,"1000 36TH ST",VERO BEACH,FL,"32960",INDIAN RIVER,"7725674311"
"100322",REGIONAL GENERAL HOSPITAL WILLISTON,"125 SW 7TH ST",WILLISTON,FL,"32696",LEVY,"3525282801"
"111327",BACON COUNTY HOSPITAL,"302 SOUTH WAYNE STREET",ALMA,GA,"31510",BACON,"9126328961"
"110086",WASHINGTON COUNTY REGIONAL MEDICAL CENTER,"610 SPARTA ROAD",SANDERSVILLE,GA,"31082",WASHINGTON,"4782402100"
"110091",ROCKDALE MEDICAL CENTER,"1412 MILSTEAD AVENUE, NE",CONYERS,GA,"30012",ROCKDALE,"7709183000"
"110087",GWINNETT MEDICAL CENTER,"1000 MEDICAL CENTER BOULEVARD",LAWRENCEVILLE,GA,"30045",GWINNETT,"6783121000"
"100226",ORANGE PARK MEDICAL CENTER,"2001 KINGSLEY AVE",ORANGE PARK,FL,"32073",CLAY,"9042768500"
"110230",EMORY JOHNS CREEK HOSPITAL,"6325 HOSPITAL PARKWAY",JOHNS CREEK,GA,"30097",CHATTOOGA,"6784747000"
"70016",SAINT MARYS HOSPITAL,"56 FRANKLIN ST",WATERBURY,CT,"6706",NEW HAVEN,"2035746000"
"110071",APPLING HOSPITAL,"163 E TOLLISON STREET",BAXLEY,GA,"31513",APPLING,"9123679841"
"110150",OCONEE REGIONAL MEDICAL CENTER,"821 N COBB STREET  POST OFFICE BOX 690",MILLEDGEVILLE,GA,"31061",BALDWIN,"4784543550"
"110095",TIFT REGIONAL MEDICAL CENTER,"901 E 18TH STREET",TIFTON,GA,"31793",TIFT,"2293827120"
"103300","ALL CHILDREN'S HOSPITAL, INC","501 SIXTH AVENUE SOUTH",SAINT PETERSBURG,FL,"33701",PINELLAS,"8138987451"
"110074",PIEDMONT ATHENS REGIONAL MEDICAL CENTER,"1199 PRINCE AVENUE",ATHENS,GA,"30606",CLARKE,"7064757000"
"111300",SOUTHWEST GEORGIA REGIONAL MEDICAL CENTER,"361 RANDOLPH STREET",CUTHBERT,GA,"39840",RANDOLPH,"2297322181"
"120011",KAISER FOUNDATION HOSPITAL,"3288 MOANALUA RD",HONOLULU,HI,"96819",HONOLULU,"8084320000"
"101305",GEORGE E WEEMS MEMORIAL HOSPITAL,"135 AVE G",APALACHICOLA,FL,"32320",FRANKLIN,"8506538853"
"120007",KUAKINI MEDICAL CENTER,"347 NORTH KUAKINI STREET",HONOLULU,HI,"96817",HONOLULU,"8085362236"
"111324",CHATUGE REGIONAL HOSPITAL,"110 EAST MAIN STREET",HIAWASSEE,GA,"30546",TOWNS,"7068962222"
"110076",DEKALB MEDICAL CENTER,"2701 N DECATUR ROAD",DECATUR,GA,"30033",DEKALB,"4045011000"
"110107","MEDICAL CENTER, NAVICENT HEALTH (THE)","777 HEMLOCK STREET",MACON,GA,"31201",BIBB,"4786331000"
"100231",WEST FLORIDA HOSPITAL,"8383 N DAVIS HWY",PENSACOLA,FL,"32514",ESCAMBIA,"8504944000"
"110050",MURRAY MEDICAL CENTER,"707 OLD DALTON ELLIJAY ROAD, PO BOX 1406",CHATSWORTH,GA,"30705",MURRAY,"7065172031"
"110225",PIEDMONT MOUNTAINSIDE HOSPITAL INC,"1266 HIGHWAY 515 SOUTH",JASPER,GA,"30143",PICKENS,"7063015269"
"131305",STEELE MEMORIAL MEDICAL CENTER,"203 SOUTH DAISY STREET",SALMON,ID,"83467",LEMHI,"2087565612"
"140053",ST JOHNS HOSPITAL,"800 E CARPENTER ST",SPRINGFIELD,IL,"62769",SANGAMON,"2175446464"
"140162",ST JOSEPH MEDICAL CENTER,"2200 E WASHINGTON",BLOOMINGTON,IL,"61701",MCLEAN,"3096623311"
"140164",MEMORIAL HOSPITAL OF CARBONDALE,"405 W JACKSON",CARBONDALE,IL,"62902",JACKSON,"6185490721"
"140125",GATEWAY REGIONAL MEDICAL CENTER,"2100 MADISON AVENUE",GRANITE CITY,IL,"62040",MADISON,"6187983175"
"140059",JERSEY COMMUNITY HOSPITAL,"400 MAPLE SUMMIT ROAD",JERSEYVILLE,IL,"62052",JERSEY,"6184986402"
"130049",KOOTENAI HEALTH,"2003 KOOTENAI HEALTH WAY",COEUR D'ALENE,ID,"83814",KOOTENAI,"2086254000"
"140063",RUSH OAK PARK HOSPITAL,"520 S MAPLE AVE",OAK PARK,IL,"60304",COOK,"7083839300"
"140019",SHELBY MEMORIAL HOSPITAL,"200 S CEDAR ST",SHELBYVILLE,IL,"62565",SHELBY,"2177743961"
"140067",SAINT FRANCIS MEDICAL CENTER,"530 NE GLEN OAK AVE",PEORIA,IL,"61637",PEORIA,"3096552000"
"140179",LITTLE COMPANY OF MARY HOSPITAL,"2800 W 95TH ST",EVERGREEN PARK,IL,"60805",COOK,"7084226200"
"140080",PRESENCE SAINT FRANCIS HOSPITAL,"355 RIDGE AVE",EVANSTON,IL,"60202",COOK,"8473164000"
"131302",NORTH CANYON MEDICAL CENTER,"267 NORTH CANYON DR",GOODING,ID,"83330",GOODING,"2089344433"
"140150",UNIVERSITY OF ILLINOIS HOSPITAL,"1740 WEST TAYLOR ST SUITE 1400",CHICAGO,IL,"60612",COOK,"3129963900"
"10005",MARSHALL MEDICAL CENTER SOUTH,"2505 U S HIGHWAY 431 NORTH",BOAZ,AL,"35957",MARSHALL,"2565938310"
"10029",EAST ALABAMA MEDICAL CENTER,"2000 PEPPERELL PARKWAY",OPELIKA,AL,"36801",LEE,"3347493411"
"50225",FEATHER RIVER HOSPITAL,"5974 PENTZ ROAD",PARADISE,CA,"95969",BUTTE,"5308779361"
"10036",ANDALUSIA REGIONAL HOSPITAL,"849 SOUTH THREE NOTCH STREET",ANDALUSIA,AL,"36420",COVINGTON,"3342228466"
"10083",SOUTH BALDWIN REGIONAL MEDICAL CENTER,"1613 NORTH MCKENZIE STREET",FOLEY,AL,"36535",BALDWIN,"2519493400"
"10085",DECATUR MORGAN HOSPITAL-DECATUR CAMPUS,"1201 7TH STREET SE",DECATUR,AL,"35601",MORGAN,"2563412000"
"21310",MANIILAQ HEALTH CENTER,PO BOX 43,KOTZEBUE,AK,"99752",NORTHWEST ARCTIC,"9074423321"
"21309",KANAKANAK HOSPITAL,P O BOX 130,DILLINGHAM,AK,"99576",DILLINGHAM,"9078425201"
"10126",TROY REGIONAL MEDICAL CENTER,"1330 HIGHWAY 231 SOUTH",TROY,AL,"36081",PIKE,"3346705000"
"20026",ALASKA NATIVE MEDICAL CENTER,"4315 DIPLOMACY DR",ANCHORAGE,AK,"99508",ANCHORAGE,"9075632662"
"30062",SUMMIT HEALTHCARE REGIONAL MEDICAL CENTER,"2200 EAST SHOW LOW LAKE ROAD",SHOW LOW,AZ,"85901",NAVAJO,"9285376399"
"20008",BARTLETT REGIONAL HOSPITAL,"3260 HOSPITAL DR",JUNEAU,AK,"99801",JUNEAU,"9077968900"
"20012",FAIRBANKS MEMORIAL HOSPITAL,"1650 COWLES STREET",FAIRBANKS,AK,"99701",FAIRBANKS NORTH STAR,"9074528181"
"21313",SOUTH PENINSULA HOSPITAL,"4300 BARTLETT ST",HOMER,AK,"99603",,"9072358101"
"110135",TAYLOR REGIONAL HOSPITAL,"222 PERRY HWY",HAWKINSVILLE,GA,"31036",PULASKI,"4787830200"
"30011",ST JOSEPH'S HOSPITAL,"350 NORTH WILMOT ROAD",TUCSON,AZ,"85711",PIMA,"5208733000"
"110032",STEPHENS COUNTY HOSPITAL,"163 HOSPITAL DRIVE",TOCCOA,GA,"30577",STEPHENS,"7062824250"
"30033",BANNER PAYSON MEDICAL CENTER,"807 SOUTH PONDEROSA DRIVE",PAYSON,AZ,"85541",GILA,"9284743222"
"30036",CHANDLER REGIONAL MEDICAL CENTER,"1955 WEST FRYE ROAD",CHANDLER,AZ,"85224",MARICOPA,"4807283000"
"30038",SCOTTSDALE OSBORN MEDICAL CENTER,"7400 EAST OSBORN ROAD",SCOTTSDALE,AZ,"85251",MARICOPA,"4808824000"
"30087",SCOTTSDALE SHEA MEDICAL CENTER,"9003 EAST SHEA BOULEVARD",SCOTTSDALE,AZ,"85260",MARICOPA,"4803233009"
"30069",HAVASU REGIONAL MEDICAL CENTER,"101 CIVIC CENTER LANE",LAKE HAVASU CITY,AZ,"86403",MOHAVE,"9288558185"
"31309",SAGE MEMORIAL HOSPITAL,STATE ROUTE 264 SOUTH 191,GANADO,AZ,"86505",APACHE,"9287554541"
"31312",COPPER QUEEN COMMUNITY HOSPITAL,"101 COLE AVENUE",BISBEE,AZ,"85603",COCHISE,"5204326401"
"30110",ABRAZO WEST CAMPUS,"13677 WEST MCDOWELL ROAD",GOODYEAR,AZ,"85395",MARICOPA,"6238821515"
"30119",MERCY GILBERT MEDICAL CENTER,"3555 SOUTH VAL VISTA DRIVE",GILBERT,AZ,"85296",MARICOPA,"4807288000"
"31307",PARKER INDIAN HEALTH CENTER,"12033 AGENCY ROAD",PARKER,AZ,"85344",LA PAZ,"9286692137"
"140064",ST MARY MEDICAL CENTER,"3333 NORTH SEMINARY",GALESBURG,IL,"61401",KNOX,"3093443161"
"40119",WHITE RIVER MEDICAL CENTER,"1710 HARRISON STREET",BATESVILLE,AR,"72503",INDEPENDENCE,"8702621200"
"41303",MERCY HOSPITAL TURNER MEMORIAL,"801 WEST RIVER STREET",OZARK,AR,"72949",FRANKLIN,"4796674138"
"41312",BAPTIST HEALTH MEDICAL CENTER HEBER SPINGS,"1800 BYPASS ROAD",HEBER SPRINGS,AR,"72543",CLEBURNE,"5018873000"
"41319","DE QUEEN MEDICAL CENTER, INC","1306 WEST COLLIN RAYE DRIVE",DE QUEEN,AR,"71832",SEVIER,"8705844111"
"50008",CALIFORNIA PACIFIC MEDICAL CTR-DAVIES CAMPUS HOSP,"601 DUBOCE AVE",SAN FRANCISCO,CA,"94117",SAN FRANCISCO,"4156006000"
"50022",RIVERSIDE COMMUNITY HOSPITAL,"4445 MAGNOLIA AVENUE",RIVERSIDE,CA,"92501",RIVERSIDE,"9517883000"
"41322",FULTON COUNTY HOSPITAL,"679 NORTH MAIN STREET",SALEM,AR,"72576",FULTON,"8708952691"
"41323",ASHLEY COUNTY MEDICAL CENTER,"1015 UNITY ROAD",CROSSETT,AR,"71635",ASHLEY,"8703644111"
"230244",GARDEN CITY HOSPITAL,"6245 INKSTER RD",GARDEN CITY,MI,"48135",WAYNE,"7344213300"
"50038",SANTA CLARA VALLEY MEDICAL CENTER,"751 SOUTH BASCOM AVENUE",SAN JOSE,CA,"95128",SANTA CLARA,"4088855000"
"50042",ST ELIZABETH COMMUNITY HOSPITAL,"2550 SISTER MARY COLUMBA DRIVE",RED BLUFF,CA,"96080",TEHAMA,"5305298012"
"50077",SCRIPPS MERCY HOSPITAL,"4077 5TH AVE",SAN DIEGO,CA,"92103",SAN DIEGO,"6192948111"
"50090",SONOMA VALLEY HOSPITAL,"347 ANDRIEUX ST",SONOMA,CA,"95476",SONOMA,"7079355000"
"50056",ANTELOPE VALLEY HOSPITAL,"1600 W AVE J",LANCASTER,CA,"93534",LOS ANGELES,"6619495000"
"50113",SAN MATEO MEDICAL CENTER,"222 W 39TH AVE",SAN MATEO,CA,"94403",SAN MATEO,"6505732222"
"230269","BEAUMONT HOSPITAL, TROY","44201 DEQUINDRE ROAD",TROY,MI,"48085",OAKLAND,"2489648800"
"50075",KAISER FOUNDATION HOSPITAL - OAKLAND/RICHMOND,"275 W MACARTHUR BOULEVARD",OAKLAND,CA,"94611",ALAMEDA,"5107521000"
"50116",NORTHRIDGE HOSPITAL MEDICAL CENTER,"18300 ROSCOE BLVD",NORTHRIDGE,CA,"91325",LOS ANGELES,"8188858500"
"51305",MAYERS MEMORIAL HOSPITAL,"43563 HWY 299 EAST",FALL RIVER MILLS,CA,"96028",SHASTA,"5303365511"
"70004",SHARON HOSPITAL,"50 HOSPITAL HILL ROAD, PO BOX 789",SHARON,CT,"6069",LITCHFIELD,"8603644228"
"111312",OPTIM MEDICAL CENTER - SCREVEN,"215 MIMS ROAD",SYLVANIA,GA,"30467",SCREVEN,"9125647426"
"50688",SAINT LOUISE REGIONAL HOSPITAL,"9400 NO NAME UNO",GILROY,CA,"95020",SANTA CLARA,"4088482000"
"50690",KAISER FOUNDATION HOSPITAL-SANTA ROSA,"401 BICENTENNIAL WAY",SANTA ROSA,CA,"95403",SONOMA,"7075714000"
"50689",SAN RAMON REGIONAL MEDICAL CTR,"6001 NORRIS CANYON ROAD",SAN RAMON,CA,"94583",CONTRA COSTA,"9252759200"
"50228",SAN FRANCISCO GENERAL HOSPITAL,"1001 POTRERO AVENUE",SAN FRANCISCO,CA,"94110",SAN FRANCISCO,"4152068000"
"50350",BEVERLY HOSPITAL,"309 W BEVERLY BLVD",MONTEBELLO,CA,"90640",LOS ANGELES,"3237261222"
"50280",MERCY MEDICAL CENTER REDDING,"2175 ROSALINE AVE, CLAIRMONT HGTS",REDDING,CA,"96001",SHASTA,"5302256102"
"50633",TWIN CITIES COMMUNITY HOSPITAL,"1100 LAS TABLAS RD",TEMPLETON,CA,"93465",SAN LUIS OBISPO,"8054343500"
"121300",KAUAI VETERANS MEMORIAL HOSPITAL,"4643 WAIMEA CANYON DRIVE",WAIMEA,HI,"96796",KAUAI,"8083389431"
"50334",SALINAS VALLEY MEMORIAL HOSPITAL,"450 EAST ROMIE LANE",SALINAS,CA,"93901",MONTEREY,"8317574333"
"50496",JOHN MUIR MEDICAL CENTER - CONCORD CAMPUS,"2540 EAST ST",CONCORD,CA,"94520",CONTRA COSTA,"9256828200"
"50492",CLOVIS COMMUNITY MEDICAL CENTER,"2755 HERNDON AVE",CLOVIS,CA,"93611",FRESNO,"5593244000"
"50498",SUTTER AUBURN FAITH HOSPITAL,"11815 EDUCATION STREET",AUBURN,CA,"95603",PLACER,"5308884500"
"50597",FOOTHILL PRESBYTERIAN HOSPITAL,"250 S GRAND AVE",GLENDORA,CA,"91740",LOS ANGELES,"6269638411"
"50232",FRENCH HOSPITAL MEDICAL CENTER,"1911 JOHNSON AVE",SAN LUIS OBISPO,CA,"93401",SAN LUIS OBISPO,"8055435353"
"50235",PROVIDENCE SAINT JOSEPH MEDICAL CTR,"501 SOUTH BUENA VISTA",BURBANK,CA,"91505",LOS ANGELES,"8188435111"
"50359",TULARE REGIONAL MEDICAL CENTER,"869 CHERRY AVENUE",TULARE,CA,"93274",TULARE,"5596880821"
"50159",VENTURA COUNTY MEDICAL CENTER,"3291 LOMA VISTA RD",VENTURA,CA,"93003",VENTURA,"8056526075"
"50502",SAINT VINCENT MEDICAL CENTER,"2131 W 3RD ST",LOS ANGELES,CA,"90057",LOS ANGELES,"2134847111"
"50373",LAC+USC MEDICAL CENTER,"1200 N STATE ST, ROOM C2K100",LOS ANGELES,CA,"90033",LOS ANGELES,"3232262800"
"110128",MEADOWS REGIONAL MEDICAL CENTER,ONE MEADOWS PARKWAY,VIDALIA,GA,"30474",TOOMBS,"9125355828"
"310028",NEWTON MEDICAL CENTER,"175 HIGH ST",NEWTON,NJ,"7860",SUSSEX,"9735798300"
"440104",ERLANGER MEDICAL CENTER,"975 E 3RD ST",CHATTANOOGA,TN,"37403",HAMILTON,"4237787000"
"50512",KAISER FOUNDATION HOSPITAL - FREMONT,"39400 PASEO PADRE PKWY",FREMONT,CA,"94538",ALAMEDA,"5107844000"
"100320",POINCIANA MEDICAL CENTER,"325 CYPRESS PKWY",KISSIMMEE,FL,"34758",OSCEOLA,"4075302000"
"60114",PARKER ADVENTIST HOSPITAL,"9395 CROWN CREST BLVD",PARKER,CO,"80138",DOUGLAS,"3032694000"
"50739",CENTINELA HOSPITAL MEDICAL CENTER,"555 EAST HARDY STREET",INGLEWOOD,CA,"90301",LOS ANGELES,"3106734660"
"61323",PROWERS MEDICAL CENTER,"401 KENDALL DRIVE",LAMAR,CO,"81052",PROWERS,"7193364343"
"50742",OLYMPIA MEDICAL CENTER,"5900 WEST OLYMPIC BOULEVARD",LOS ANGELES,CA,"90036",LOS ANGELES,"3106575900"
"50581",LAKEWOOD REGIONAL MEDICAL CENTER,"3700 E SOUTH ST",LAKEWOOD,CA,"90712",LOS ANGELES,"5626026751"
"61300",WEISBROD MEMORIAL COUNTY HOSPITAL,"1208 LUTHER STREET",EADS,CO,"81036",KIOWA,"7194385401"
"51324",NORTHERN INYO HOSPITAL,"150 PIONEER LANE",BISHOP,CA,"93514",INYO,"7608735811"
"60075",VALLEY VIEW HOSPITAL ASSOCIATION,"1906 BLAKE AVE",GLENWOOD SPRINGS,CO,"81601",GARFIELD,"9709456535"
"61301",RIO GRANDE HOSPITAL,"310 COUNTY RD 14",DEL NORTE,CO,"81132",RIO GRANDE,"7196572510"
"50779","MARTIN LUTHER KING, JR. COMMUNITY HOSPITAL","1680 EAST 120TH STREET",LOS ANGELES,CA,"90059",LOS ANGELES,"4248356808"
"60103",CENTURA HEALTH-AVISTA ADVENTIST HOSPITAL,"100 HEALTH PARK DRIVE",LOUISVILLE,CO,"80027",BOULDER,"3036731000"
"50747",SOUTH COAST GLOBAL MEDICAL CENTER,"2701 S BRISTOL ST",SANTA ANA,CA,"92704",ORANGE,"7147545454"
"50751",MIRACLE MILE MEDICAL CENTER,"6000 SAN VICENTE BLVD",LOS ANGELES,CA,"90036",LOS ANGELES,"3239301040"
"50580",LA PALMA INTERCOMMUNITY HOSPITAL,"7901 WALKER STREET",LA PALMA,CA,"90623",ORANGE,"7146707400"
"310014",COOPER UNIVERSITY HOSPITAL,"1 COOPER PLAZA",CAMDEN,NJ,"8103",CAMDEN,"8563422000"
"60043",KEEFE MEMORIAL HOSPITAL,"602 N 6TH W ST",CHEYENNE WELLS,CO,"80810",CHEYENNE,"7197675661"
"60036",ARKANSAS VALLEY REGIONAL MEDICAL CENTER,"1100 CARSON AVENUE",LA JUNTA,CO,"81050",OTERO,"7193836000"
"100054",TWIN CITIES HOSPITAL,"2190 HWY 85 N",NICEVILLE,FL,"32578",OKALOOSA,"8506784131"
"100179",MEMORIAL HOSPITAL JACKSONVILLE,"3625 UNIVERSITY BLVD S",JACKSONVILLE,FL,"32216",DUVAL,"9043996111"
"131319",MINIDOKA MEMORIAL HOSPITAL,"1224 8TH STREET",RUPERT,ID,"83350",MINIDOKA,"2084360481"
"100039",BROWARD HEALTH MEDICAL CENTER,"1600 S ANDREWS AVE",FORT LAUDERDALE,FL,"33316",BROWARD,"9543554400"
"100289",CLEVELAND CLINIC HOSPITAL,"3100 WESTON RD",WESTON,FL,"33331",BROWARD,"9546895000"
"140202",ADVOCATE CONDELL MEDICAL CENTER,"801 S MILWAUKEE AVE",LIBERTYVILLE,IL,"60048",LAKE,"8479905200"
"100086",BROWARD HEALTH NORTH,"201 E SAMPLE RD",POMPANO BEACH,FL,"33064",BROWARD,"9547866950"
"131321",ST MARY'S HOSPITAL,"701 LEWISTON ST",COTTONWOOD,ID,"83522",IDAHO,"2089623251"
"100167",PLANTATION GENERAL HOSPITAL,"401 NW 42ND AVE",PLANTATION,FL,"33317",BROWARD,"9545875010"
"100281",MEMORIAL HOSPITAL WEST,"703 N FLAMINGO RD",PEMBROKE PINES,FL,"33028",BROWARD,"9544365000"
"100008",BAPTIST HOSPITAL OF MIAMI,"8900 N KENDALL DR",MIAMI,FL,"33176",MIAMI-DADE,"7865961960"
"70036",JOHN DEMPSEY HOSPITAL,"263 FARMINGTON AVE",FARMINGTON,CT,"6032",HARTFORD,"8606791145"
"70035","HOSPITAL OF CENTRAL CONNECTICUT, THE","100 GRAND STREET",NEW BRITAIN,CT,"6050",HARTFORD,"8602245011"
"131323",ST LUKE'S WOOD RIVER MEDICAL CENTER,"100 HOSPITAL DRIVE",KETCHUM,ID,"83340",BLAINE,"2087278800"
"70038","CONNECTICUT HOSPICE INC,THE","100 DOUBLE BEACH ROAD",BRANFORD,CT,"6405",NEW HAVEN,"2033157500"
"140101",MORRIS HOSPITAL & HEALTHCARE CENTERS,"150 W HIGH ST",MORRIS,IL,"60450",GRUNDY,"8159422932"
"100050",LARKIN COMMUNITY HOSPITAL PALM SPRINGS CAMPUS,"1475 W 49TH ST",HIALEAH,FL,"33012",MIAMI-DADE,"3055582500"
"100259",SOUTH BAY HOSPITAL,"4016 SUN CITY CENTER BLVD",SUN CITY CENTER,FL,"33573",HILLSBOROUGH,"8136343301"
"70039",MASONICARE HEALTH CENTER,"22 MASONIC AVE",WALLINGFORD,CT,"6492",NEW HAVEN,"2036795900"
"131327",GRITMAN MEDICAL CENTER,"700 SOUTH MAIN STREET",MOSCOW,ID,"83843",LATAH,"2088824511"
"100177",CAPE CANAVERAL HOSPITAL,"701 W COCOA BEACH CAUSEWAY",COCOA BEACH,FL,"32932",BREVARD,"3217997111"
"100298",FLORIDA STATE HOSPITAL UNIT 31 MED,"100 N MAIN ST",CHATTAHOOCHEE,FL,"32324",GADSDEN,"8506637536"
"73300",CONNECTICUT CHILDRENS MEDICAL CENTER,"282 WASHINGTON STREET",HARTFORD,CT,"6106",HARTFORD,"8605459000"
"90008",UNITED MEDICAL CENTER,"1310 SOUTHERN AVENUE  SE",WASHINGTON,DC,"20032",DISTRICT OF COLUMBIA,"2025746611"
"110003","MAYO CLINIC HEALTH SYSTEM IN WAYCROSS, INC","1900 TEBEAU STREET",WAYCROSS,GA,"31501",WARE,"9122872500"
"70010",BRIDGEPORT HOSPITAL,"267 GRANT STREET",BRIDGEPORT,CT,"6610",FAIRFIELD,"2033843000"
"100018",NAPLES COMMUNITY HOSPITAL,"350 7TH ST N",NAPLES,FL,"34102",COLLIER,"2394365000"
"113301",CHILDRENS HEALTHCARE OF ATLANTA AT SCOTTISH RITE,"1001 JOHNSON FERRY RD",ATLANTA,GA,"30342",FULTON,"4047855252"
"110142",EVANS MEMORIAL HOSPITAL,"200 N RIVER STREET",CLAXTON,GA,"30417",EVANS,"9127395105"
"101300",FLORIDA HOSPITAL WAUCHULA,"533 CARLTON ST",WAUCHULA,FL,"33873",HARDEE,"8637733101"
"101301",SHANDS LIVE OAK REGIONAL MEDICAL CENTER,"1100 SW 11TH ST",LIVE OAK,FL,"32060",SUWANNEE,"9043621413"
"110069",HOUSTON MEDICAL CENTER,"1601 WATSON BOULEVARD",WARNER ROBINS,GA,"31093",HOUSTON,"4789224281"
"101313",MARINERS HOSPITAL,"91500 OVERSEAS HIGHWAY",TAVERNIER,FL,"33070",MONROE,"3054343000"
"101303",LAKE BUTLER HOSPITAL,"850 E MAIN ST",LAKE BUTLER,FL,"32054",UNION,"3864962323"
"110234",SGMC BERRIEN CAMPUS,"1221 E MCPHERSON AVENUE",NASHVILLE,GA,"31639",BERRIEN,"2295437100"
"70017",MIDSTATE MEDICAL CENTER,"435 LEWIS AVENUE",MERIDEN,CT,"6450",NEW HAVEN,"2036948200"
"111320",HIGGINS GENERAL HOSPITAL,"200 ALLEN MEMORIAL DRIVE",BREMEN,GA,"30110",HARALSON,"7708242210"
"110040",NORTHRIDGE MEDICAL CENTER,"70 MEDICAL CENTER DRIVE",COMMERCE,GA,"30529",JACKSON,"7063351100"
"111302",BLECKLEY MEMORIAL HOSPITAL,"145 EAST PEACOCK STREET",COCHRAN,GA,"31014",BLECKLEY,"4789346211"
"70022",YALE-NEW HAVEN HOSPITAL,"20 YORK ST",NEW HAVEN,CT,"6504",NEW HAVEN,"2036884242"
"110041",HABERSHAM COUNTY MEDICAL CTR,"541 HISTORIC HIGHWAY 441-NORTH",DEMOREST,GA,"30535",HABERSHAM,"7067542161"
"110194",DONALSONVILLE HOSPITAL INC,"102 HOSPITAL CIR",DONALSONVILLE,GA,"39845",SEMINOLE,"2295245217"
"110198",WELLSTAR NORTH FULTON HOSPITAL,"3000 HOSPITAL BOULEVARD",ROSWELL,GA,"30076",FULTON,"7707512500"
"70028",ST VINCENT'S MEDICAL CENTER,"2800 MAIN ST",BRIDGEPORT,CT,"6606",FAIRFIELD,"2035765551"
"110078",EMORY UNIVERSITY HOSPITAL MIDTOWN,"550 PEACHTREE ST NE",ATLANTA,GA,"30308",FULTON,"4046864411"
"110168",REDMOND REGIONAL MEDICAL CENTER,"501 REDMOND ROAD",ROME,GA,"30165",FLOYD,"7068023012"
"110165",SOUTHERN REGIONAL MEDICAL CENTER,"11 UPPER RIVERDALE ROAD, SW",RIVERDALE,GA,"30274",CLAYTON,"7709918160"
"120014",WILCOX MEMORIAL HOSPITAL,"3-3420 KUHIO HIGHWAY",LIHUE,HI,"96766",KAUAI,"8082451103"
"100117",BAPTIST MEDICAL CENTER - BEACHES,"1350 13TH AVE S",JACKSONVILLE BEACH,FL,"32250",DUVAL,"9042472900"
"100121",BARTOW REGIONAL MEDICAL CENTER,"2200 OSPREY BLVD",BARTOW,FL,"33831",POLK,"8635338111"
"111336",MOUNTAIN LAKES MEDICAL CENTER,"196 RIDGECREST CIRCLE",CLAYTON,GA,"30525",RABUN,"7067820400"
"100234",WEST PALM HOSPITAL,"2201 45TH ST",WEST PALM BEACH,FL,"33407",PALM BEACH,"5618446141"
"140158",MERCY HOSPITAL AND MEDICAL CENTER,"2525 S MICHIGAN AVE",CHICAGO,IL,"60616",COOK,"3125672000"
"131304",HARMS MEMORIAL HOSPITAL,"510 ROOSEVELT STREET",AMERICAN FALLS,ID,"83211",POWER,"2082263200"
"131307",WEISER MEMORIAL HOSPITAL,"645 EAST 5TH STREET",WEISER,ID,"83672",WASHINGTON,"2085490370"
"140122",ADVENTIST HINSDALE HOSPITAL,"120 NORTH OAK ST",HINSDALE,IL,"60521",DUPAGE,"6308569000"
"140015",BLESSING HOSPITAL,BROADWAY AT 11TH STREET,QUINCY,IL,"62301",ADAMS,"2172235811"
"130028",PORTNEUF MEDICAL CENTER,"777 HOSPITAL WAY",POCATELLO,ID,"83201",BANNOCK,"2082391452"
"140062",PALOS COMMUNITY HOSPITAL,"12251 SOUTH 80TH AVENUE",PALOS HEIGHTS,IL,"60463",COOK,"7089234000"
"140137",GREENVILLE REGIONAL HOSPITAL,"200 HEALTHCARE DR",GREENVILLE,IL,"62246",BOND,"6186641230"
"140180",PRESENCE SAINTS MARY AND ELIZABETH MEDICAL CENTER,"2233 W DIVISION ST",CHICAGO,IL,"60622",COOK,"3127702000"
"131314",SHOSHONE MEDICAL CENTER,"25 JACOBS GULCH ROAD",KELLOGG,ID,"83837",SHOSHONE,"2087841221"
"140077",TOUCHETTE REGIONAL HOSPITAL INC,"5900 BOND AVENUE",CENTREVILLE,IL,"62207",SAINT CLAIR,"6183323060"
"140046",GOOD SAMARITAN REGIONAL HLTH CENTER,"1 GOOD SAMARITAN WAY",MOUNT VERNON,IL,"62864",JEFFERSON,"6188991469"
"140184",HEARTLAND REGIONAL MEDICAL CENTER,"3333 W DE YOUNG",MARION,IL,"62959",WILLIAMSON,"6189987000"
"41308",MCGEHEE HOSPITAL,"900 SOUTH THIRD STREET",MCGEHEE,AR,"71654",DESHA,"8702225600"
"41331",OZARKS COMMUNITY HOSPITAL OF GRAVETTE,"1101 JACKSON STREET SW",GRAVETTE,AR,"72736",BENTON,"4797875291"
"50013",ST HELENA HOSPITAL,"10 WOODLAND ROAD",SAINT HELENA,CA,"94574",NAPA,"7079633611"
"50100",SHARP MEMORIAL HOSPITAL,"7901 FROST ST",SAN DIEGO,CA,"92123",SAN DIEGO,"8589393400"
"50025",UNIVERSITY OF CALIFORNIA SAN DIEGO MEDICAL CENTER,"200 WEST ARBOR DRIVE",SAN DIEGO,CA,"92103",SAN DIEGO,"6195436222"
"41326",DELTA MEMORIAL HOSPITAL,"811 HIGHWAY 65 SOUTH",DUMAS,AR,"71639",DESHA,"8703824303"
"43300",ARKANSAS CHILDREN'S HOSPITAL,"1 CHILDREN'S WAY, SLOT 301",LITTLE ROCK,AR,"72202",PULASKI,"5013641100"
"50036",BAKERSFIELD MEMORIAL HOSPITAL,"420 34TH ST BOX",BAKERSFIELD,CA,"93301",KERN,"6613271792"
"50084",ST JOSEPH'S MEDICAL CENTER OF STOCKTON,"1800 N CALIFORNIA ST",STOCKTON,CA,"95204",SAN JOAQUIN,"2099432000"
"50057",KAWEAH DELTA MEDICAL CENTER,"400 W MINERAL KING AVE",VISALIA,CA,"93291",TULARE,"5596242000"
"50107",MARIAN REGIONAL MEDICAL CENTER,"1400 E CHURCH ST",SANTA MARIA,CA,"93454",SANTA BARBARA,"8057393100"
"50072",KAISER FOUNDATION HOSPITAL - WALNUT CREEK,"1425 S MAIN STREET",WALNUT CREEK,CA,"94596",CONTRA COSTA,"9252954000"
"50073",KAISER FOUNDATION HOSPITAL AND REHAB CENTER,"975 SERENO DR",VALLEJO,CA,"94589",SOLANO,"7076511000"
"50127",WOODLAND MEMORIAL HOSPITAL,"1325 COTTONWOOD STREET",WOODLAND,CA,"95695",YOLO,"5306623961"
"50091",COMMUNITY HOSPITAL OF HUNTINGTON PARK,"2623 E SLAUSON AVE",HUNTINGTON PARK,CA,"90255",LOS ANGELES,"3235831931"
"60116",GOOD SAMARITAN MEDICAL CENTER,"200 EXEMPLA CIRCLE",LAFAYETTE,CO,"80026",BOULDER,"3036894000"
"51309",JEROLD PHELPS COMMUNITY HOSPITAL,"733 CEDAR ST",GARBERVILLE,CA,"95542",HUMBOLDT,"7079233921"
"53308",HEALTHBRIDGE CHILDREN'S HOSPITAL - ORANGE,"393 S TUSTIN STREET",ORANGE,CA,"92866",ORANGE,"7142892400"
"60016",CENTURA HEALTH-ST THOMAS MORE HOSPITAL,"1338 PHAY AVE",CANON CITY,CO,"81212",FREMONT,"7192852000"
"50736",MONTEREY PARK HOSPITAL,"900 S ATLANTIC BLVD",MONTEREY PARK,CA,"91754",LOS ANGELES,"6265709000"
"50242",DOMINICAN HOSPITAL,"1555 SOQUEL DRIVE",SANTA CRUZ,CA,"95065",SANTA CRUZ,"8314627700"
"50589",PLACENTIA LINDA HOSPITAL,"1301 N ROSE DRIVE",PLACENTIA,CA,"92870",ORANGE,"7149932000"
"50189",GEORGE L MEE MEMORIAL HOSPITAL,"300 CANAL STREET",KING CITY,CA,"93930",MONTEREY,"8313856000"
"50301",UKIAH VALLEY MEDICAL CENTER,"275 HOSPITAL DRIVE",UKIAH,CA,"95482",MENDOCINO,"7074623111"
"50342",PIONEERS MEMORIAL HEALTHCARE DISTRICT,"207 WEST LEGION ROAD",BRAWLEY,CA,"92227",IMPERIAL,"7603513333"
"50348",UNIVERSITY OF CALIFORNIA IRVINE MED CENTER,"101 CITY DRIVE SOUTH",ORANGE,CA,"92868",ORANGE,"7144566112"
"50279",HI-DESERT MEDICAL CENTER,"6601 WHITE FEATHER ROAD",JOSHUA TREE,CA,"92252",SAN BERNARDINO,"7603663711"
"50488",EDEN MEDICAL CENTER,"20103 LAKE CHABOT ROAD",CASTRO VALLEY,CA,"94546",ALAMEDA,"5105371234"
"50603",SADDLEBACK MEMORIAL MEDICAL CENTER,"24451 HEALTH CENTER DRIVE",LAGUNA HILLS,CA,"92653",ORANGE,"9498374500"
"50636",POMERADO HOSPITAL,"15615 POMERADO ROAD",POWAY,CA,"92064",SAN DIEGO,"8584856511"
"110111",UNIVERSITY HOSPITAL MCDUFFIE,"2460 WASHINGTON ROAD",THOMSON,GA,"30824",MCDUFFIE,"7065951411"
"50291",SUTTER SANTA ROSA REGIONAL HOSPITAL,"30 MARK WEST SPRINGS ROAD",SANTA ROSA,CA,"95403",SONOMA,"7075764000"
"50708",FRESNO SURGICAL HOSPITAL,"6125 NORTH FRESNO ST",FRESNO,CA,"93710",FRESNO,"5594318000"
"50710",KAISER FOUNDATION HOSPITAL - FRESNO,"7300 NORTH FRESNO ST",FRESNO,CA,"93720",FRESNO,"5594484500"
"50701",SOUTHWEST HEALTHCARE SYSTEM,"25500 MEDICAL CENTER DRIVE",MURRIETA,CA,"92562",RIVERSIDE,"9516966000"
"50686","KAISER FOUNDATION HOSPITAL, RIVERSIDE","10800 MAGNOLIA AVENUE",RIVERSIDE,CA,"92505",RIVERSIDE,"9513532000"
"50546",PORTERVILLE DEVELOPMENTAL CENTER,"26501 AVENUE 140",PORTERVILLE,CA,"93257",TULARE,"5597822222"
"450097",BAYSHORE MEDICAL CENTER,"4000 SPENCER HWY",PASADENA,TX,"77504",HARRIS,"7133591000"
"50641",EAST LOS ANGELES DOCTORS HOSPITAL,"4060 WHITTIER BLVD",LOS ANGELES,CA,"90023",LOS ANGELES,"3232685514"
"53304",CHILDREN'S HOSPITAL OF ORANGE COUNTY,"1201 W LA VETA AVE",ORANGE,CA,"92868",ORANGE,"7149973000"
"50758",MONTCLAIR HOSPITAL MEDICAL CENTER,"5000 SAN BERNARDINO ST",MONTCLAIR,CA,"91763",SAN BERNARDINO,"9096258300"
"51332",MARK TWAIN MEDICAL CENTER,"768 MOUNTAIN RANCH RD",SAN ANDREAS,CA,"95249",CALAVERAS,"2097542515"
"51333",RIDGECREST REGIONAL HOSPITAL,"1081 NORTH CHINA LAKE BLVD",RIDGECREST,CA,"93555",KERN,"7604463551"
"51301",ADVENTIST HEALTH MEDICAL CENTER TEHACHAPI VALLEY,"115 WEST E STREET",TEHACHAPI,CA,"93561",KERN,"6618223241"
"51303",MAMMOTH HOSPITAL,"85 SIERRA PARK ROAD PO BOX 660",MAMMOTH LAKES,CA,"93546",MONO,"7609343311"
"60064",CENTURA HEALTH-PORTER ADVENTIST HOSPITAL,"2525 S DOWNING ST",DENVER,CO,"80210",DENVER,"3037781955"
"63301",CHILDRENS HOSPITAL COLORADO,"13123 EAST 16TH AVENUE",AURORA,CO,"80045",ADAMS,"7207771234"
"51321",HEALDSBURG DISTRICT HOSPITAL,"1375 UNIVERSITY AVENUE",HEALDSBURG,CA,"95448",SONOMA,"7074316500"
"60028",SAINT JOSEPH HOSPITAL,"1375 EAST 19TH AVE",DENVER,CO,"80218",DENVER,"3038122000"
"60006",MONTROSE MEMORIAL HOSPITAL,"800 S 3RD ST",MONTROSE,CO,"81401",MONTROSE,"9702492211"
"60024",UNIVERSITY OF COLORADO HOSPITAL AUTHORITY,"12605 EAST 16TH AVENUE",AURORA,CO,"80045",ADAMS,"7208480000"
"50397",COALINGA REGIONAL MEDICAL CENTER,"1191 PHELPS AVENUE",COALINGA,CA,"93210",FRESNO,"5599356400"
"60009",LUTHERAN MEDICAL CENTER,"8300 W 38TH AVE",WHEAT RIDGE,CO,"80033",JEFFERSON,"3034254500"
"50276",CONTRA COSTA REGIONAL MEDICAL CENTER,"2500 ALHAMBRA AVENUE",MARTINEZ,CA,"94553",CONTRA COSTA,"9253705000"
"50781",SONOMA WEST MEDICAL CENTER,"501 PETALUMA AVENUE",SEBASTOPOL,CA,"95472",SONOMA,"7078238511"
"60031",CENTURA HEALTH-PENROSE ST FRANCIS HEALTH SERVICES,"2222 N NEVADA AVE",COLORADO SPRINGS,CO,"80907",EL PASO,"7197765000"
"50575",GARDENS REGIONAL HOSPITAL AND MEDICAL CENTER,"21530 S PIONEER BLVD",HAWAIIAN GARDENS,CA,"90716",LOS ANGELES,"5628600401"
"61327",SOUTHWEST MEMORIAL HOSPITAL,"1311 N MILDRED RD",CORTEZ,CO,"81321",MONTEZUMA,"9705656666"
"50262",RONALD REAGAN U C L A MEDICAL CENTER,"757 WESTWOOD PLAZA",LOS ANGELES,CA,"90095",LOS ANGELES,"3108256301"
"140117",PRESENCE RESURRECTION MEDICAL CENTER,"7435 W TALCOTT AVENUE",CHICAGO,IL,"60631",COOK,"7737748000"
"140118",METROSOUTH MEDICAL CENTER,"12935 S GREGORY",BLUE ISLAND,IL,"60406",COOK,"7085972000"
"100180",ST PETERSBURG GENERAL HOSPITAL,"6500 38TH AVE N",SAINT PETERSBURG,FL,"33710",PINELLAS,"7273841414"
"100181",LARKIN COMMUNITY HOSPITAL,"7031 SW 62ND AVE",SOUTH MIAMI,FL,"33143",MIAMI-DADE,"3052847500"
"131318",VALOR HEALTH,"1202 EAST LOCUST STREET",EMMETT,ID,"83617",GEM,"2083653561"
"140084",VISTA MEDICAL CENTER EAST,"1324 NORTH SHERIDAN ROAD",WAUKEGAN,IL,"60085",LAKE,"8473604000"
"100287",GOOD SAMARITAN MEDICAL CENTER,"1309 N FLAGLER DR",WEST PALM BEACH,FL,"33401",PALM BEACH,"5616555511"
"140093",PRESENCE UNITED SAMARITANS MEDICAL CENTER,"812 N LOGAN",DANVILLE,IL,"61832",VERMILION,"2174435000"
"100130",LAKESIDE MEDICAL CENTER,"39200 HOOKER HWY",BELLE GLADE,FL,"33430",PALM BEACH,"5619966571"
"80007",BEEBE MEDICAL CENTER,"424 SAVANNAH RD",LEWES,DE,"19958",SUSSEX,"3026453300"
"100001",UF HEALTH JACKSONVILLE,"655 W 8TH ST",JACKSONVILLE,FL,"32209",DUVAL,"9042440411"
"100073",HOLY CROSS HOSPITAL,"4725 N FEDERAL HWY",FORT LAUDERDALE,FL,"33308",BROWARD,"9547718000"
"121305",LANAI COMMUNITY HOSPITAL,"628 7TH STREET",LANAI CITY,HI,"96763",MAUI,"8085658450"
